{"type":"FeatureCollection","name":"inegi-hidalgo-020","metadata":{"state":"Hidalgo","CVE_ENT":"13","CVE_MUN":"020","municipality":"Eloxochitlán","sources":["INEGI Gaia — Servicio vectorial del Marco Geoestadístico","INEGI DCAH 2025"],"source_urls":["https://gaia.inegi.org.mx/wscatgeo/v2/geo/mgem/13","https://gaia.inegi.org.mx/wscatgeo/v2/geo/localidades/pol/13/020","https://www.inegi.org.mx/contenidos/productos/prod_serv/contenidos/espanol/bvinegi/productos/geografia/delimitaciones/794551163078/13_hidalgo.zip"],"geometry_policy":"Solo se publican polígonos de INEGI; no se generan puntos ni geometrías sintéticas.","locality_polygon_count":8,"settlement_polygon_count":4},"municipality":{"type":"Feature","geometry":{"type":"MultiPolygon","crs":{"type":"name","properties":{"name":"EPSG:6365"}},"coordinates":[[[[-98.893549709,20.84391462],[-98.89230592,20.84373852],[-98.891497379,20.84370878],[-98.890409089,20.843532781],[-98.88947614,20.843561401],[-98.88844985,20.843648381],[-98.886843229,20.843537141],[-98.88575602,20.842895581],[-98.88533702,20.84193468],[-98.885180219,20.84046375],[-98.885271119,20.839635141],[-98.88548565,20.838618781],[-98.885795479,20.83759434],[-98.88623528,20.836474551],[-98.885472289,20.835567651],[-98.884428249,20.834320631],[-98.883766029,20.833447371],[-98.882813229,20.833025491],[-98.881932819,20.832161451],[-98.881548799,20.83156331],[-98.881080649,20.831133421],[-98.88078694,20.830721821],[-98.880117289,20.83018935],[-98.879326419,20.82927865],[-98.8792638,20.82832563],[-98.87812329,20.827848341],[-98.877426479,20.82737135],[-98.87711025,20.82653729],[-98.876793629,20.826179691],[-98.87687669,20.825664401],[-98.875243289,20.825183431],[-98.87473369,20.824031581],[-98.87453008,20.82331177],[-98.873917649,20.823023461],[-98.87385465,20.82224028],[-98.874368709,20.82085488],[-98.874497379,20.820312711],[-98.87411306,20.81989068],[-98.873792889,20.81940843],[-98.87417802,20.81886645],[-98.87475569,20.81808362],[-98.875013029,20.81699928],[-98.87450474,20.81637065],[-98.87442586,20.814403321],[-98.87442705,20.812965721],[-98.87450851,20.811830831],[-98.873945819,20.81077112],[-98.874026819,20.81016588],[-98.873621249,20.807461261],[-98.87358949,20.807160911],[-98.87353485,20.80684157],[-98.87355695,20.806821431],[-98.873460629,20.805863021],[-98.8730568,20.80464511],[-98.872409599,20.80395971],[-98.87192454,20.803046141],[-98.87233042,20.801828831],[-98.872412309,20.801018631],[-98.872872229,20.800155781],[-98.873397819,20.79923132],[-98.873923229,20.798491831],[-98.87379254,20.79787517],[-98.87398995,20.79713543],[-98.87433258,20.7964502],[-98.876344079,20.79691592],[-98.874850549,20.79537349],[-98.875285659,20.794696781],[-98.876543599,20.79466314],[-98.87533714,20.79323272],[-98.875368089,20.793205181],[-98.875321079,20.79314034],[-98.87555671,20.792768861],[-98.875868549,20.792099421],[-98.8761782,20.791532581],[-98.87658331,20.79087531],[-98.877053859,20.7902088],[-98.877484549,20.7896136],[-98.87815417,20.788873291],[-98.878285229,20.78818545],[-98.87787877,20.787507221],[-98.877396019,20.787023661],[-98.87695797,20.787360911],[-98.87629382,20.787926831],[-98.875610259,20.788197481],[-98.874790079,20.78778646],[-98.87381545,20.78773729],[-98.873906109,20.78744551],[-98.873250449,20.787665151],[-98.872588259,20.78811745],[-98.872038489,20.78868371],[-98.87123226,20.78907392],[-98.87025792,20.78915017],[-98.869324629,20.78906108],[-98.86834823,20.78888326],[-98.868422319,20.78874874],[-98.863121049,20.786936281],[-98.861487949,20.787179721],[-98.86100465,20.7872284],[-98.86038703,20.78700088],[-98.85964657,20.78662112],[-98.8593414,20.78638575],[-98.859062909,20.78646469],[-98.85880606,20.78653572],[-98.858568659,20.786269171],[-98.858326849,20.78619331],[-98.85796502,20.786289431],[-98.857631519,20.78611871],[-98.857317509,20.78590508],[-98.85705012,20.78568151],[-98.85673154,20.78566405],[-98.85628643,20.785829061],[-98.856021749,20.785805421],[-98.8555854,20.7859544],[-98.85525731,20.785827951],[-98.854853769,20.78590134],[-98.85439429,20.785961451],[-98.85388552,20.785897981],[-98.853641169,20.78577231],[-98.853345749,20.78582212],[-98.85307612,20.785686151],[-98.852693109,20.785631341],[-98.85235029,20.78563822],[-98.85163658,20.78432594],[-98.85121475,20.783698371],[-98.85075531,20.782907521],[-98.850488029,20.78161314],[-98.85035382,20.78112145],[-98.850116969,20.780386091],[-98.85006115,20.779789771],[-98.85064103,20.778883181],[-98.851207969,20.777842651],[-98.851288859,20.77645942],[-98.85113069,20.775524621],[-98.85073342,20.77507563],[-98.84902472,20.773578661],[-98.846230579,20.7698102],[-98.845540019,20.768975381],[-98.84362189,20.769050051],[-98.84190852,20.7693286],[-98.835422019,20.768961221],[-98.832336599,20.769296121],[-98.8271158,20.77097574],[-98.824319029,20.772524861],[-98.82127671,20.774233661],[-98.81810106,20.775711691],[-98.815475549,20.777204151],[-98.813629519,20.778564881],[-98.8125492,20.779191911],[-98.812291319,20.779868151],[-98.81115982,20.780301821],[-98.809565219,20.781073231],[-98.808382399,20.781410181],[-98.80740552,20.781505741],[-98.80709708,20.78150538],[-98.806766889,20.78187566],[-98.80649171,20.782034401],[-98.806005259,20.781994091],[-98.805655399,20.781925831],[-98.805488599,20.781858421],[-98.80486852,20.78201457],[-98.80424855,20.78210351],[-98.803795429,20.78221505],[-98.803413799,20.78234908],[-98.802936849,20.78246057],[-98.802364309,20.782728831],[-98.802075399,20.782839741],[-98.80179392,20.78298397],[-98.80113085,20.78344038],[-98.800717029,20.78365538],[-98.80013768,20.783871491],[-98.79986531,20.783989261],[-98.799465999,20.78424554],[-98.799598819,20.784408181],[-98.799500619,20.78494388],[-98.798929549,20.785609681],[-98.798261259,20.78607935],[-98.797618019,20.78684386],[-98.79708702,20.78714197],[-98.796052369,20.787021351],[-98.79584483,20.787366941],[-98.794924279,20.78758198],[-98.794197819,20.788198421],[-98.79371794,20.78957152],[-98.793560399,20.790766021],[-98.793037109,20.79094643],[-98.79284352,20.79159275],[-98.792830219,20.79203734],[-98.79195505,20.7922348],[-98.79140878,20.792056311],[-98.790930779,20.792019781],[-98.790472089,20.79183949],[-98.78986011,20.79189266],[-98.78945832,20.79205392],[-98.789152079,20.792251261],[-98.78884577,20.79250251],[-98.788692539,20.792682061],[-98.788386489,20.79275358],[-98.78775534,20.79282469],[-98.78723465,20.79315366],[-98.78712637,20.79360882],[-98.787045029,20.794038711],[-98.786829139,20.79446845],[-98.786640549,20.794619971],[-98.78596738,20.79489737],[-98.785105829,20.795174521],[-98.784486479,20.795451981],[-98.78416289,20.79590686],[-98.78357026,20.79631082],[-98.783058419,20.79668958],[-98.782650379,20.797069171],[-98.782504109,20.79743431],[-98.782041849,20.79791322],[-98.781628229,20.798346521],[-98.78104472,20.79866545],[-98.78048562,20.79891589],[-98.77970823,20.798914891],[-98.77912522,20.798891311],[-98.77878502,20.798959371],[-98.778590549,20.799027621],[-98.778973279,20.79918085],[-98.77909468,20.79929638],[-98.779090224,20.799296918],[-98.778796059,20.799332461],[-98.778479429,20.799368171],[-98.778478761,20.799367392],[-98.777864969,20.798651541],[-98.777093029,20.798140801],[-98.776707829,20.798031651],[-98.776706067,20.798032825],[-98.776327549,20.798285181],[-98.775983649,20.798328781],[-98.775982848,20.798327939],[-98.775473169,20.797792371],[-98.774826149,20.797634431],[-98.774446109,20.797145121],[-98.774214259,20.796926601],[-98.773911489,20.796782581],[-98.773685539,20.796557231],[-98.773402649,20.796313861],[-98.773217089,20.796251861],[-98.773151689,20.796004541],[-98.773858489,20.795540621],[-98.774334849,20.795267861],[-98.774612719,20.795106681],[-98.774639539,20.794845771],[-98.774719509,20.794410951],[-98.774548149,20.794075221],[-98.774330449,20.793408511],[-98.773803569,20.793337061],[-98.773352059,20.793212631],[-98.772900509,20.793105891],[-98.772505909,20.792680821],[-98.771960819,20.792202451],[-98.771584679,20.792025051],[-98.771170939,20.791812221],[-98.770889219,20.791422661],[-98.770626029,20.791227721],[-98.770569289,20.790685091],[-98.770466309,20.790197521],[-98.770293919,20.789888601],[-98.770000429,20.789644491],[-98.769793309,20.789449251],[-98.769499819,20.789205141],[-98.768928549,20.788451891],[-98.768512179,20.787879381],[-98.768059019,20.786824291],[-98.767723119,20.786063461],[-98.767386909,20.785513851],[-98.767072999,20.785069861],[-98.766399199,20.78485772],[-98.766039799,20.784772751],[-98.765747979,20.784582261],[-98.765614119,20.783948431],[-98.765704489,20.783631721],[-98.765632109,20.782797971],[-98.765429779,20.782096651],[-98.765137109,20.781373951],[-98.765129519,20.780460551],[-98.764948649,20.779840681],[-98.765063419,20.779114371],[-98.765291449,20.778644621],[-98.765450919,20.778409801],[-98.765469049,20.778198321],[-98.764952199,20.777870461],[-98.764228539,20.777323061],[-98.763962059,20.776974091],[-98.763665519,20.776876061],[-98.763339459,20.776694341],[-98.763033139,20.776553251],[-98.763029101,20.776554194],[-98.762794319,20.776609021],[-98.762790861,20.776608202],[-98.762376719,20.776510261],[-98.762183119,20.776271571],[-98.761944749,20.776046831],[-98.761676419,20.775906221],[-98.761527679,20.775611481],[-98.761319629,20.775078231],[-98.760952619,20.773528231],[-98.761169179,20.773154951],[-98.761273109,20.773005681],[-98.760864539,20.77274882],[-98.760407579,20.772308821],[-98.759104889,20.771397231],[-98.758906909,20.771020741],[-98.758948549,20.770826461],[-98.758797319,20.770593031],[-98.758476089,20.769639831],[-98.757913779,20.768925141],[-98.757277289,20.768647891],[-98.756616709,20.768117281],[-98.756079349,20.767126251],[-98.755581979,20.766791891],[-98.755582509,20.766467631],[-98.756001999,20.766074461],[-98.756100999,20.765796651],[-98.756249649,20.765287291],[-98.756607889,20.764700781],[-98.756658199,20.764234941],[-98.756188149,20.763745051],[-98.755632949,20.763027031],[-98.755298339,20.762685201],[-98.754935889,20.762290831],[-98.754936519,20.761896971],[-98.755272279,20.761529831],[-98.755887619,20.760979311],[-98.756307799,20.760437741],[-98.756364919,20.75985682],[-98.756366229,20.759038121],[-98.756311229,20.758298581],[-98.756270169,20.756892461],[-98.756509919,20.755294681],[-98.756669659,20.754291431],[-98.756942829,20.753579521],[-98.756884689,20.753186971],[-98.756622059,20.752737601],[-98.756173939,20.752010431],[-98.755827859,20.751601481],[-98.755683569,20.751372981],[-98.755489509,20.751142771],[-98.755380659,20.750958821],[-98.755297019,20.750575851],[-98.755218769,20.748484201],[-98.755010719,20.746432771],[-98.754933679,20.746140981],[-98.754710859,20.745320921],[-98.753895139,20.743301821],[-98.753540029,20.742410311],[-98.75308522,20.74084962],[-98.75345566,20.740792111],[-98.753887859,20.740715351],[-98.754279089,20.74052246],[-98.754999279,20.740484801],[-98.755657539,20.74056311],[-98.75610055,20.74054089],[-98.75631988,20.74052746],[-98.756568109,20.740720261],[-98.75678729,20.74080306],[-98.757182029,20.740803621],[-98.7574746,20.7407078],[-98.75782554,20.74066706],[-98.758190909,20.740750051],[-98.7586296,20.740695681],[-98.75936083,20.74055923],[-98.75984598,20.74044845],[-98.760664399,20.74018271],[-98.761378539,20.73928318],[-98.761913979,20.738718491],[-98.76238174,20.7386982],[-98.76272534,20.73871798],[-98.7629608,20.738719941],[-98.76481354,20.73767718],[-98.76544695,20.73745483],[-98.76581123,20.73727675],[-98.766268599,20.737028091],[-98.766420249,20.736767601],[-98.76663469,20.73662569],[-98.76702557,20.736507721],[-98.767290459,20.736354031],[-98.767719119,20.73623611],[-98.768148,20.73597598],[-98.7684634,20.73576312],[-98.768879739,20.73545558],[-98.76942185,20.735325951],[-98.769737059,20.73523158],[-98.770502969,20.73472655],[-98.77111395,20.733945551],[-98.77160766,20.733507],[-98.771919859,20.732970601],[-98.772128509,20.732263261],[-98.77264854,20.73158074],[-98.772831339,20.730800151],[-98.77285791,20.730385381],[-98.77302257,20.729820621],[-98.77308922,20.72931263],[-98.772971059,20.72901508],[-98.772497199,20.72864269],[-98.772273289,20.728555651],[-98.772537019,20.72845686],[-98.773024799,20.728321201],[-98.77342563,20.72830671],[-98.773720219,20.72823017],[-98.77417837,20.72816923],[-98.77483298,20.72801626],[-98.77504582,20.727908861],[-98.77512818,20.727524381],[-98.77548802,20.72714418],[-98.775995849,20.72687218],[-98.776630569,20.72658331],[-98.777138249,20.726413551],[-98.77750109,20.72614135],[-98.778552799,20.72573371],[-98.77964088,20.72524091],[-98.780799219,20.72491429],[-98.78108906,20.724612261],[-98.781218779,20.72385645],[-98.78134848,20.723460571],[-98.781674019,20.723303951],[-98.78178971,20.72303358],[-98.782151479,20.722262021],[-98.78280137,20.722584311],[-98.78472463,20.72192914],[-98.78497865,20.72133725],[-98.785063889,20.72128485],[-98.785159619,20.721226021],[-98.786375689,20.721999341],[-98.787674769,20.722315401],[-98.788001889,20.722958711],[-98.78882386,20.72276791],[-98.789316309,20.72314111],[-98.790527419,20.722969461],[-98.79077132,20.72305406],[-98.790932649,20.723332801],[-98.79127066,20.723106261],[-98.79152103,20.72311497],[-98.79174454,20.72314888],[-98.791913319,20.723279321],[-98.79202263,20.72347822],[-98.792203459,20.72333308],[-98.792321119,20.72318068],[-98.792477769,20.72298737],[-98.793112249,20.722976581],[-98.79357491,20.72296845],[-98.793941179,20.723017851],[-98.794160679,20.72311183],[-98.79439032,20.723355741],[-98.794609509,20.723729691],[-98.795164969,20.72328266],[-98.795848889,20.723332421],[-98.796224539,20.723310251],[-98.79660715,20.72320509],[-98.797544019,20.723236691],[-98.79778903,20.72305717],[-98.798003429,20.72276249],[-98.79810705,20.722471371],[-98.79819346,20.722180231],[-98.798658259,20.7220028],[-98.799796599,20.721469221],[-98.80039148,20.721537031],[-98.80093858,20.72173909],[-98.801200429,20.721694631],[-98.80139118,20.721403921],[-98.80162943,20.721202771],[-98.80186751,20.721135911],[-98.802176919,20.72111389],[-98.802527549,20.72139057],[-98.802780969,20.721371001],[-98.803013119,20.72145069],[-98.803350799,20.72157022],[-98.8035832,20.721471201],[-98.803710139,20.721272781],[-98.80402706,20.72111431],[-98.804555139,20.720956061],[-98.80510442,20.720718421],[-98.80554789,20.720679201],[-98.805919449,20.720983061],[-98.806181799,20.720930511],[-98.806406739,20.72082506],[-98.80665029,20.72080771],[-98.80693125,20.72084326],[-98.80726823,20.721019801],[-98.807755279,20.721037971],[-98.80824338,20.72082526],[-98.808485799,20.72059783],[-98.808858519,20.7204406],[-98.809137999,20.72037086],[-98.8096036,20.7204064],[-98.80999474,20.720406831],[-98.810423219,20.72033725],[-98.811400649,20.720169881],[-98.81163395,20.720080431],[-98.811835649,20.719851371],[-98.812067479,20.719426741],[-98.812227979,20.71944042],[-98.81240388,20.719451121],[-98.812610489,20.71983354],[-98.81291145,20.71993608],[-98.81343754,20.71994708],[-98.813643659,20.719783581],[-98.81371683,20.719598571],[-98.81398988,20.719458751],[-98.814317579,20.719390651],[-98.814627109,20.7193054],[-98.81469971,20.719476631],[-98.814879999,20.719630421],[-98.81502878,20.719745861],[-98.815168399,20.719757001],[-98.81540042,20.71967965],[-98.815618019,20.71959651],[-98.815907249,20.71931758],[-98.816132909,20.719303021],[-98.816294289,20.71924631],[-98.81659669,20.719284551],[-98.81693942,20.71932285],[-98.817322279,20.719512861],[-98.81782625,20.7196082],[-98.818189059,20.719703381],[-98.818511689,20.719684771],[-98.81887489,20.719457621],[-98.818937479,20.71933092],[-98.81919546,20.71926383],[-98.819711279,20.71923743],[-98.82041328,20.719292051],[-98.821372489,20.719404581],[-98.821738859,20.719519851],[-98.821875979,20.71950051],[-98.821954149,20.719436601],[-98.82203191,20.719390171],[-98.822079369,20.71934806],[-98.82208777,20.71927334],[-98.822126749,20.719168061],[-98.82218217,20.71906935],[-98.822283449,20.71899657],[-98.822433879,20.718949781],[-98.82256469,20.71889009],[-98.822733259,20.718778151],[-98.82282842,20.718660311],[-98.82287315,20.718398321],[-98.822626879,20.718211881],[-98.82267097,20.71797708],[-98.82294848,20.71786048],[-98.823494319,20.71785963],[-98.824033659,20.717903951],[-98.824435029,20.717904351],[-98.82489209,20.717936281],[-98.82510394,20.717915521],[-98.82542248,20.71783205],[-98.82551832,20.717696231],[-98.825598179,20.717580031],[-98.825757489,20.71756975],[-98.825921949,20.717545981],[-98.826023659,20.717525431],[-98.82617312,20.71751738],[-98.82632626,20.717573601],[-98.826489769,20.71764825],[-98.826694889,20.717710781],[-98.826872629,20.717766291],[-98.82717026,20.71777571],[-98.827408519,20.71782575],[-98.82751445,20.717825861],[-98.82774397,20.71780118],[-98.827911769,20.717726651],[-98.827973649,20.717643711],[-98.827987019,20.715841021],[-98.82793835,20.71569171],[-98.82781648,20.715496401],[-98.82759692,20.71531249],[-98.827475139,20.71505977],[-98.82750003,20.714635],[-98.827601799,20.71450617],[-98.82781863,20.71411211],[-98.82808949,20.71378169],[-98.82792751,20.71351445],[-98.827589769,20.71318342],[-98.827348829,20.71309954],[-98.82704909,20.713183771],[-98.826779459,20.71314123],[-98.82653986,20.713042371],[-98.826285219,20.712999851],[-98.825962379,20.71306432],[-98.82570095,20.712884001],[-98.82539883,20.712852721],[-98.825085109,20.71263632],[-98.824737859,20.71226329],[-98.82452283,20.71190805],[-98.82481523,20.711449431],[-98.82445645,20.71111817],[-98.824013259,20.710716311],[-98.823704549,20.71039694],[-98.82350952,20.710002971],[-98.823300419,20.70969992],[-98.82331708,20.7096172],[-98.823436689,20.7095394],[-98.823578599,20.70951466],[-98.823711549,20.70949528],[-98.823838599,20.70936165],[-98.82386534,20.70922652],[-98.823861749,20.709076261],[-98.823799309,20.708871351],[-98.82371335,20.7086772],[-98.823586719,20.70848374],[-98.823544172,20.70843654],[-98.82349818,20.70838552],[-98.82343945,20.708385421],[-98.82340097,20.70844657],[-98.823391769,20.708530941],[-98.82342925,20.708682821],[-98.82343283,20.70886458],[-98.82340306,20.709058831],[-98.823358399,20.70916631],[-98.823302539,20.709218181],[-98.823189909,20.70921086],[-98.823047229,20.70913163],[-98.822796939,20.708907621],[-98.822619709,20.70871112],[-98.82252251,20.708698311],[-98.822267199,20.70906785],[-98.82203068,20.70923848],[-98.821661379,20.709454601],[-98.82150345,20.70980148],[-98.821383229,20.7098074],[-98.821300549,20.709626831],[-98.82125706,20.70929831],[-98.821284829,20.70905122],[-98.821459279,20.708771661],[-98.82175811,20.70842469],[-98.821925579,20.708246981],[-98.822008109,20.708070571],[-98.82206345,20.707674681],[-98.822123849,20.70732888],[-98.8220636,20.70722568],[-98.82195682,20.707155981],[-98.821954065,20.707155168],[-98.821723546,20.70708711],[-98.821033489,20.706883376],[-98.82096868,20.706864242],[-98.820820799,20.706820581],[-98.820762005,20.706878133],[-98.820658429,20.706979521],[-98.820554798,20.70706687],[-98.820363029,20.707228511],[-98.819885879,20.70767925],[-98.819853095,20.707717417],[-98.819850276,20.707720698],[-98.819559379,20.70805935],[-98.81950157,20.708163974],[-98.819467964,20.708224794],[-98.81941778,20.708315616],[-98.81941318,20.708323941],[-98.819373752,20.708320719],[-98.819355076,20.708319194],[-98.81934108,20.70831805],[-98.818590174,20.708256628],[-98.818552127,20.708253515],[-98.81840794,20.708241721],[-98.81833289,20.708235581],[-98.81829697,20.708121153],[-98.81815672,20.707674371],[-98.81785915,20.706783461],[-98.817679849,20.705582551],[-98.8178332,20.704554281],[-98.81782435,20.70412402],[-98.817905569,20.703737408],[-98.817913079,20.703701661],[-98.81777605,20.70333955],[-98.81751929,20.70285106],[-98.817619549,20.70243512],[-98.81745335,20.70190643],[-98.81732532,20.701582601],[-98.81712103,20.70112078],[-98.8169962,20.70085748],[-98.816953379,20.700689401],[-98.81677977,20.700551661],[-98.81688857,20.70018791],[-98.817083179,20.69972845],[-98.81693311,20.69953991],[-98.817016779,20.699357031],[-98.81714766,20.699120151],[-98.81702994,20.69897628],[-98.816643799,20.69885774],[-98.816251879,20.69864515],[-98.81604282,20.698519181],[-98.815825309,20.69847026],[-98.81582568,20.698277781],[-98.815863059,20.698109661],[-98.81589352,20.697872681],[-98.815664369,20.69792443],[-98.81538462,20.69784371],[-98.815412799,20.697533981],[-98.81542043,20.697309121],[-98.815326449,20.6971022],[-98.815177399,20.69695431],[-98.81513829,20.69682131],[-98.81509935,20.696555351],[-98.81494817,20.69645646],[-98.814784879,20.696330801],[-98.81484332,20.695704321],[-98.81499623,20.695290371],[-98.815284279,20.695163261],[-98.815623089,20.695068051],[-98.815995999,20.69478175],[-98.81641969,20.69451143],[-98.81667408,20.69420908],[-98.817284089,20.69390711],[-98.81782618,20.6937484],[-98.81863417,20.69335428],[-98.819234719,20.69316082],[-98.820041619,20.692967571],[-98.820454579,20.692756281],[-98.820755019,20.69250957],[-98.821280749,20.69212194],[-98.821712309,20.6920518],[-98.82218152,20.691858201],[-98.82248198,20.691593851],[-98.82278254,20.69124126],[-98.82316166,20.690846621],[-98.82331058,20.69049752],[-98.82331135,20.69034483],[-98.82283068,20.690224681],[-98.82267246,20.690049851],[-98.82261971,20.68988863],[-98.822813059,20.68961529],[-98.82285131,20.689225431],[-98.82255482,20.68902994],[-98.822234119,20.68893358],[-98.82199752,20.68882958],[-98.821906719,20.688593431],[-98.821942,20.688199311],[-98.82191745,20.68793966],[-98.82208618,20.687137421],[-98.82221878,20.68673708],[-98.822483319,20.6865026],[-98.82245472,20.68585352],[-98.822515679,20.68566317],[-98.822748679,20.685577631],[-98.82302735,20.685812681],[-98.823406289,20.6860284],[-98.82383331,20.68618843],[-98.82406226,20.686127351],[-98.824220289,20.685808021],[-98.82444494,20.68548348],[-98.82467463,20.68537149],[-98.82490374,20.68529314],[-98.82507777,20.68505134],[-98.82525786,20.68473049],[-98.825492429,20.68442771],[-98.825643879,20.68400692],[-98.82568494,20.683668021],[-98.825773289,20.683534311],[-98.82631791,20.682061091],[-98.826428079,20.68176806],[-98.82872269,20.681819151],[-98.830509199,20.681842861],[-98.830652,20.68184168],[-98.830813689,20.6818188],[-98.830819319,20.68173532],[-98.830823879,20.68158474],[-98.830808119,20.68118955],[-98.830835619,20.67956602],[-98.83167565,20.67957908],[-98.83288548,20.67960418],[-98.83504282,20.67965494],[-98.83551002,20.6796954],[-98.83635772,20.679735821],[-98.836517719,20.67971968],[-98.836497379,20.67763657],[-98.83651586,20.677601771],[-98.838642769,20.677686681],[-98.839297219,20.67772662],[-98.83988665,20.67775272],[-98.83989438,20.677611351],[-98.840076919,20.67744842],[-98.84057352,20.677132801],[-98.84082611,20.676924921],[-98.84125132,20.67672854],[-98.84161303,20.676633741],[-98.84192043,20.67666569],[-98.84240698,20.67678658],[-98.843084569,20.67694563],[-98.84428578,20.677286691],[-98.84482932,20.677332121],[-98.84520058,20.677345491],[-98.845535339,20.677369481],[-98.845867049,20.677524111],[-98.846105619,20.677648451],[-98.84667703,20.677984181],[-98.84720305,20.678209651],[-98.84762312,20.678406151],[-98.84808052,20.678523821],[-98.848817819,20.678669511],[-98.849361479,20.67878598],[-98.84972266,20.67882209],[-98.850123179,20.678865141],[-98.85032712,20.67885958],[-98.85066809,20.678774691],[-98.85117775,20.678679581],[-98.85146255,20.678629721],[-98.851620349,20.6786174],[-98.85171635,20.678624061],[-98.8518112,20.67865586],[-98.85235885,20.6790132],[-98.852579779,20.679390081],[-98.852802339,20.679816891],[-98.852001019,20.679872],[-98.851555949,20.679787921],[-98.85078446,20.679675661],[-98.85036895,20.679703201],[-98.849834769,20.679702741],[-98.84897418,20.67964618],[-98.84722869,20.679731461],[-98.84667132,20.67989252],[-98.845894079,20.68011278],[-98.8458342,20.68024377],[-98.845825309,20.680261251],[-98.845686309,20.68023249],[-98.84494278,20.68019068],[-98.843872619,20.680135781],[-98.84292718,20.68008505],[-98.84181709,20.68001542],[-98.841711879,20.680044151],[-98.841675889,20.68213545],[-98.841678519,20.68216348],[-98.844897979,20.68227165],[-98.84460986,20.685899651],[-98.84185634,20.68585026],[-98.84172029,20.68946862],[-98.83759388,20.68927185],[-98.83774315,20.692058171],[-98.8381124,20.69218683],[-98.838382059,20.692623351],[-98.83900397,20.693322431],[-98.839241649,20.69391189],[-98.83922368,20.69420235],[-98.8395278,20.69453226],[-98.840095379,20.69488225],[-98.84045932,20.69554189],[-98.84174446,20.6958416],[-98.84330642,20.69737266],[-98.843793689,20.69814751],[-98.8440682,20.69816689],[-98.844230649,20.698406051],[-98.844759179,20.698607311],[-98.845227109,20.69841651],[-98.84567858,20.69768571],[-98.84595092,20.69652043],[-98.846641339,20.69688852],[-98.846862949,20.69695405],[-98.84758168,20.69675678],[-98.847474109,20.697279381],[-98.84706997,20.6977356],[-98.846671829,20.69853112],[-98.84648675,20.69910163],[-98.84635449,20.69951243],[-98.846386689,20.700179861],[-98.84593985,20.70047998],[-98.845457549,20.700733311],[-98.84458006,20.70117297],[-98.84398225,20.701653521],[-98.843074909,20.70231091],[-98.842614489,20.70292086],[-98.841772781,20.703194661],[-98.843004706,20.708777509],[-98.843207289,20.709695541],[-98.84435028,20.712558691],[-98.845484429,20.71297751],[-98.84550352,20.712981111],[-98.846467859,20.712555001],[-98.84707831,20.711962021],[-98.847599149,20.711754091],[-98.8483594,20.71189217],[-98.849319449,20.71248023],[-98.849691449,20.713277021],[-98.84999971,20.713958221],[-98.85036609,20.714439711],[-98.84996022,20.71484791],[-98.85002597,20.715298261],[-98.849871089,20.71574422],[-98.849899509,20.716132401],[-98.85000812,20.716265431],[-98.850271349,20.71625234],[-98.850652889,20.71647868],[-98.85095892,20.71643042],[-98.85112735,20.71641826],[-98.851426109,20.716531781],[-98.85175705,20.716871911],[-98.852162319,20.71718055],[-98.852475319,20.717267351],[-98.85314625,20.717149881],[-98.854056279,20.71661657],[-98.85446354,20.716069581],[-98.854836579,20.715805981],[-98.855210489,20.715768721],[-98.856459659,20.71626686],[-98.856990259,20.71635271],[-98.85750335,20.71653192],[-98.85774483,20.716756881],[-98.857745819,20.716756834],[-98.85831755,20.71673012],[-98.85886409,20.716076571],[-98.8595796,20.714743291],[-98.859625539,20.71452502],[-98.85972831,20.714266711],[-98.859824339,20.71401142],[-98.86022563,20.713072711],[-98.86096837,20.711768691],[-98.86159972,20.71039263],[-98.8618188,20.70968603],[-98.86206752,20.708898461],[-98.86218612,20.70848786],[-98.86234578,20.708402451],[-98.862664909,20.707978201],[-98.86287542,20.707783141],[-98.863144739,20.707663341],[-98.86345791,20.70762669],[-98.86383226,20.70769918],[-98.86458255,20.707085111],[-98.86485089,20.70680008],[-98.864717459,20.706282581],[-98.865030519,20.70598623],[-98.865273109,20.705823911],[-98.86568988,20.705624],[-98.865715449,20.70531557],[-98.865715689,20.705035911],[-98.865629949,20.70481534],[-98.86558522,20.70440366],[-98.86593602,20.70416591],[-98.866161749,20.70422751],[-98.86640125,20.704218201],[-98.866675019,20.70419629],[-98.867447199,20.704426771],[-98.86772445,20.704632311],[-98.868150909,20.705103201],[-98.86896834,20.70521477],[-98.869383619,20.705299601],[-98.869737419,20.705835021],[-98.87026849,20.70615477],[-98.870922999,20.706418911],[-98.87202583,20.706685751],[-98.87319309,20.70686178],[-98.874071199,20.70721308],[-98.87502291,20.707717151],[-98.87637491,20.70821369],[-98.876276489,20.707469031],[-98.87704212,20.7071678],[-98.87810875,20.70700498],[-98.87870249,20.707501781],[-98.87945008,20.70828098],[-98.87996128,20.708793231],[-98.880258199,20.70897958],[-98.880480199,20.709115431],[-98.880630979,20.709268121],[-98.88111362,20.70964626],[-98.881424659,20.709776481],[-98.88208117,20.710215681],[-98.882582109,20.71067914],[-98.883146479,20.71133709],[-98.88387443,20.71186426],[-98.884805309,20.71221982],[-98.88528214,20.71248263],[-98.88757483,20.714373551],[-98.88798922,20.71473592],[-98.88843338,20.71490332],[-98.888906949,20.71534929],[-98.889410229,20.715683861],[-98.889736149,20.71551694],[-98.89038818,20.71493243],[-98.890714319,20.71445914],[-98.890566709,20.71379055],[-98.890419059,20.71317768],[-98.88991597,20.71259243],[-98.88967955,20.711868091],[-98.889915079,20.71135878],[-98.890054119,20.71106762],[-98.890257859,20.710707111],[-98.890805339,20.710400341],[-98.890986339,20.70967426],[-98.891260049,20.709324081],[-98.891292109,20.70927031],[-98.89145768,20.708952971],[-98.89141862,20.70837754],[-98.891786169,20.70704857],[-98.89197531,20.706582741],[-98.89211732,20.70600594],[-98.89233012,20.705473571],[-98.89235402,20.7050742],[-98.89211154,20.70406895],[-98.89191134,20.703464321],[-98.89159975,20.70277602],[-98.89139045,20.702184341],[-98.89106457,20.701658321],[-98.890751319,20.700905121],[-98.890454199,20.700726421],[-98.890347149,20.700401401],[-98.890299649,20.70018848],[-98.89034738,20.700087661],[-98.89055005,20.70003177],[-98.890788459,20.69994228],[-98.89240072,20.69997537],[-98.89286286,20.69978254],[-98.893787019,20.699525631],[-98.89476262,20.699140001],[-98.895789629,20.69859348],[-98.897162179,20.697452031],[-98.897490249,20.69656049],[-98.89737408,20.695874771],[-98.89784108,20.69523051],[-98.898628689,20.69481957],[-98.89906594,20.693941541],[-98.89890191,20.693322831],[-98.898577629,20.693001221],[-98.897877889,20.692675021],[-98.89733529,20.692409851],[-98.89684374,20.69205386],[-98.89597346,20.69145897],[-98.89569357,20.69069442],[-98.89521025,20.690499541],[-98.89427369,20.69037486],[-98.89343406,20.690252911],[-98.89301726,20.68990943],[-98.892887259,20.68944354],[-98.89239238,20.688928381],[-98.89187137,20.68851128],[-98.89149465,20.687664691],[-98.891143909,20.68694363],[-98.891463649,20.68634314],[-98.89192128,20.68574755],[-98.892284679,20.685246251],[-98.892727509,20.68471297],[-98.893090879,20.68424366],[-98.893488459,20.68362102],[-98.89323535,20.682793551],[-98.89313805,20.68203415],[-98.8931386,20.6812288],[-98.89369742,20.68059105],[-98.894464289,20.67967732],[-98.894699649,20.678890581],[-98.894891509,20.67796878],[-98.89474874,20.677024311],[-98.89429498,20.67639443],[-98.893649949,20.675831881],[-98.893459429,20.67536383],[-98.893332349,20.67455385],[-98.89330074,20.67413388],[-98.89295,20.67380369],[-98.892248709,20.67284335],[-98.8911482,20.67225637],[-98.89038086,20.67133312],[-98.889485379,20.6706104],[-98.88905908,20.670128681],[-98.88851228,20.66967903],[-98.88801795,20.669437881],[-98.887557519,20.669092511],[-98.887143179,20.66849231],[-98.8870988,20.667623631],[-98.88746097,20.66629834],[-98.88819869,20.66489337],[-98.889466489,20.66415734],[-98.89015558,20.66324855],[-98.890947629,20.663166281],[-98.89212118,20.66278069],[-98.89315137,20.663151341],[-98.894430079,20.662694381],[-98.89590562,20.662294201],[-98.896756169,20.662322431],[-98.89752189,20.66248289],[-98.898323819,20.66269394],[-98.899010419,20.663054401],[-98.89988332,20.663281121],[-98.900822019,20.663313891],[-98.90105742,20.663664111],[-98.90115126,20.66435175],[-98.901093969,20.665231751],[-98.901461949,20.66640534],[-98.90182186,20.666091021],[-98.902356889,20.665717861],[-98.902500719,20.665558151],[-98.902736079,20.665263311],[-98.90307597,20.66496852],[-98.903533309,20.66487045],[-98.90419971,20.664784781],[-98.905641829,20.66492086],[-98.90595485,20.66486651],[-98.906128799,20.664735751],[-98.90679611,20.66473911],[-98.907578579,20.66481075],[-98.90779322,20.66468028],[-98.907919519,20.664514121],[-98.90818463,20.66439552],[-98.90850008,20.664561921],[-98.908689369,20.66458577],[-98.909329979,20.66437495],[-98.90942723,20.664020231],[-98.909535749,20.66373488],[-98.90951417,20.663592151],[-98.909666019,20.663347581],[-98.90981798,20.66287877],[-98.90968825,20.66238942],[-98.90942863,20.66167574],[-98.909420649,20.66128308],[-98.90971335,20.661051451],[-98.909929049,20.660892201],[-98.91023722,20.66054469],[-98.91037595,20.660312971],[-98.91048392,20.660008821],[-98.91074583,20.659791651],[-98.911084719,20.659603491],[-98.91143902,20.659386381],[-98.91162372,20.65953134],[-98.911854619,20.659676321],[-98.91217805,20.659575081],[-98.91271709,20.65943049],[-98.91367849,20.65922571],[-98.913983139,20.65915422],[-98.914081179,20.65893932],[-98.914168349,20.65869374],[-98.91405008,20.658241741],[-98.91453643,20.657975151],[-98.914955199,20.6578102],[-98.91559006,20.657619921],[-98.91617042,20.65730152],[-98.91645246,20.65718795],[-98.916761289,20.657213371],[-98.917002939,20.657301921],[-98.9172312,20.65731466],[-98.917486379,20.657213721],[-98.917810719,20.657171311],[-98.91786803,20.65706363],[-98.918211679,20.65699512],[-98.918536509,20.65700238],[-98.918747979,20.65708066],[-98.91880092,20.656988291],[-98.918793459,20.65682483],[-98.91890678,20.65678934],[-98.91928445,20.656896121],[-98.91980058,20.657130821],[-98.920052939,20.65729158],[-98.920394429,20.657403511],[-98.920646819,20.657501421],[-98.92077305,20.657501461],[-98.920938349,20.65743425],[-98.921112519,20.657335061],[-98.92129191,20.657320251],[-98.92147649,20.657474201],[-98.9216664,20.657538821],[-98.921903509,20.65758657],[-98.92218075,20.65767365],[-98.92256065,20.6578284],[-98.92312531,20.658186141],[-98.923320379,20.65831182],[-98.923720889,20.658350651],[-98.92400551,20.65840597],[-98.924506619,20.65849191],[-98.924889309,20.658483511],[-98.925108,20.658466461],[-98.925326619,20.65858655],[-98.92573662,20.658655311],[-98.92610111,20.65862118],[-98.92665763,20.65840645],[-98.927231289,20.658102001],[-98.92733689,20.65814345],[-98.927442459,20.65825114],[-98.92763602,20.658433401],[-98.92771523,20.658474831],[-98.927917679,20.658466631],[-98.92815532,20.658466741],[-98.92833132,20.658574461],[-98.92846328,20.65871528],[-98.928656919,20.65871535],[-98.92889463,20.65861609],[-98.929149919,20.658533381],[-98.930081449,20.65847769],[-98.930206749,20.65817515],[-98.930342219,20.657736251],[-98.93036606,20.65767268],[-98.93063446,20.65712797],[-98.93075338,20.656728631],[-98.93126134,20.65396294],[-98.931429709,20.65397098],[-98.931448369,20.65397863],[-98.93150831,20.653981661],[-98.931591289,20.65371445],[-98.931804349,20.652917451],[-98.931833229,20.65285331],[-98.933558909,20.652243801],[-98.934844709,20.651602151],[-98.937322399,20.649834971],[-98.937517999,20.64985442],[-98.937715399,20.64987512],[-98.937945739,20.649792661],[-98.938373539,20.649586451],[-98.938713579,20.649421481],[-98.938922019,20.64924615],[-98.939031769,20.64902951],[-98.939455199,20.64831369],[-98.939499079,20.64828242],[-98.940052739,20.64756265],[-98.940405199,20.64698283],[-98.940762859,20.646695221],[-98.941055019,20.64683302],[-98.941387799,20.6469352],[-98.941572619,20.64699289],[-98.941994429,20.647285521],[-98.942166879,20.64748266],[-98.942303689,20.64761972],[-98.942616059,20.647703581],[-98.942904749,20.647714141],[-98.943237849,20.64769335],[-98.943437779,20.64751583],[-98.943562749,20.647298051],[-98.943677659,20.647141851],[-98.943870999,20.64700409],[-98.943904379,20.64680563],[-98.943815599,20.64669069],[-98.943682349,20.64671154],[-98.943593489,20.64683686],[-98.943515679,20.647056221],[-98.943382379,20.647181521],[-98.943171369,20.64733815],[-98.942960369,20.6474112],[-98.942671719,20.647337981],[-98.942478379,20.647138981],[-98.942420149,20.646805771],[-98.942678549,20.64645298],[-98.942849249,20.646382981],[-98.942929279,20.646152061],[-98.943120149,20.64569949],[-98.943140819,20.64564306],[-98.943113279,20.64546662],[-98.943069799,20.645307571],[-98.942975399,20.645016951],[-98.942927659,20.644754291],[-98.942923089,20.644354231],[-98.943035429,20.643998181],[-98.943069199,20.643695171],[-98.943100829,20.64348637],[-98.943143319,20.64309495],[-98.943146689,20.64259912],[-98.943134229,20.6423098],[-98.94315846,20.64216614],[-98.943246709,20.64217548],[-98.943327649,20.6422704],[-98.943329369,20.642601581],[-98.943361449,20.643271691],[-98.943458889,20.643939431],[-98.943511739,20.64420931],[-98.943624249,20.64441963],[-98.943744569,20.64459417],[-98.943856579,20.644678381],[-98.944023109,20.64472271],[-98.944116779,20.64465523],[-98.944109149,20.644547891],[-98.943982399,20.64440083],[-98.943889029,20.6442782],[-98.943746169,20.64407674],[-98.943673579,20.64392246],[-98.943692199,20.64370411],[-98.943689679,20.643211021],[-98.943696059,20.64257971],[-98.943689569,20.642145371],[-98.943759949,20.641687061],[-98.943854319,20.64137098],[-98.944017489,20.64138708],[-98.944033829,20.64150792],[-98.944039739,20.64172857],[-98.944030519,20.64201558],[-98.944041919,20.64223446],[-98.944070259,20.64242735],[-98.944134819,20.642598581],[-98.944178749,20.642704601],[-98.944238689,20.64282632],[-98.944287949,20.642937571],[-98.944378889,20.643013771],[-98.944496909,20.64297766],[-98.944526539,20.64287831],[-98.944466659,20.64275402],[-98.944363619,20.642610911],[-98.944342799,20.64244566],[-98.944334859,20.642314721],[-98.944423659,20.64224471],[-98.944537679,20.642264941],[-98.944599049,20.642322581],[-98.944712429,20.642491541],[-98.944867939,20.64260492],[-98.945047749,20.64270442],[-98.945173,20.64270497],[-98.94529997,20.64508065],[-98.945463049,20.64524185],[-98.945818049,20.64557252],[-98.945942049,20.64583791],[-98.945998309,20.64625186],[-98.946110939,20.646771971],[-98.946521539,20.647823031],[-98.946731489,20.648192021],[-98.947167429,20.649147311],[-98.94760506,20.64986837],[-98.948191969,20.65057075],[-98.94845066,20.650748721],[-98.94871935,20.650776891],[-98.94898808,20.6509284],[-98.949110829,20.65117112],[-98.949184419,20.65150626],[-98.94954045,20.65209574],[-98.9497492,20.652303821],[-98.949964449,20.652353451],[-98.950156319,20.652414111],[-98.950165319,20.652550651],[-98.95012745,20.65275728],[-98.950029149,20.653096451],[-98.94997009,20.65343902],[-98.950029679,20.653741351],[-98.95014146,20.65392315],[-98.950221369,20.65399612],[-98.95028645,20.65409415],[-98.9504404,20.654253571],[-98.95057888,20.65458682],[-98.9505788,20.65483311],[-98.950524849,20.655014181],[-98.950329579,20.65522252],[-98.95008103,20.655339351],[-98.949708179,20.655528081],[-98.94923015,20.65586066],[-98.948964949,20.656161511],[-98.948860479,20.65651615],[-98.948892029,20.65688369],[-98.948945479,20.657163851],[-98.94882685,20.657403121],[-98.94867398,20.657691061],[-98.948703109,20.65805885],[-98.94884012,20.658177691],[-98.948944849,20.658422421],[-98.949027119,20.658926601],[-98.94950103,20.659426951],[-98.94983077,20.659562801],[-98.95042842,20.65983443],[-98.95094354,20.660377511],[-98.95151285,20.660945781],[-98.951718229,20.661311021],[-98.95208352,20.66146148],[-98.952631519,20.6615046],[-98.952951219,20.661397281],[-98.95333938,20.661397381],[-98.953818829,20.66159083],[-98.954252629,20.661741311],[-98.954732139,20.661741451],[-98.955280169,20.66163418],[-98.95645038,20.66136508],[-98.95705752,20.661151061],[-98.957411689,20.660960781],[-98.957715339,20.66058012],[-98.958069549,20.66022328],[-98.958423709,20.660104381],[-98.95895491,20.660080721],[-98.95938491,20.66003323],[-98.95963791,20.65984292],[-98.959890859,20.659795381],[-98.960472599,20.65991451],[-98.961256749,20.659771911],[-98.96257071,20.65995897],[-98.963576659,20.659982831],[-98.964205369,20.660030291],[-98.964834139,20.65988846],[-98.965312029,20.659581],[-98.96576471,20.659604741],[-98.96606645,20.65979408],[-98.96631786,20.660149021],[-98.966267419,20.66081145],[-98.966091119,20.661947051],[-98.966046309,20.66263203],[-98.96612634,20.662990001],[-98.96652678,20.66334803],[-98.96724768,20.66361192],[-98.96792858,20.66363089],[-98.96866954,20.663781741],[-98.9693504,20.66398909],[-98.969744349,20.66438003],[-98.969976799,20.664927],[-98.969976679,20.665510371],[-98.97028665,20.666057321],[-98.970286549,20.666531321],[-98.970363879,20.66747931],[-98.970867649,20.66802631],[-98.97214663,20.668391141],[-98.97280551,20.668537081],[-98.973735679,20.668865371],[-98.97535937,20.669863821],[-98.974018999,20.67073589],[-98.97368303,20.670893281],[-98.973528429,20.67098248],[-98.97332935,20.6711118],[-98.97316352,20.671216171],[-98.97298794,20.67126908],[-98.97285537,20.67134846],[-98.97270748,20.671381401],[-98.972553349,20.67145011],[-98.972447539,20.67155054],[-98.97231278,20.67167945],[-98.97149203,20.67203935],[-98.97107394,20.671996141],[-98.97065569,20.672177511],[-98.969984919,20.672903571],[-98.96962058,20.673170601],[-98.96920843,20.67334865],[-98.968807429,20.673432381],[-98.968372249,20.67357531],[-98.96805475,20.673674781],[-98.96779018,20.673724511],[-98.96765789,20.673848911],[-98.967463819,20.674139221],[-98.96725212,20.674396321],[-98.9670316,20.67465345],[-98.966749259,20.674963681],[-98.96655632,20.675219321],[-98.966328309,20.67540897],[-98.9661792,20.675648121],[-98.966144079,20.675887311],[-98.966214179,20.676052261],[-98.966328119,20.67628322],[-98.966203969,20.676473851],[-98.96590832,20.67656069],[-98.9656866,20.676601201],[-98.96556957,20.67665332],[-98.965446349,20.67675757],[-98.965088509,20.676907521],[-98.96485365,20.676898581],[-98.96449362,20.676810581],[-98.96415488,20.676774121],[-98.963834019,20.676799121],[-98.96373332,20.67674503],[-98.96364274,20.67662198],[-98.963567,20.67654338],[-98.963507849,20.676513031],[-98.96335717,20.676614221],[-98.96314477,20.676695481],[-98.962993749,20.676606981],[-98.96259868,20.676534311],[-98.9623856,20.676357121],[-98.96228406,20.67623197],[-98.962049979,20.676200221],[-98.961882019,20.675969771],[-98.96165038,20.676031711],[-98.96145817,20.67600911],[-98.96132226,20.675833151],[-98.961230939,20.675658401],[-98.96116892,20.67554235],[-98.961047679,20.67551702],[-98.96091431,20.675537261],[-98.96079432,20.67555363],[-98.96070506,20.67552909],[-98.96060186,20.67545846],[-98.960514979,20.67535405],[-98.96043572,20.67523371],[-98.960352689,20.675156711],[-98.960217259,20.675114151],[-98.960038969,20.675158251],[-98.959822019,20.675227681],[-98.95963388,20.675098491],[-98.95948548,20.67484038],[-98.95928137,20.67471185],[-98.959178629,20.674444831],[-98.95907802,20.674380121],[-98.95884403,20.674344201],[-98.95873869,20.67409605],[-98.95859528,20.67386337],[-98.9584622,20.673773201],[-98.95838734,20.67375295],[-98.95821771,20.673707721],[-98.95802395,20.67360029],[-98.957913199,20.67336554],[-98.957903659,20.67311298],[-98.95797382,20.6729052],[-98.95787498,20.672813051],[-98.957828709,20.672627031],[-98.95787823,20.672442381],[-98.95793091,20.67234377],[-98.957709859,20.6723014],[-98.957391969,20.67229014],[-98.957131769,20.672175621],[-98.957023709,20.672026091],[-98.956891619,20.67189503],[-98.95683448,20.671929651],[-98.95659129,20.67192958],[-98.95623226,20.67198397],[-98.956023769,20.672147311],[-98.955779859,20.67213878],[-98.955427599,20.67187546],[-98.955132219,20.67156972],[-98.9550876,20.67121752],[-98.95466591,20.671123661],[-98.95426109,20.671177261],[-98.954000459,20.67110088],[-98.95380892,20.670646181],[-98.953421459,20.670542981],[-98.95280829,20.670426141],[-98.952032999,20.670329951],[-98.951870829,20.67046955],[-98.951824689,20.67070783],[-98.951767019,20.671076061],[-98.95171332,20.671556491],[-98.95164914,20.67191809],[-98.951520889,20.67221943],[-98.95139271,20.672355],[-98.951232509,20.672415231],[-98.951312489,20.672746741],[-98.951568709,20.67297283],[-98.951808949,20.673063311],[-98.95220935,20.67322915],[-98.952385489,20.673425091],[-98.952481539,20.673651141],[-98.95246543,20.67392235],[-98.952353249,20.67410314],[-98.952176969,20.67432909],[-98.952128879,20.67446469],[-98.952192879,20.674690721],[-98.952176799,20.67490168],[-98.952096679,20.674992061],[-98.95190443,20.67508242],[-98.951776199,20.675308401],[-98.95180818,20.67548922],[-98.952032429,20.67553448],[-98.95241692,20.675398981],[-98.952609139,20.675399031],[-98.95275326,20.67554975],[-98.95272115,20.675775751],[-98.9525532,20.67604957],[-98.95289905,20.67647372],[-98.95293626,20.676602601],[-98.95297686,20.676707711],[-98.95289555,20.676841451],[-98.952743179,20.67687963],[-98.95258065,20.676956021],[-98.95256028,20.67714711],[-98.95263134,20.677261771],[-98.95286495,20.677300061],[-98.95312903,20.67730968],[-98.9533858,20.677246461],[-98.95428749,20.67770828],[-98.954360579,20.67822108],[-98.954326259,20.67912838],[-98.954069909,20.67973188],[-98.954645769,20.68101743],[-98.954499379,20.68164666],[-98.95443943,20.68210565],[-98.954765,20.68253245],[-98.955404689,20.68280614],[-98.955276599,20.68326565],[-98.955590619,20.683451741],[-98.95590449,20.684141121],[-98.956021219,20.684997221],[-98.955827779,20.68550625],[-98.955463309,20.686253461],[-98.956090859,20.68713335],[-98.95593838,20.68818434],[-98.955782079,20.68928515],[-98.95573629,20.69020998],[-98.955828399,20.69102769],[-98.956499289,20.692255261],[-98.957122739,20.69316366],[-98.957881429,20.694267231],[-98.95863458,20.69487098],[-98.95986437,20.695886911],[-98.961098519,20.69715262],[-98.961370549,20.696609291],[-98.961584309,20.69593948],[-98.962194659,20.69571785],[-98.96258306,20.695626621],[-98.96317958,20.69520928],[-98.963673119,20.695284311],[-98.963945829,20.695118921],[-98.96397589,20.694671],[-98.964052,20.69394242],[-98.964219249,20.693256721],[-98.96462946,20.69277108],[-98.965069949,20.69272831],[-98.96576866,20.69271417],[-98.965814349,20.69211415],[-98.966067349,20.691540571],[-98.966883939,20.691534691],[-98.96842137,20.691884351],[-98.9694162,20.692240511],[-98.971685369,20.69354238],[-98.972146659,20.69449395],[-98.97250095,20.69524142],[-98.97242815,20.695626221],[-98.972085339,20.695951951],[-98.971404649,20.69657831],[-98.9711168,20.69687515],[-98.97111671,20.69732322],[-98.9714408,20.69741875],[-98.971162029,20.69790954],[-98.97051266,20.698704571],[-98.97000002,20.69939492],[-98.9692284,20.7007364],[-98.968183569,20.700934581],[-98.967757749,20.701422121],[-98.966736949,20.701373661],[-98.966533749,20.70160108],[-98.966496449,20.70283383],[-98.965643149,20.70290866],[-98.965472109,20.70306386],[-98.965354089,20.70362828],[-98.96502178,20.70403137],[-98.964764479,20.70445465],[-98.964283089,20.705126831],[-98.96412314,20.705597661],[-98.964094549,20.70584805],[-98.96529732,20.70594388],[-98.96527017,20.70717868],[-98.965528279,20.707565051],[-98.96626766,20.708193421],[-98.965789109,20.70881295],[-98.965338749,20.709436461],[-98.96596362,20.709894231],[-98.965989379,20.71022248],[-98.965731579,20.71056535],[-98.965201579,20.71107809],[-98.96531118,20.7116078],[-98.965053149,20.711827891],[-98.96506322,20.712325521],[-98.965236139,20.71262222],[-98.965345419,20.712909691],[-98.96567271,20.713177681],[-98.96620886,20.713425171],[-98.96697826,20.71386412],[-98.968045779,20.71417143],[-98.969188709,20.714337001],[-98.96966597,20.714407951],[-98.97043611,20.71443555],[-98.970912629,20.71511838],[-98.971411849,20.71582255],[-98.97237308,20.71670034],[-98.9737526,20.71895546],[-98.97333878,20.71909706],[-98.97288254,20.7191876],[-98.97244212,20.71939355],[-98.972317119,20.71975234],[-98.97239911,20.72003937],[-98.97378557,20.7207296],[-98.974592169,20.720867111],[-98.974811219,20.72094954],[-98.974931689,20.721001061],[-98.974975479,20.721155571],[-98.975063089,20.721186481],[-98.975293109,20.72116591],[-98.975446479,20.721032031],[-98.975775059,20.72107328],[-98.97593798,20.72167063],[-98.97603912,20.721919491],[-98.976186979,20.721985371],[-98.976358229,20.72188294],[-98.97651389,20.72188295],[-98.976832979,20.72202938],[-98.97705866,20.722146511],[-98.977323279,20.72224169],[-98.977439999,20.722439321],[-98.97749445,20.722680861],[-98.977471059,20.722922371],[-98.97760335,20.72302486],[-98.978057769,20.723347081],[-98.978135339,20.723533571],[-98.97810943,20.723744371],[-98.977911119,20.72389029],[-98.977592059,20.724052401],[-98.97725185,20.724261001],[-98.977071819,20.7243416],[-98.97696891,20.72463178],[-98.97692598,20.72493811],[-98.97677166,20.725034821],[-98.976943719,20.72562748],[-98.976744399,20.72572742],[-98.97631917,20.72585231],[-98.976146419,20.72600222],[-98.97614638,20.726214631],[-98.976066629,20.726389551],[-98.975854,20.72656446],[-98.975853969,20.726739381],[-98.97570995,20.72688506],[-98.975479179,20.726968001],[-98.975214479,20.726910521],[-98.975031259,20.72675732],[-98.97488874,20.726616891],[-98.974746199,20.72671898],[-98.974644349,20.72690406],[-98.97462395,20.727191261],[-98.97481394,20.727472111],[-98.97503391,20.72755852],[-98.975249819,20.727673321],[-98.975428149,20.72779694],[-98.97557834,20.72797351],[-98.97568157,20.72823835],[-98.97570028,20.72860029],[-98.97576592,20.72904169],[-98.975953659,20.729209451],[-98.97624469,20.729262451],[-98.976501779,20.729300691],[-98.976754509,20.729265781],[-98.976984939,20.72919592],[-98.977334279,20.72915405],[-98.977594419,20.72923095],[-98.977847089,20.72946862],[-98.97804031,20.72969929],[-98.978190489,20.72970626],[-98.978478349,20.729715971],[-98.97872509,20.729677321],[-98.97904378,20.72974503],[-98.979156849,20.72992872],[-98.979321289,20.730228431],[-98.979506339,20.730344451],[-98.979732509,20.73038315],[-98.97990729,20.730344511],[-98.98011292,20.730170521],[-98.980256889,20.729861181],[-98.980472829,20.7296292],[-98.98070655,20.72954688],[-98.980846919,20.72933572],[-98.981038169,20.729135291],[-98.981313659,20.728858921],[-98.98153212,20.728801981],[-98.981875179,20.72879002],[-98.98213962,20.72867742],[-98.982261579,20.72856275],[-98.98239372,20.72845765],[-98.98267402,20.728347421],[-98.98306449,20.72819012],[-98.983174109,20.72827005],[-98.98326502,20.72849808],[-98.98335592,20.728773631],[-98.983568089,20.729001691],[-98.98372971,20.72950528],[-98.983861059,20.72951478],[-98.984073249,20.729571821],[-98.984214709,20.72973335],[-98.984224769,20.73000889],[-98.984194429,20.73030343],[-98.984197969,20.730909831],[-98.98429129,20.73113263],[-98.98443488,20.731362201],[-98.98440865,20.73149671],[-98.98404663,20.73181035],[-98.983869139,20.73208398],[-98.98407114,20.732317151],[-98.984238539,20.732466321],[-98.984582139,20.73288889],[-98.98482578,20.733470771],[-98.985055459,20.733974771],[-98.985219519,20.73404678],[-98.985383599,20.73407766],[-98.9854164,20.734262801],[-98.985361689,20.734489081],[-98.985142889,20.73466392],[-98.98517903,20.735197881],[-98.985264519,20.73530751],[-98.985396659,20.735329451],[-98.98553658,20.735307541],[-98.98564538,20.73546103],[-98.98581638,20.735636451],[-98.98580858,20.73588495],[-98.98571529,20.73610422],[-98.985388859,20.736617],[-98.9851016,20.736996111],[-98.984957969,20.737266151],[-98.984609969,20.73739077],[-98.98422845,20.7374702],[-98.98409937,20.73752823],[-98.983892079,20.737554151],[-98.98374934,20.73739546],[-98.98368751,20.73723818],[-98.983563939,20.73709515],[-98.98348431,20.737166921],[-98.983407709,20.737394631],[-98.98329642,20.737538251],[-98.98317598,20.737632141],[-98.98303138,20.737784891],[-98.982646349,20.73770297],[-98.982472259,20.73774232],[-98.982321179,20.73781631],[-98.982110619,20.73792014],[-98.981905889,20.738071831],[-98.98177028,20.738180651],[-98.98184034,20.73823905],[-98.981862599,20.73836026],[-98.98173635,20.738421491],[-98.981616479,20.73835674],[-98.981438739,20.738328381],[-98.981094179,20.738363311],[-98.980839879,20.738503621],[-98.980605999,20.738741021],[-98.980506939,20.739086861],[-98.98055012,20.739401181],[-98.98064214,20.739574751],[-98.98072989,20.739735371],[-98.980782549,20.739862491],[-98.98066022,20.74004772],[-98.980625119,20.740329571],[-98.98064128,20.740465141],[-98.9806878,20.740689711],[-98.980475259,20.74084954],[-98.98027329,20.74116052],[-98.97992837,20.74121688],[-98.979643399,20.74128735],[-98.97937658,20.7414082],[-98.979306939,20.741842311],[-98.97947554,20.74234262],[-98.9796774,20.74268949],[-98.979868919,20.742994551],[-98.979944429,20.743200461],[-98.979958349,20.74342028],[-98.97990232,20.743721151],[-98.979874569,20.74390158],[-98.97972589,20.74401805],[-98.97952426,20.74406569],[-98.979297309,20.7441842],[-98.97912292,20.74429754],[-98.978954259,20.744400781],[-98.978716,20.744571511],[-98.978511249,20.74476162],[-98.97840443,20.74489491],[-98.9783128,20.74509778],[-98.978213679,20.74532948],[-98.97819817,20.7457228],[-98.978255059,20.746168721],[-98.9782938,20.74653226],[-98.97812977,20.74697663],[-98.9778844,20.747154941],[-98.977499149,20.747292951],[-98.977205659,20.747551491],[-98.976871,20.747696291],[-98.97652368,20.74788034],[-98.97632095,20.747985141],[-98.97627025,20.748089951],[-98.976097939,20.74815663],[-98.97585285,20.74819995],[-98.975366179,20.74824383],[-98.97502652,20.74845438],[-98.974539219,20.748511031],[-98.97429211,20.74879557],[-98.97402992,20.749023231],[-98.973523,20.74941169],[-98.973186709,20.749770321],[-98.972920089,20.74985949],[-98.97245671,20.749795351],[-98.97200406,20.749753431],[-98.97150652,20.749810001],[-98.97114575,20.750041651],[-98.9706528,20.75040235],[-98.97031815,20.75085985],[-98.96984077,20.750961771],[-98.96969117,20.75095434],[-98.96943954,20.750897881],[-98.968744079,20.750674621],[-98.968300229,20.75065548],[-98.96764928,20.75071655],[-98.96723697,20.75085928],[-98.967106719,20.751144861],[-98.966998089,20.75175686],[-98.967063079,20.75226689],[-98.96723658,20.75265452],[-98.967538889,20.753104781],[-98.96792854,20.75351437],[-98.968409169,20.754124651],[-98.968433049,20.754915631],[-98.968168369,20.75611334],[-98.96780426,20.75689825],[-98.96739515,20.75727806],[-98.967218519,20.75743028],[-98.967199539,20.75758225],[-98.966865749,20.75763851],[-98.96613588,20.75763835],[-98.965242569,20.757679151],[-98.96416015,20.757770631],[-98.96377349,20.757906851],[-98.963309519,20.75811574],[-98.962922829,20.758470051],[-98.962710109,20.758806201],[-98.962351169,20.75942365],[-98.961654459,20.759236491],[-98.96038709,20.759096651],[-98.958945249,20.75917],[-98.957277429,20.75954532],[-98.955801659,20.760266711],[-98.95410778,20.76055568],[-98.95207445,20.76106071],[-98.950758799,20.76122886],[-98.94908415,20.762014831],[-98.94842643,20.76178994],[-98.9480676,20.761902181],[-98.947529259,20.762295251],[-98.94663217,20.762575861],[-98.94585468,20.762800311],[-98.944658829,20.762350521],[-98.943702279,20.76167611],[-98.942386289,20.76274302],[-98.94172868,20.762237221],[-98.94131006,20.762293251],[-98.93957578,20.76246118],[-98.938020889,20.76268534],[-98.937900489,20.76273052],[-98.93712375,20.76302206],[-98.93652558,20.763415081],[-98.935113969,20.763122221],[-98.935001089,20.763122171],[-98.934784599,20.76350862],[-98.93454292,20.76387983],[-98.93457672,20.76458797],[-98.934426619,20.76571286],[-98.933498399,20.766724971],[-98.93227066,20.768327551],[-98.931582049,20.768861621],[-98.931013,20.76978946],[-98.9301746,20.77063283],[-98.928737629,20.77158846],[-98.927121279,20.77192526],[-98.92607351,20.77251543],[-98.92508557,20.773105551],[-98.923864629,20.773524181],[-98.924059829,20.773907201],[-98.92525592,20.773907721],[-98.926152739,20.774413691],[-98.92669072,20.774975681],[-98.928066119,20.775200951],[-98.92997985,20.77531409],[-98.932282259,20.776954181],[-98.93406908,20.77860091],[-98.936251749,20.7804658],[-98.9386288,20.782614571],[-98.940452509,20.78376571],[-98.94192874,20.78603648],[-98.941885479,20.787280201],[-98.941840089,20.78806434],[-98.942381219,20.78859435],[-98.942358799,20.789254491],[-98.942705569,20.78964431],[-98.942824779,20.789793851],[-98.942926939,20.78998077],[-98.942887089,20.79019434],[-98.9426826,20.7903064],[-98.94240429,20.790360581],[-98.94195445,20.790361831],[-98.941810979,20.79021091],[-98.94103203,20.79009491],[-98.939486649,20.79133338],[-98.937779369,20.79133132],[-98.937065139,20.79155765],[-98.93606788,20.79266383],[-98.93551711,20.794461741],[-98.936104219,20.79601571],[-98.93602658,20.796190837],[-98.935934119,20.7963994],[-98.93457248,20.795933938],[-98.93342494,20.795541651],[-98.931631509,20.795509141],[-98.931249373,20.795506063],[-98.930645939,20.7955012],[-98.930289461,20.795360348],[-98.930137819,20.795300431],[-98.929841539,20.795598021],[-98.92970606,20.79581855],[-98.929471289,20.79610694],[-98.929310539,20.796572461],[-98.928369179,20.797993021],[-98.926795509,20.79923242],[-98.92643895,20.800146091],[-98.925289279,20.801225941],[-98.925110248,20.801372776],[-98.92473103,20.801683799],[-98.92395514,20.80232015],[-98.92377945,20.80393],[-98.92302988,20.80563877],[-98.922609509,20.806607431],[-98.922036649,20.807235121],[-98.920719399,20.807934231],[-98.919574019,20.808454001],[-98.918850399,20.808944371],[-98.916622719,20.810823631],[-98.915169949,20.81191471],[-98.913781659,20.81306648],[-98.914380649,20.813785491],[-98.915148659,20.814780951],[-98.91620526,20.81602383],[-98.91707315,20.81710688],[-98.91806271,20.81837888],[-98.917666539,20.81935432],[-98.917271879,20.820030831],[-98.916533089,20.82105068],[-98.915253089,20.822700341],[-98.91426869,20.823925981],[-98.91351428,20.82561262],[-98.91312015,20.826174151],[-98.91270149,20.82674708],[-98.912355919,20.827377851],[-98.911911229,20.828261081],[-98.911415599,20.82954651],[-98.91094634,20.830452631],[-98.910502579,20.830839421],[-98.910115489,20.830700171],[-98.910101259,20.830701601],[-98.909514909,20.830572371],[-98.908892889,20.83051402],[-98.90794535,20.830419741],[-98.907801199,20.830405001],[-98.90747517,20.830660081],[-98.907091579,20.830951881],[-98.906575219,20.83148985],[-98.906343796,20.831854785],[-98.906320716,20.831891182],[-98.905895,20.83256249],[-98.90585063,20.832620851],[-98.90574572,20.83297737],[-98.905731799,20.83394857],[-98.905131544,20.834874267],[-98.90485463,20.835301311],[-98.904756679,20.835564781],[-98.904553649,20.835701751],[-98.90395192,20.836481721],[-98.90370797,20.83650762],[-98.902969589,20.836381636],[-98.90279572,20.836351971],[-98.902504566,20.836594947],[-98.902257919,20.83680078],[-98.90206371,20.837353111],[-98.902162679,20.83757834],[-98.902161579,20.837781601],[-98.90221435,20.837847461],[-98.900928879,20.838171451],[-98.89992546,20.839015461],[-98.89923348,20.83956728],[-98.898960969,20.840333541],[-98.8979588,20.84103374],[-98.897256969,20.841989971],[-98.896375,20.84281738],[-98.895291119,20.84400334],[-98.894762459,20.84400302],[-98.893549709,20.84391462]]]]},"properties":{"municipality":"Eloxochitlán","official_key":"13020","CVE_ENT":"13","CVE_MUN":"020","geometry_kind":"municipality","source":"INEGI Gaia — Servicio vectorial del Marco Geoestadístico"}},"features":[{"type":"Feature","geometry":{"type":"MultiPolygon","crs":{"type":"name","properties":{"name":"EPSG:6365"}},"coordinates":[[[[-98.808560769,20.752063262],[-98.808524954,20.752048785],[-98.808463294,20.752220363],[-98.808339831,20.752501292],[-98.808158785,20.752848231],[-98.805838215,20.752281154],[-98.805826154,20.752214815],[-98.806117246,20.749625062],[-98.8062783,20.749508385],[-98.806407708,20.749348138],[-98.806488338,20.749208462],[-98.806628446,20.749042462],[-98.806728477,20.748969246],[-98.8068042,20.748875385],[-98.806840969,20.748710462],[-98.807133954,20.748281031],[-98.807143154,20.748224815],[-98.805211554,20.746814169],[-98.805198647,20.746804742],[-98.801903677,20.744398323],[-98.800068369,20.743030223],[-98.798375723,20.741771335],[-98.797195513,20.740893573],[-98.7971386,20.740900338],[-98.797110428,20.740972129],[-98.797063892,20.741057677],[-98.797026354,20.741092877],[-98.796981621,20.741158283],[-98.796980985,20.741551985],[-98.796977262,20.741661077],[-98.796943215,20.741751662],[-98.796891369,20.7417986],[-98.796802046,20.741827031],[-98.796661769,20.741826731],[-98.796326146,20.741769261],[-98.796184262,20.741746954],[-98.796114646,20.741733446],[-98.796045007,20.74173],[-98.795765431,20.740662308],[-98.794112782,20.736067316],[-98.793294185,20.733781708],[-98.797034508,20.733839523],[-98.800341985,20.733995277],[-98.800476169,20.734029423],[-98.800572638,20.734036514],[-98.800663077,20.734043162],[-98.800785521,20.734037939],[-98.800794938,20.734037538],[-98.800780215,20.734283769],[-98.800785877,20.734514815],[-98.800823136,20.734633916],[-98.800897738,20.734823431],[-98.801163181,20.735246949],[-98.801653615,20.736170523],[-98.801925046,20.736072923],[-98.802152785,20.736026369],[-98.802320785,20.735965031],[-98.802366492,20.735582154],[-98.802487038,20.735072646],[-98.802699077,20.734239554],[-98.802756592,20.734090185],[-98.802815438,20.733937355],[-98.81522919,20.73496705],[-98.815308023,20.735023692],[-98.815403653,20.735153224],[-98.815560901,20.735095818],[-98.816590315,20.740683615],[-98.824047708,20.745247492],[-98.824072892,20.745285462],[-98.824090015,20.745311277],[-98.824135138,20.745385677],[-98.824185969,20.745420262],[-98.824196523,20.7454217],[-98.824245292,20.745428292],[-98.824315969,20.745404462],[-98.824413062,20.745329262],[-98.824673523,20.744899292],[-98.824754138,20.744704323],[-98.825022923,20.744391215],[-98.8253919,20.744066639],[-98.825768446,20.743429631],[-98.825913412,20.743201634],[-98.825915907,20.743197716],[-98.827844769,20.747859554],[-98.824028092,20.752319246],[-98.823947708,20.7523342],[-98.823519662,20.752303431],[-98.822268846,20.752176154],[-98.822096846,20.7522108],[-98.8174662,20.753850631],[-98.815500669,20.754546614],[-98.811759708,20.754126046],[-98.8088803,20.753665032],[-98.808788338,20.753491692],[-98.8086636,20.753348154],[-98.808581867,20.753187656],[-98.808576954,20.753020815],[-98.8085994,20.752874046],[-98.808597915,20.7526976],[-98.808650738,20.752466],[-98.808591415,20.752129062],[-98.808560769,20.752063262]]]]},"properties":{"locality":"Eloxochitlán","municipality":null,"official_key":"130200001","CVE_ENT":"13","CVE_MUN":"020","CVE_LOC":"0001","ambito":"URBANO","geometry_kind":"locality","source":"INEGI Gaia — Servicio vectorial del Marco Geoestadístico"}},{"type":"Feature","geometry":{"type":"MultiPolygon","crs":{"type":"name","properties":{"name":"EPSG:6365"}},"coordinates":[[[[-98.93272271,20.666873822],[-98.932561871,20.666848216],[-98.932396573,20.666798041],[-98.932314487,20.666761427],[-98.932151933,20.666759949],[-98.931989052,20.666772911],[-98.931875425,20.666764334],[-98.931794473,20.666763809],[-98.931731197,20.666768566],[-98.931668715,20.666791022],[-98.931601264,20.666823582],[-98.931534009,20.666839861],[-98.931436009,20.666834199],[-98.931323978,20.666821327],[-98.931355134,20.666686903],[-98.931594677,20.666589575],[-98.931728271,20.666541185],[-98.931982242,20.666468039],[-98.931953859,20.66596336],[-98.931976436,20.665900375],[-98.932178192,20.665640093],[-98.932455443,20.665322213],[-98.93267705,20.665221726],[-98.932731221,20.66539958],[-98.932780804,20.665775441],[-98.932808797,20.666018865],[-98.932839649,20.666160743],[-98.932857787,20.666315644],[-98.932871171,20.666499926],[-98.932922526,20.666858645],[-98.932823309,20.666875081],[-98.93272271,20.666873822]]]]},"properties":{"locality":"Chalmita","municipality":null,"official_key":"130200004","CVE_ENT":"13","CVE_MUN":"020","CVE_LOC":"0004","ambito":"RURAL","geometry_kind":"locality","source":"INEGI Gaia — Servicio vectorial del Marco Geoestadístico"}},{"type":"Feature","geometry":{"type":"MultiPolygon","crs":{"type":"name","properties":{"name":"EPSG:6365"}},"coordinates":[[[[-98.89937405,20.74864277],[-98.899147049,20.74825071],[-98.89906449,20.74804758],[-98.899062519,20.747911291],[-98.899070339,20.74779658],[-98.899262289,20.74763249],[-98.899673489,20.74730606],[-98.89979388,20.74739752],[-98.90001752,20.747561451],[-98.90022905,20.74771768],[-98.900277249,20.74775471],[-98.900363199,20.74781472],[-98.90045618,20.747858881],[-98.900559649,20.74789269],[-98.900697509,20.74790831],[-98.90072577,20.74791811],[-98.900848549,20.74796578],[-98.90103311,20.748049721],[-98.901143449,20.74809762],[-98.90117317,20.748110651],[-98.901389169,20.748207851],[-98.901519799,20.748262371],[-98.901711049,20.748323042],[-98.902334278,20.747618524],[-98.902752646,20.748003828],[-98.903015914,20.747815596],[-98.903475803,20.747553967],[-98.903894053,20.74728495],[-98.904074519,20.74765883],[-98.90410683,20.747694371],[-98.90415988,20.747776581],[-98.904167579,20.74778854],[-98.904407861,20.748395722],[-98.904194486,20.748512919],[-98.90423126,20.74859154],[-98.904306109,20.74873675],[-98.90437035,20.748851541],[-98.90442775,20.74894389],[-98.90449391,20.74907465],[-98.904589149,20.749248451],[-98.90464325,20.74935635],[-98.90474974,20.749560821],[-98.90480255,20.749662831],[-98.905552134,20.749393411],[-98.905738807,20.749523605],[-98.905966251,20.749568637],[-98.906305281,20.750223227],[-98.907386746,20.752291213],[-98.907165731,20.752452351],[-98.905563915,20.750596586],[-98.904857956,20.749814326],[-98.90465523,20.74982],[-98.904534629,20.749824721],[-98.90444591,20.74982462],[-98.90429417,20.749817721],[-98.904202419,20.74980886],[-98.904111889,20.749786941],[-98.90397755,20.74969078],[-98.90384089,20.749593291],[-98.90361365,20.749457691],[-98.90348009,20.749408691],[-98.903437289,20.74940511],[-98.903398509,20.749554381],[-98.90336392,20.7496646],[-98.90329615,20.749866601],[-98.903190579,20.750182121],[-98.90317417,20.75023169],[-98.9030498,20.75061591],[-98.90301166,20.75072352],[-98.902979379,20.750777721],[-98.90294257,20.75079085],[-98.90287408,20.750789551],[-98.90273011,20.750780351],[-98.902489999,20.75075969],[-98.9021334,20.75072662],[-98.901773879,20.750689971],[-98.90169368,20.750681431],[-98.901467569,20.750648781],[-98.901432229,20.75064297],[-98.90124983,20.750593581],[-98.90122252,20.750580091],[-98.901173229,20.75055572],[-98.90110451,20.75051872],[-98.90089242,20.75041083],[-98.900828769,20.75037982],[-98.900643199,20.750292951],[-98.900584749,20.750266031],[-98.900489509,20.75022288],[-98.900248849,20.75011226],[-98.900035489,20.749770351],[-98.89990795,20.74955658],[-98.89937405,20.74864277]]]]},"properties":{"locality":"San Pedro Gilo (Gilo)","municipality":null,"official_key":"130200005","CVE_ENT":"13","CVE_MUN":"020","CVE_LOC":"0005","ambito":"RURAL","geometry_kind":"locality","source":"INEGI Gaia — Servicio vectorial del Marco Geoestadístico"}},{"type":"Feature","geometry":{"type":"MultiPolygon","crs":{"type":"name","properties":{"name":"EPSG:6365"}},"coordinates":[[[[-98.84147165,20.70494223],[-98.8414788,20.70501911],[-98.841492879,20.705133421],[-98.84150934,20.70527617],[-98.841527519,20.705403571],[-98.841576719,20.705443481],[-98.841642629,20.70551909],[-98.84172875,20.705641081],[-98.84181957,20.70577612],[-98.841916109,20.705941201],[-98.842099993,20.706224137],[-98.842149354,20.706473325],[-98.84212335,20.70656577],[-98.84211082,20.70662608],[-98.842078459,20.70672322],[-98.84204494,20.7068168],[-98.842036979,20.70689022],[-98.842051249,20.706976541],[-98.84205909,20.70700908],[-98.842139709,20.707270001],[-98.842226531,20.707427364],[-98.842291219,20.707650251],[-98.842409604,20.708128076],[-98.842457566,20.708643595],[-98.841997331,20.708758986],[-98.841699861,20.708255807],[-98.841666306,20.70798649],[-98.841436179,20.70808745],[-98.8413976,20.70810995],[-98.84137755,20.708121651],[-98.84125726,20.70835725],[-98.841247919,20.70846815],[-98.841245619,20.708566511],[-98.841166149,20.708644231],[-98.841048199,20.708635431],[-98.840931659,20.708566351],[-98.84078565,20.70845857],[-98.84060342,20.70831194],[-98.840441049,20.7081816],[-98.840341169,20.70812238],[-98.84008725,20.708009181],[-98.839955399,20.707971311],[-98.839940429,20.70801308],[-98.839927419,20.708180421],[-98.839923709,20.708327371],[-98.839923949,20.708633551],[-98.839912289,20.709120021],[-98.83989108,20.709310021],[-98.839865949,20.70937752],[-98.8398024,20.70942957],[-98.83977535,20.70944478],[-98.83974806,20.709468951],[-98.83979248,20.709509481],[-98.83982572,20.709551291],[-98.839857879,20.709639551],[-98.83984595,20.709743001],[-98.83980842,20.709803021],[-98.839771309,20.709845151],[-98.83963972,20.709862091],[-98.839545259,20.70983689],[-98.839476349,20.70983228],[-98.83924129,20.709827021],[-98.839124449,20.709831881],[-98.839025599,20.70983162],[-98.838893369,20.709827261],[-98.838907969,20.70989794],[-98.838998467,20.710088583],[-98.839231669,20.710449203],[-98.838536489,20.7106482],[-98.83857946,20.710761711],[-98.838655379,20.71092955],[-98.83866891,20.71100135],[-98.83867674,20.711055341],[-98.838602569,20.711055201],[-98.83849617,20.711006941],[-98.83838798,20.710973021],[-98.83815437,20.7108806],[-98.838051219,20.71085628],[-98.83796254,20.7108358],[-98.83787505,20.71084889],[-98.837803089,20.710875351],[-98.837720249,20.710944431],[-98.837667309,20.711004821],[-98.83759814,20.711081631],[-98.837507782,20.711199749],[-98.83739733,20.711238692],[-98.837264318,20.711187916],[-98.837024019,20.71097657],[-98.836954049,20.711003061],[-98.836893799,20.711037221],[-98.83680845,20.7111286],[-98.836765889,20.71116878],[-98.83672738,20.711205171],[-98.8366496,20.71126895],[-98.836581659,20.71129363],[-98.83648871,20.71128611],[-98.836351199,20.71115097],[-98.836262199,20.71105969],[-98.83618503,20.71097052],[-98.836093619,20.71089782],[-98.835974339,20.710830141],[-98.83587209,20.710796341],[-98.83579463,20.71080405],[-98.835647029,20.710845691],[-98.835489539,20.71088714],[-98.835335949,20.710930541],[-98.83520662,20.71095394],[-98.83506803,20.71094918],[-98.834983889,20.71093558],[-98.83491492,20.71091925],[-98.83485071,20.710869461],[-98.834797519,20.710771481],[-98.83470742,20.71064291],[-98.834608649,20.71054583],[-98.83450112,20.710483981],[-98.83432669,20.71040211],[-98.83415131,20.7103612],[-98.833978949,20.71032751],[-98.8338758,20.71032225],[-98.83373355,20.71031497],[-98.83348597,20.710311681],[-98.833327969,20.710289771],[-98.833186689,20.710207771],[-98.83306169,20.7100468],[-98.83295655,20.709798681],[-98.83284292,20.7095746],[-98.83280226,20.70944043],[-98.83278598,20.709205341],[-98.832796879,20.70874163],[-98.832824199,20.70859769],[-98.832924139,20.70812026],[-98.83299402,20.70813986],[-98.83299257,20.70724829],[-98.833068954,20.706702102],[-98.833137721,20.706282434],[-98.833772266,20.706450873],[-98.833756148,20.70675039],[-98.833833336,20.707046501],[-98.833920583,20.707166508],[-98.834025833,20.70728809],[-98.834174816,20.707474759],[-98.834267398,20.707614769],[-98.834362753,20.707754182],[-98.83439971,20.70781115],[-98.834436313,20.70785543],[-98.834402326,20.708091561],[-98.83448928,20.70797489],[-98.834513909,20.707848341],[-98.8344634,20.70753703],[-98.83444992,20.707386421],[-98.83443869,20.707139911],[-98.834471539,20.707062631],[-98.83455877,20.70696849],[-98.83463997,20.706842231],[-98.834777879,20.706618001],[-98.83487372,20.706447281],[-98.835020765,20.706349267],[-98.835133011,20.706258247],[-98.835191612,20.705999128],[-98.835187181,20.705869218],[-98.835228347,20.705656514],[-98.835369851,20.705001199],[-98.835587345,20.70511825],[-98.835740701,20.705224393],[-98.835792132,20.705325518],[-98.835840882,20.705456751],[-98.835872811,20.705573652],[-98.835891329,20.705703097],[-98.835932307,20.705867694],[-98.835994742,20.706009709],[-98.836110466,20.706203714],[-98.836299362,20.70639571],[-98.836425961,20.706552786],[-98.836559098,20.70659378],[-98.836659404,20.706647783],[-98.836751896,20.706707799],[-98.837018681,20.706877279],[-98.836985059,20.707079376],[-98.836923179,20.707162424],[-98.83681015,20.707283358],[-98.836750387,20.707364655],[-98.836705964,20.707436927],[-98.836686855,20.707561399],[-98.83663791,20.707654791],[-98.836582933,20.707701075],[-98.836934319,20.708230195],[-98.837030909,20.708570879],[-98.837202634,20.70855979],[-98.837331506,20.708417184],[-98.837728725,20.708081792],[-98.838362231,20.707932863],[-98.838577816,20.707966184],[-98.838730038,20.708012754],[-98.838819904,20.707985464],[-98.838913806,20.707910816],[-98.838918748,20.707461408],[-98.839146511,20.707056329],[-98.839162879,20.70675774],[-98.839409914,20.706564527],[-98.83967094,20.706158475],[-98.839812532,20.705917013],[-98.840061739,20.70575214],[-98.840215976,20.704847434],[-98.840219647,20.704606657],[-98.840255039,20.704284994],[-98.840483549,20.703943261],[-98.840574586,20.703770482],[-98.840670724,20.703522743],[-98.840506351,20.703069571],[-98.840610202,20.701793439],[-98.841246847,20.702046074],[-98.841518713,20.70229871],[-98.841686934,20.702723692],[-98.841726823,20.703068746],[-98.841610909,20.70353304],[-98.841554449,20.703903596],[-98.841547054,20.704073685],[-98.84150638,20.704225286],[-98.841454614,20.704380585],[-98.841432427,20.704506303],[-98.841443521,20.704657905],[-98.84146414,20.704845451],[-98.84147165,20.70494223]]]]},"properties":{"locality":"Hualula (San Juan Hualula)","municipality":null,"official_key":"130200006","CVE_ENT":"13","CVE_MUN":"020","CVE_LOC":"0006","ambito":"RURAL","geometry_kind":"locality","source":"INEGI Gaia — Servicio vectorial del Marco Geoestadístico"}},{"type":"Feature","geometry":{"type":"MultiPolygon","crs":{"type":"name","properties":{"name":"EPSG:6365"}},"coordinates":[[[[-98.948999539,20.718302005],[-98.949146246,20.718173491],[-98.949131035,20.718011089],[-98.949239198,20.718007536],[-98.950043944,20.718069533],[-98.950058683,20.718591319],[-98.949628179,20.718736793],[-98.949590757,20.718799141],[-98.949357717,20.719067575],[-98.949025725,20.719164176],[-98.948616462,20.718823793],[-98.948457236,20.718525898],[-98.948409204,20.718293531],[-98.948521983,20.718147243],[-98.948763443,20.718176957],[-98.948999539,20.718302005]]]]},"properties":{"locality":"San Juan Amajaque","municipality":null,"official_key":"130200009","CVE_ENT":"13","CVE_MUN":"020","CVE_LOC":"0009","ambito":"RURAL","geometry_kind":"locality","source":"INEGI Gaia — Servicio vectorial del Marco Geoestadístico"}},{"type":"Feature","geometry":{"type":"MultiPolygon","crs":{"type":"name","properties":{"name":"EPSG:6365"}},"coordinates":[[[[-98.935102695,20.662899046],[-98.934768686,20.6631486],[-98.934386506,20.662695693],[-98.934157382,20.662354631],[-98.935102695,20.662899046]]]]},"properties":{"locality":"Tecomate","municipality":null,"official_key":"130200010","CVE_ENT":"13","CVE_MUN":"020","CVE_LOC":"0010","ambito":"RURAL","geometry_kind":"locality","source":"INEGI Gaia — Servicio vectorial del Marco Geoestadístico"}},{"type":"Feature","geometry":{"type":"MultiPolygon","crs":{"type":"name","properties":{"name":"EPSG:6365"}},"coordinates":[[[[-98.90260022,20.83488426],[-98.903006249,20.834903691],[-98.903368939,20.834940831],[-98.903485259,20.83493611],[-98.90309852,20.83481135],[-98.902542739,20.83465483],[-98.90243446,20.834590053],[-98.902417419,20.83451089],[-98.902348459,20.83426029],[-98.902282119,20.833918031],[-98.902245342,20.833781355],[-98.902146527,20.833881087],[-98.902052089,20.83400463],[-98.901962525,20.834023777],[-98.90188369,20.83409306],[-98.901548581,20.833667441],[-98.901361927,20.833348866],[-98.901171539,20.83310311],[-98.901047464,20.832950994],[-98.901209179,20.832840311],[-98.901451849,20.832630661],[-98.901691149,20.832566861],[-98.901737779,20.832433281],[-98.90190938,20.832289781],[-98.90197585,20.83232603],[-98.902229939,20.832588],[-98.902283262,20.832749156],[-98.902282939,20.832880231],[-98.902362579,20.83308132],[-98.90245695,20.833117581],[-98.902530109,20.83307517],[-98.902620629,20.832919141],[-98.90277226,20.83281058],[-98.902972089,20.83277222],[-98.90307348,20.83275902],[-98.90325875,20.832812181],[-98.90336042,20.83292965],[-98.90351075,20.833033541],[-98.90373686,20.832915031],[-98.90381631,20.83293372],[-98.903962731,20.833017868],[-98.904048939,20.833011911],[-98.904082249,20.832905001],[-98.90401648,20.83281146],[-98.903779519,20.832415601],[-98.903664139,20.832219651],[-98.90376254,20.831994861],[-98.90390417,20.831736261],[-98.90405492,20.831590691],[-98.904153029,20.831497091],[-98.904340909,20.83137389],[-98.90447035,20.831328511],[-98.904599999,20.83129034],[-98.904777,20.83131072],[-98.90497205,20.831396621],[-98.905203569,20.83149468],[-98.90556446,20.83132934],[-98.90580085,20.8313152],[-98.90612377,20.831349821],[-98.906218349,20.83142542],[-98.906273369,20.83158694],[-98.90616772,20.831756951],[-98.906074799,20.83183458],[-98.90604306,20.83190343],[-98.90582749,20.832036121],[-98.905717459,20.83211911],[-98.90557971,20.832316371],[-98.90550892,20.83257166],[-98.905469399,20.832773341],[-98.90546563,20.83294008],[-98.90542089,20.833172451],[-98.905304489,20.8332394],[-98.90519903,20.83332418],[-98.905063379,20.83350514],[-98.90477509,20.83382465],[-98.90469323,20.833978181],[-98.90468712,20.83412078],[-98.904674459,20.834269421],[-98.904560829,20.83445249],[-98.90430102,20.83462102],[-98.90400408,20.83475455],[-98.903983179,20.834774151],[-98.90387909,20.834871821],[-98.90398003,20.835006521],[-98.90421754,20.835386371],[-98.90422917,20.83551583],[-98.90376897,20.835838941],[-98.903473399,20.835911941],[-98.90294609,20.83587298],[-98.902861489,20.835823741],[-98.902828489,20.83570758],[-98.902529919,20.835186],[-98.90248914,20.835018621],[-98.90260022,20.83488426]]]]},"properties":{"locality":"Tepeyica","municipality":null,"official_key":"130200011","CVE_ENT":"13","CVE_MUN":"020","CVE_LOC":"0011","ambito":"RURAL","geometry_kind":"locality","source":"INEGI Gaia — Servicio vectorial del Marco Geoestadístico"}},{"type":"Feature","geometry":{"type":"MultiPolygon","crs":{"type":"name","properties":{"name":"EPSG:6365"}},"coordinates":[[[[-98.934404538,20.728410907],[-98.934659644,20.728173401],[-98.934905895,20.727197815],[-98.934900267,20.726824189],[-98.935728739,20.725785304],[-98.936380956,20.725554233],[-98.936592043,20.72569519],[-98.936749379,20.726082491],[-98.936735054,20.726540032],[-98.936642033,20.727033664],[-98.93643453,20.727398793],[-98.93564232,20.728259442],[-98.935161248,20.728698644],[-98.934402951,20.729025159],[-98.934404538,20.728410907]]]]},"properties":{"locality":"Chacaya","municipality":null,"official_key":"130200012","CVE_ENT":"13","CVE_MUN":"020","CVE_LOC":"0012","ambito":"RURAL","geometry_kind":"locality","source":"INEGI Gaia — Servicio vectorial del Marco Geoestadístico"}},{"type":"Feature","geometry":{"type":"Polygon","coordinates":[[[-98.8032177,20.7399308],[-98.8029959,20.7396667],[-98.8029346,20.7395902],[-98.8027848,20.739425],[-98.8026439,20.739257],[-98.8026002,20.7391581],[-98.8025486,20.7390009],[-98.8025163,20.7387504],[-98.8024336,20.7382592],[-98.8023458,20.7378335],[-98.8022534,20.7376203],[-98.8022437,20.7375793],[-98.802204,20.7375619],[-98.8020805,20.7375499],[-98.8020198,20.7375224],[-98.8018916,20.7374608],[-98.8016543,20.7373949],[-98.8010318,20.7372439],[-98.8009108,20.7372006],[-98.8008411,20.7371695],[-98.8007723,20.7371316],[-98.8006675,20.7370551],[-98.8003897,20.7369579],[-98.7996832,20.7366969],[-98.7994362,20.7366395],[-98.7990875,20.7365818],[-98.7988739,20.7365599],[-98.7987615,20.7365441],[-98.7981995,20.7364653],[-98.7980854,20.7365226],[-98.7978497,20.7366933],[-98.7976543,20.7368204],[-98.7974579,20.7368779],[-98.7971102,20.7368642],[-98.7969926,20.736837],[-98.7965576,20.7367098],[-98.7961233,20.7366111],[-98.7956905,20.7365884],[-98.7954438,20.7365702],[-98.7952641,20.7365256],[-98.7951663,20.7364983],[-98.7949488,20.7363736],[-98.7947346,20.7362347],[-98.7941128,20.7360673],[-98.7932942,20.7337817],[-98.7970345,20.7338395],[-98.800342,20.7339953],[-98.8004762,20.7340294],[-98.8006631,20.7340432],[-98.8007855,20.7340379],[-98.8007949,20.7340375],[-98.8007802,20.7342838],[-98.8007859,20.7345148],[-98.8008231,20.7346339],[-98.8008977,20.7348234],[-98.8011632,20.7352469],[-98.8016536,20.7361705],[-98.801925,20.7360729],[-98.8021528,20.7360264],[-98.8023208,20.735965],[-98.8023665,20.7355822],[-98.802487,20.7350726],[-98.8026991,20.7342396],[-98.8027566,20.7340902],[-98.8028154,20.7339374],[-98.8152292,20.734967],[-98.815308,20.7350237],[-98.8154037,20.7351532],[-98.815319,20.7351807],[-98.8151106,20.7352631],[-98.8147351,20.7353043],[-98.8145575,20.7353091],[-98.8144057,20.7354841],[-98.8143326,20.7355912],[-98.8141336,20.735785],[-98.8137785,20.7360694],[-98.8135812,20.7362514],[-98.8133138,20.7365248],[-98.8131769,20.7366803],[-98.813081,20.7368167],[-98.8130383,20.7368902],[-98.8126586,20.7374645],[-98.8125448,20.7375944],[-98.8124143,20.7377147],[-98.8118829,20.738153],[-98.8115745,20.738392],[-98.8112016,20.738618],[-98.8110478,20.7386952],[-98.810995,20.738725],[-98.810884,20.7391399],[-98.8108404,20.7391675],[-98.8107498,20.7392593],[-98.8105847,20.739407],[-98.8103266,20.7396818],[-98.8102752,20.7397418],[-98.8102328,20.7398211],[-98.8101663,20.7398107],[-98.8101428,20.739896],[-98.8100652,20.7400922],[-98.810152,20.7401942],[-98.810271,20.740546],[-98.8103061,20.7406122],[-98.8104087,20.7407623],[-98.8104579,20.740832],[-98.8107308,20.7413016],[-98.8108013,20.7414576],[-98.8108686,20.7418539],[-98.8108844,20.7422078],[-98.810883,20.7423776],[-98.8110924,20.7426474],[-98.8111998,20.7427539],[-98.8113281,20.7429422],[-98.8113649,20.7431086],[-98.8113232,20.7433546],[-98.8113387,20.7434402],[-98.8111099,20.7437149],[-98.8110684,20.7437721],[-98.8110312,20.7439296],[-98.8109698,20.744141],[-98.8108973,20.7444867],[-98.8108381,20.7446206],[-98.8109163,20.7446785],[-98.8109741,20.7447523],[-98.8110312,20.7448248],[-98.8111284,20.7449925],[-98.8111814,20.7450727],[-98.8111991,20.7451102],[-98.8112414,20.7452377],[-98.8112463,20.7453202],[-98.8112464,20.7453525],[-98.8112311,20.7454086],[-98.8112081,20.7454716],[-98.8111382,20.7455618],[-98.8110816,20.7456478],[-98.8110345,20.745725],[-98.8109935,20.7458354],[-98.8109645,20.7459169],[-98.8109316,20.7460074],[-98.8109045,20.7460247],[-98.8108003,20.7460333],[-98.8102105,20.7460399],[-98.8101695,20.7460582],[-98.8101277,20.7461013],[-98.8100671,20.7461271],[-98.8099034,20.7461312],[-98.8097458,20.7461474],[-98.8096127,20.7461833],[-98.8091877,20.7463468],[-98.80894,20.746417],[-98.8086207,20.7464698],[-98.8081989,20.7465738],[-98.8080798,20.7465955],[-98.8080631,20.7464936],[-98.8079666,20.7463738],[-98.807826,20.7462106],[-98.8077024,20.7460325],[-98.8075379,20.7455305],[-98.8074023,20.7451308],[-98.8073309,20.7449152],[-98.8072774,20.7447698],[-98.8071319,20.7444542],[-98.8070427,20.7443175],[-98.8070024,20.7442652],[-98.8069617,20.7441964],[-98.8068746,20.7440636],[-98.8067299,20.7437876],[-98.8065128,20.7434199],[-98.8063437,20.7431631],[-98.8061889,20.742948],[-98.8061207,20.7428742],[-98.8060197,20.7427814],[-98.8059044,20.7426091],[-98.8058944,20.7425638],[-98.8056101,20.7421122],[-98.805475,20.7419494],[-98.8053471,20.7418398],[-98.8051748,20.7416652],[-98.8049169,20.7414414],[-98.8046217,20.7412016],[-98.804533,20.7411251],[-98.8042826,20.7409507],[-98.8038784,20.7405697],[-98.8034456,20.7401815],[-98.8032177,20.7399308]]]},"properties":{"locality":"LA ALAMEDA","official_key":"1302000010001","CVE_ENT":"13","CVE_MUN":"020","CVE_LOC":"0001","CVE_ASEN":"0001","settlement_type":"BARRIO","source":"INEGI DCAH 2025"}},{"type":"Feature","geometry":{"type":"Polygon","coordinates":[[[-98.8085608,20.7520633],[-98.808525,20.7520488],[-98.8084633,20.7522204],[-98.8083398,20.7525013],[-98.8081588,20.7528482],[-98.8058382,20.7522812],[-98.8058262,20.7522148],[-98.8061172,20.7496251],[-98.8062783,20.7495084],[-98.8064077,20.7493481],[-98.8064883,20.7492085],[-98.8066284,20.7490425],[-98.8067285,20.7489692],[-98.8068042,20.7488754],[-98.806841,20.7487105],[-98.807134,20.748281],[-98.8071432,20.7482248],[-98.8052116,20.7468142],[-98.8051986,20.7468047],[-98.8065057,20.7463946],[-98.8069893,20.7462569],[-98.8070393,20.7463414],[-98.8071046,20.7463886],[-98.8071426,20.7464081],[-98.8073578,20.7464505],[-98.8079599,20.746486],[-98.8080631,20.7464936],[-98.8080798,20.7465955],[-98.8081989,20.7465738],[-98.8086207,20.7464698],[-98.80894,20.746417],[-98.8091877,20.7463468],[-98.8096127,20.7461833],[-98.8097458,20.7461474],[-98.8099034,20.7461312],[-98.8100671,20.7461271],[-98.8101277,20.7461013],[-98.8101695,20.7460582],[-98.8102105,20.7460399],[-98.8108003,20.7460333],[-98.8109045,20.7460247],[-98.8109316,20.7460074],[-98.8111926,20.7462976],[-98.8149491,20.7529496],[-98.8150326,20.7532535],[-98.8151423,20.7535705],[-98.815246,20.7538605],[-98.815395,20.754269],[-98.8154671,20.7543937],[-98.8155275,20.7544118],[-98.8155007,20.7545466],[-98.8117597,20.754126],[-98.8088803,20.753665],[-98.8087884,20.7534917],[-98.8086636,20.7533482],[-98.8085819,20.7531877],[-98.808577,20.7530208],[-98.8085994,20.752874],[-98.8085979,20.7526976],[-98.8086507,20.752466],[-98.8085914,20.7521291],[-98.8085608,20.7520633]]]},"properties":{"locality":"EL CALVARIO","official_key":"1302000010002","CVE_ENT":"13","CVE_MUN":"020","CVE_LOC":"0001","CVE_ASEN":"0002","settlement_type":"BARRIO","source":"INEGI DCAH 2025"}},{"type":"Feature","geometry":{"type":"Polygon","coordinates":[[[-98.8019037,20.7443983],[-98.8000684,20.7430302],[-98.7971955,20.7408936],[-98.7971386,20.7409003],[-98.7971104,20.7409721],[-98.7970639,20.7410577],[-98.7970264,20.7410929],[-98.7969816,20.7411583],[-98.796981,20.741552],[-98.7969773,20.7416611],[-98.7969432,20.7417517],[-98.7968914,20.7417986],[-98.796802,20.741827],[-98.7966618,20.7418267],[-98.7963261,20.7417693],[-98.7961843,20.741747],[-98.7961146,20.7417334],[-98.796045,20.74173],[-98.7957654,20.7406623],[-98.7941128,20.7360673],[-98.7947346,20.7362347],[-98.7949488,20.7363736],[-98.7951663,20.7364983],[-98.7952641,20.7365256],[-98.7954438,20.7365702],[-98.7956905,20.7365884],[-98.7961233,20.7366111],[-98.7965576,20.7367098],[-98.7969926,20.736837],[-98.7971102,20.7368642],[-98.7974579,20.7368779],[-98.7976543,20.7368204],[-98.7978497,20.7366933],[-98.7980854,20.7365226],[-98.7981995,20.7364653],[-98.7987615,20.7365441],[-98.7988739,20.7365599],[-98.7990875,20.7365818],[-98.7994362,20.7366395],[-98.7996832,20.7366969],[-98.8003897,20.7369579],[-98.8006675,20.7370551],[-98.8007723,20.7371316],[-98.8008411,20.7371695],[-98.8009108,20.7372006],[-98.8010318,20.7372439],[-98.8016543,20.7373949],[-98.8018916,20.7374608],[-98.8020198,20.7375224],[-98.8020805,20.7375499],[-98.802204,20.7375619],[-98.8022437,20.7375793],[-98.8022534,20.7376203],[-98.8023458,20.7378335],[-98.8024336,20.7382592],[-98.8025163,20.7387504],[-98.8025486,20.7390009],[-98.8026002,20.7391581],[-98.8026439,20.739257],[-98.8027848,20.739425],[-98.8029346,20.7395902],[-98.8029959,20.7396667],[-98.8032177,20.7399308],[-98.8034456,20.7401815],[-98.8038784,20.7405697],[-98.8042826,20.7409507],[-98.804533,20.7411251],[-98.8046217,20.7412016],[-98.8049169,20.7414414],[-98.8051748,20.7416652],[-98.8053471,20.7418398],[-98.805475,20.7419494],[-98.8056101,20.7421122],[-98.8058944,20.7425638],[-98.8059044,20.7426091],[-98.8060197,20.7427814],[-98.8061207,20.7428742],[-98.8061889,20.742948],[-98.8063437,20.7431631],[-98.8065128,20.7434199],[-98.8067299,20.7437876],[-98.8068746,20.7440636],[-98.8069617,20.7441964],[-98.8070024,20.7442652],[-98.8070427,20.7443175],[-98.8071319,20.7444542],[-98.8072774,20.7447698],[-98.8073309,20.7449152],[-98.8074023,20.7451308],[-98.8075379,20.7455305],[-98.8077024,20.7460325],[-98.807826,20.7462106],[-98.8079666,20.7463738],[-98.8080631,20.7464936],[-98.8079599,20.746486],[-98.8073578,20.7464505],[-98.8071426,20.7464081],[-98.8071046,20.7463886],[-98.8070393,20.7463414],[-98.8069893,20.7462569],[-98.8065057,20.7463946],[-98.8051986,20.7468047],[-98.8019037,20.7443983]]]},"properties":{"locality":"LA FUENTE","official_key":"1302000010003","CVE_ENT":"13","CVE_MUN":"020","CVE_LOC":"0001","CVE_ASEN":"0003","settlement_type":"BARRIO","source":"INEGI DCAH 2025"}},{"type":"Feature","geometry":{"type":"Polygon","coordinates":[[[-98.8149491,20.7529496],[-98.8111926,20.7462976],[-98.8109316,20.7460074],[-98.8109645,20.7459169],[-98.8109935,20.7458354],[-98.8110345,20.745725],[-98.8110816,20.7456478],[-98.8111382,20.7455618],[-98.8112081,20.7454716],[-98.8112311,20.7454086],[-98.8112464,20.7453525],[-98.8112463,20.7453202],[-98.8112414,20.7452377],[-98.8111991,20.7451102],[-98.8111814,20.7450727],[-98.8111284,20.7449925],[-98.8110312,20.7448248],[-98.8109741,20.7447523],[-98.8109163,20.7446785],[-98.8108381,20.7446206],[-98.8108973,20.7444867],[-98.8109698,20.744141],[-98.8110312,20.7439296],[-98.8110684,20.7437721],[-98.8111099,20.7437149],[-98.8113387,20.7434402],[-98.8113232,20.7433546],[-98.8113649,20.7431086],[-98.8113281,20.7429422],[-98.8111998,20.7427539],[-98.8110924,20.7426474],[-98.810883,20.7423776],[-98.8108844,20.7422078],[-98.8108686,20.7418539],[-98.8108013,20.7414576],[-98.8107308,20.7413016],[-98.8104579,20.740832],[-98.8104087,20.7407623],[-98.8103061,20.7406122],[-98.810271,20.740546],[-98.810152,20.7401942],[-98.8100652,20.7400922],[-98.8101428,20.739896],[-98.8101663,20.7398107],[-98.8102328,20.7398211],[-98.8102752,20.7397418],[-98.8103266,20.7396818],[-98.8105847,20.739407],[-98.8107498,20.7392593],[-98.8108404,20.7391675],[-98.810884,20.7391399],[-98.810995,20.738725],[-98.8110478,20.7386952],[-98.8112016,20.738618],[-98.8115745,20.738392],[-98.8118829,20.738153],[-98.8124143,20.7377147],[-98.8125448,20.7375944],[-98.8126586,20.7374645],[-98.8130383,20.7368902],[-98.813081,20.7368167],[-98.8131769,20.7366803],[-98.8133138,20.7365248],[-98.8135812,20.7362514],[-98.8137785,20.7360694],[-98.8141336,20.735785],[-98.8143326,20.7355912],[-98.8144057,20.7354841],[-98.8145575,20.7353091],[-98.8147351,20.7353043],[-98.8151106,20.7352631],[-98.815319,20.7351807],[-98.8154037,20.7351532],[-98.8155609,20.7350958],[-98.8165903,20.7406836],[-98.8240477,20.7452475],[-98.8240729,20.7452855],[-98.82409,20.7453113],[-98.8241351,20.7453857],[-98.824186,20.7454203],[-98.8241965,20.7454217],[-98.8242453,20.7454283],[-98.824316,20.7454045],[-98.8244131,20.7453293],[-98.8246735,20.7448993],[-98.8247541,20.7447043],[-98.8250229,20.7443912],[-98.8253919,20.7440666],[-98.8257684,20.7434296],[-98.8259134,20.7432016],[-98.8259159,20.7431977],[-98.8278448,20.7478596],[-98.8240281,20.7523192],[-98.8239477,20.7523342],[-98.8235197,20.7523034],[-98.8222688,20.7521762],[-98.8220968,20.7522108],[-98.8174662,20.7538506],[-98.8155007,20.7545466],[-98.8155275,20.7544118],[-98.8154671,20.7543937],[-98.815395,20.754269],[-98.815246,20.7538605],[-98.8151423,20.7535705],[-98.8150326,20.7532535],[-98.8149491,20.7529496]]]},"properties":{"locality":"EL PAREDÓN","official_key":"1302000010004","CVE_ENT":"13","CVE_MUN":"020","CVE_LOC":"0001","CVE_ASEN":"0004","settlement_type":"BARRIO","source":"INEGI DCAH 2025"}}]}