{"type":"FeatureCollection","name":"inegi-hidalgo-021","metadata":{"state":"Hidalgo","CVE_ENT":"13","CVE_MUN":"021","municipality":"Emiliano Zapata","sources":["INEGI Gaia — Servicio vectorial del Marco Geoestadístico","INEGI DCAH 2025"],"source_urls":["https://gaia.inegi.org.mx/wscatgeo/v2/geo/mgem/13","https://gaia.inegi.org.mx/wscatgeo/v2/geo/localidades/pol/13/021","https://www.inegi.org.mx/contenidos/productos/prod_serv/contenidos/espanol/bvinegi/productos/geografia/delimitaciones/794551163078/13_hidalgo.zip"],"geometry_policy":"Solo se publican polígonos de INEGI; no se generan puntos ni geometrías sintéticas.","locality_polygon_count":7,"settlement_polygon_count":23},"municipality":{"type":"Feature","geometry":{"type":"MultiPolygon","crs":{"type":"name","properties":{"name":"EPSG:6365"}},"coordinates":[[[[-98.61518025,19.72941511],[-98.61397682,19.72914569],[-98.61290308,19.72872495],[-98.61199202,19.72837792],[-98.61116237,19.72787771],[-98.61063442,19.72759963],[-98.60987555,19.72706218],[-98.60931215,19.72651342],[-98.60865737,19.72585689],[-98.60813589,19.72518788],[-98.60810171,19.72507503],[-98.60796874,19.72494812],[-98.60651822,19.72278714],[-98.60506825,19.72039214],[-98.60434515,19.7194034],[-98.60287526,19.71688534],[-98.60214934,19.715733],[-98.60159674,19.71584955],[-98.60085558,19.71597155],[-98.599504,19.71621586],[-98.59850135,19.71633728],[-98.59686806,19.71662926],[-98.5958846,19.71711455],[-98.59474997,19.71773026],[-98.59330954,19.71863382],[-98.59154728,19.71967845],[-98.5905954,19.72013886],[-98.59011409,19.72036577],[-98.58850914,19.72101631],[-98.58678195,19.72216817],[-98.5842294,19.72210682],[-98.58422422,19.72333329],[-98.58412922,19.72353289],[-98.58469365,19.72435857],[-98.58590968,19.72601012],[-98.58621337,19.72654666],[-98.58664751,19.72720717],[-98.58729906,19.72813906],[-98.587143798,19.72808396],[-98.587009969,19.728036467],[-98.586586829,19.7278863],[-98.58582995,19.72761769],[-98.58423846,19.72697045],[-98.58275434,19.72641991],[-98.58085954,19.72566117],[-98.57958577,19.72514529],[-98.578987,19.72488454],[-98.5781266,19.72457795],[-98.57757902,19.72435091],[-98.57717854,19.72418262],[-98.576746,19.72400245],[-98.57627042,19.72380895],[-98.5755672,19.72354789],[-98.5746652,19.72320109],[-98.57349362,19.72277458],[-98.57290442,19.72257711],[-98.57178183,19.7220696],[-98.5706672,19.72165965],[-98.56971203,19.72123494],[-98.56926728,19.72103357],[-98.56958792,19.71881123],[-98.56985157,19.71693174],[-98.5689852,19.71656332],[-98.56749506,19.71595503],[-98.56746102,19.71591495],[-98.56722495,19.71506442],[-98.56735349,19.71414117],[-98.56762905,19.71228366],[-98.56792794,19.71018874],[-98.56803968,19.70937111],[-98.56805046,19.70920697],[-98.56817678,19.7083766],[-98.56841178,19.70651231],[-98.56849922,19.70573731],[-98.56761138,19.70695749],[-98.56465166,19.70603505],[-98.56452771,19.70551498],[-98.56451878,19.70546663],[-98.56516363,19.70342522],[-98.56515745,19.7033748],[-98.56489389,19.70328862],[-98.56459377,19.70319102],[-98.56411094,19.70304003],[-98.56409091,19.70303865],[-98.56425674,19.70168532],[-98.56424643,19.70166815],[-98.56328997,19.70136377],[-98.56288589,19.70117991],[-98.56239611,19.70107966],[-98.56237434,19.70107666],[-98.56252502,19.69987663],[-98.56267278,19.69889815],[-98.56286131,19.69749874],[-98.56284808,19.69748728],[-98.56223177,19.69750134],[-98.56154622,19.69500991],[-98.56127755,19.69478222],[-98.56108282,19.69413518],[-98.56091032,19.69347526],[-98.56060802,19.69248528],[-98.56058209,19.6923848],[-98.56019598,19.69101483],[-98.55999111,19.69018],[-98.55974268,19.68997658],[-98.55947958,19.68974991],[-98.55865491,19.68926746],[-98.55854202,19.68920458],[-98.55847342,19.68914478],[-98.55682222,19.68785535],[-98.55388728,19.68549538],[-98.55221563,19.68423369],[-98.55092055,19.683153],[-98.54814618,19.68083406],[-98.54469315,19.67816017],[-98.54199865,19.67602158],[-98.54199095,19.67576429],[-98.542172,19.67574183],[-98.53967582,19.67289708],[-98.53846546,19.67152851],[-98.53752469,19.67050451],[-98.53630466,19.66914162],[-98.53278471,19.66514769],[-98.52814725,19.66101732],[-98.52809083,19.66093692],[-98.52791312,19.66021578],[-98.52761615,19.65914932],[-98.52733875,19.65806463],[-98.52721534,19.65755126],[-98.527067,19.65700485],[-98.52688326,19.65630242],[-98.52670928,19.65557328],[-98.52668831,19.65547897],[-98.52649466,19.65464978],[-98.52627609,19.65375728],[-98.52608102,19.65295105],[-98.52586985,19.65204712],[-98.52583554,19.65195502],[-98.52565417,19.65124071],[-98.52533775,19.64991352],[-98.52497175,19.64857903],[-98.52465463,19.64719902],[-98.52459338,19.64700452],[-98.52458746,19.64695817],[-98.52490855,19.64662149],[-98.52733206,19.6439048],[-98.52963969,19.64145011],[-98.5309234,19.64016188],[-98.5309276,19.64003443],[-98.53089326,19.63995309],[-98.53098531,19.63983749],[-98.53099491,19.63966575],[-98.53153086,19.63897155],[-98.53207565,19.63823677],[-98.53248915,19.63767078],[-98.53277251,19.63723065],[-98.53317618,19.63677232],[-98.53364034,19.63635352],[-98.53382645,19.6361688],[-98.53462482,19.63544845],[-98.53557578,19.63441888],[-98.53681945,19.63297371],[-98.5412402,19.62792926],[-98.54688008,19.62151295],[-98.55039968,19.61857817],[-98.55031648,19.62050975],[-98.55029386,19.62167305],[-98.55016645,19.62442142],[-98.55016622,19.62454878],[-98.55052255,19.62460085],[-98.55134317,19.62472405],[-98.55177709,19.62479032],[-98.55201545,19.6248264],[-98.55265722,19.62492405],[-98.5536618,19.62507823],[-98.55428765,19.62517274],[-98.55517502,19.62530789],[-98.55561157,19.62537357],[-98.55574043,19.62539206],[-98.55573348,19.62551517],[-98.55571714,19.62606075],[-98.55570855,19.62630526],[-98.55569977,19.62659555],[-98.55568972,19.62695865],[-98.55568128,19.62718151],[-98.55567169,19.62734012],[-98.55565034,19.62765518],[-98.5556322,19.62783569],[-98.55561774,19.62800257],[-98.55561046,19.62810237],[-98.5556932,19.62809005],[-98.55643258,19.6279838],[-98.55679889,19.62792998],[-98.55702618,19.6278962],[-98.55724157,19.62786432],[-98.55738912,19.62784371],[-98.55767771,19.62780289],[-98.55811503,19.62774215],[-98.55961392,19.6275358],[-98.55965138,19.62751889],[-98.56042885,19.62743235],[-98.5608132,19.62740923],[-98.56087008,19.62742549],[-98.56130371,19.62736663],[-98.56360449,19.62715371],[-98.56362682,19.62715165],[-98.56371951,19.62714882],[-98.56357595,19.62915049],[-98.56177991,19.63598208],[-98.56171611,19.63622788],[-98.56171214,19.63625563],[-98.56137569,19.63756375],[-98.56136995,19.6375954],[-98.56167294,19.63778223],[-98.5618646,19.63788828],[-98.56231985,19.63797954],[-98.56547658,19.63975554],[-98.56564529,19.63959834],[-98.56567852,19.63957468],[-98.56638428,19.64025102],[-98.5663578,19.64111966],[-98.56681649,19.64045785],[-98.56716782,19.64049283],[-98.56749545,19.64052278],[-98.5676324,19.64037726],[-98.56790958,19.63991509],[-98.568127,19.63940815],[-98.56836035,19.63917042],[-98.56869165,19.63895965],[-98.56893948,19.63881914],[-98.56904891,19.63875711],[-98.56954958,19.63883706],[-98.57022832,19.63893834],[-98.57072092,19.63886608],[-98.571167,19.63867052],[-98.5714624,19.63845274],[-98.57163017,19.63846278],[-98.5721328,19.63870518],[-98.57293652,19.63890863],[-98.57347218,19.63894012],[-98.57492786,19.63868971],[-98.57528037,19.63853706],[-98.57579443,19.63841848],[-98.57653688,19.63836172],[-98.57702232,19.63822503],[-98.57731792,19.638018],[-98.57758283,19.63793008],[-98.57791378,19.63801965],[-98.57833828,19.6380206],[-98.57922906,19.63777642],[-98.57936883,19.63772388],[-98.57953738,19.63766054],[-98.57993998,19.63741634],[-98.58021606,19.63705846],[-98.5804286,19.63679425],[-98.58091642,19.63651543],[-98.58098309,19.63578391],[-98.58103965,19.63552034],[-98.58163986,19.63485446],[-98.58172726,19.63455372],[-98.58188191,19.63423689],[-98.58251375,19.63373662],[-98.58259526,19.63349645],[-98.58299429,19.63328314],[-98.58329598,19.63293242],[-98.58335811,19.63247718],[-98.58340598,19.63083835],[-98.58349217,19.63055929],[-98.58364208,19.63030511],[-98.58371642,19.63018592],[-98.58377058,19.63006189],[-98.58402238,19.62948542],[-98.58434212,19.62894252],[-98.58457802,19.62863123],[-98.58496772,19.62782168],[-98.5853898,19.627343],[-98.58589046,19.62670063],[-98.58645448,19.62595865],[-98.58646303,19.62594968],[-98.58656717,19.62584063],[-98.58765408,19.62477483],[-98.58836563,19.62432968],[-98.58883834,19.62387254],[-98.58895963,19.62337428],[-98.58911669,19.62323871],[-98.58923809,19.62317558],[-98.58933394,19.62312574],[-98.58961571,19.62294071],[-98.58975729,19.622671],[-98.58980022,19.62238403],[-98.58977395,19.62189278],[-98.58981462,19.62123003],[-98.59002294,19.62032715],[-98.59030483,19.61969035],[-98.59034871,19.61936365],[-98.59067346,19.61924243],[-98.59117242,19.61910129],[-98.59119743,19.61908005],[-98.59145925,19.61885769],[-98.59162149,19.61843029],[-98.59183069,19.61792235],[-98.59249243,19.61735391],[-98.59334745,19.61679374],[-98.5950626,19.61555003],[-98.59524052,19.61520646],[-98.59542057,19.61493915],[-98.59573605,19.61470071],[-98.59609137,19.61450625],[-98.59657395,19.61431895],[-98.59683745,19.61385732],[-98.59694635,19.61370985],[-98.59708472,19.61352248],[-98.59757795,19.61300832],[-98.597800479,19.61276535],[-98.59834074,19.61266934],[-98.59870309,19.61255837],[-98.59892269,19.61223472],[-98.59939508,19.61193942],[-98.59986992,19.61166314],[-98.60031778,19.6114092],[-98.60045197,19.6110386],[-98.60055789,19.61051454],[-98.60056197,19.61049674],[-98.6006646,19.61025769],[-98.60097808,19.60926526],[-98.60084689,19.60881811],[-98.60076545,19.60845485],[-98.60083946,19.60828495],[-98.60125486,19.60790295],[-98.60203698,19.60720975],[-98.60271595,19.60661272],[-98.60325171,19.60619746],[-98.60381871,19.60556129],[-98.60406125,19.60535974],[-98.60441678,19.60525169],[-98.60512635,19.60511197],[-98.60573857,19.60499754],[-98.60646605,19.60452865],[-98.60772578,19.60351029],[-98.60830266,19.60302477],[-98.60862629,19.6026222],[-98.60902072,19.60235877],[-98.60983608,19.60201431],[-98.61086012,19.60182945],[-98.61244223,19.60140477],[-98.61336775,19.60106514],[-98.6140612,19.60104969],[-98.61509577,19.60112328],[-98.61583572,19.60122905],[-98.61605558,19.60122071],[-98.61644257,19.60132223],[-98.61829668,19.60139914],[-98.61974075,19.60125531],[-98.62032195,19.60099192],[-98.62103045,19.6006726],[-98.62182105,19.60038925],[-98.62228755,19.60039365],[-98.62270778,19.60053857],[-98.62274162,19.60054718],[-98.62333991,19.60069942],[-98.62418195,19.60060869],[-98.62472114,19.60046891],[-98.62526334,19.60039212],[-98.62591689,19.60033222],[-98.62676311,19.60042388],[-98.62716358,19.60056854],[-98.62747457,19.60078218],[-98.62788769,19.60097371],[-98.62829666,19.60101357],[-98.62847894,19.60118842],[-98.62863831,19.60128034],[-98.6289396,19.60145528],[-98.62921575,19.60157988],[-98.62950314,19.60166134],[-98.62977143,19.60167542],[-98.62992863,19.60165083],[-98.63024443,19.60165786],[-98.63047317,19.60176231],[-98.63078991,19.60197638],[-98.6310138,19.60199317],[-98.63141502,19.60173712],[-98.63181652,19.60151158],[-98.63207671,19.60142345],[-98.63217714,19.6013502],[-98.63252589,19.60087105],[-98.63282222,19.60029334],[-98.63301235,19.59966602],[-98.63335438,19.59893851],[-98.63348446,19.59826145],[-98.63363569,19.59789138],[-98.63405103,19.59792426],[-98.63468663,19.59775811],[-98.63512046,19.59787755],[-98.63556218,19.5981946],[-98.63603749,19.59843269],[-98.63639585,19.59870214],[-98.6369056,19.59886106],[-98.63801482,19.5987884],[-98.63830192,19.59894118],[-98.63862191,19.59936195],[-98.63929097,19.59985494],[-98.63962946,19.60043663],[-98.64024097,19.60122518],[-98.64029382,19.60148322],[-98.64047597,19.60179534],[-98.64068198,19.60205249],[-98.64075985,19.60227132],[-98.64078166,19.6025534],[-98.64089149,19.60276931],[-98.64103405,19.60297349],[-98.64113903,19.60326574],[-98.64113311,19.60350535],[-98.64110357,19.60388908],[-98.64127249,19.60424738],[-98.64160514,19.60443711],[-98.64178526,19.60485509],[-98.64187282,19.60511086],[-98.64198714,19.60536725],[-98.64233658,19.60562074],[-98.64297585,19.60578591],[-98.64350411,19.60568025],[-98.64378248,19.60574471],[-98.64415666,19.60604129],[-98.64438148,19.60655872],[-98.64470088,19.60696523],[-98.64545966,19.60736605],[-98.64590929,19.60753017],[-98.64653029,19.60760394],[-98.64692717,19.60774466],[-98.646970106,19.607753343],[-98.646970143,19.60775335],[-98.647331819,19.60782645],[-98.64765943,19.60780355],[-98.64788837,19.607626431],[-98.648218819,19.60760772],[-98.64865478,19.607302091],[-98.648965349,19.607196171],[-98.64925954,19.606926221],[-98.649619349,19.60674694],[-98.64964569,19.60644095],[-98.650119849,19.606531691],[-98.650559119,19.606816491],[-98.65074862,19.606920281],[-98.65097637,19.60701485],[-98.65106792,19.60701242],[-98.65110005,19.60706829],[-98.65112212,19.60718709],[-98.65135711,19.60736131],[-98.65177394,19.60753885],[-98.65218722,19.60780483],[-98.65229842,19.60774358],[-98.65241808,19.60763346],[-98.65259377,19.60742958],[-98.65275566,19.60737885],[-98.65293037,19.60743655],[-98.65317757,19.60770766],[-98.65330848,19.60783408],[-98.65365654,19.60780428],[-98.65377454,19.60765066],[-98.653933,19.6075432],[-98.65435185,19.60755932],[-98.65487518,19.60764523],[-98.65520705,19.60755634],[-98.65534,19.60729235],[-98.65548075,19.60693654],[-98.65560057,19.606967],[-98.65572968,19.60698925],[-98.65651854,19.60681928],[-98.65704929,19.60669005],[-98.65684992,19.6064974],[-98.65701785,19.6064856],[-98.65717631,19.60634485],[-98.65772398,19.60555558],[-98.6601342,19.60531138],[-98.66046723,19.60536409],[-98.66098549,19.60542345],[-98.66148531,19.60557086],[-98.66225195,19.60570202],[-98.66246549,19.60576495],[-98.66278905,19.60562892],[-98.66289269,19.60553335],[-98.66312935,19.60491391],[-98.66314562,19.60475422],[-98.66368785,19.60508391],[-98.66427326,19.60547966],[-98.66557709,19.60615374],[-98.66550042,19.60619791],[-98.66487285,19.60690883],[-98.66476303,19.60701615],[-98.66471018,19.60697249],[-98.66426977,19.60742922],[-98.66284934,19.60894477],[-98.662691,19.60909811],[-98.6617466,19.610113],[-98.66193165,19.61169255],[-98.66313177,19.6129916],[-98.66381542,19.61355091],[-98.66343938,19.61378291],[-98.66413778,19.61473083],[-98.66382605,19.61505332],[-98.66440965,19.61557855],[-98.66467429,19.61585466],[-98.6649836,19.61643135],[-98.66574514,19.6171128],[-98.66637942,19.61739638],[-98.66662589,19.61750754],[-98.66684442,19.61763672],[-98.66717991,19.61796268],[-98.66792212,19.61816286],[-98.66867649,19.61917529],[-98.66898172,19.62000157],[-98.66901685,19.62064326],[-98.66912454,19.62133703],[-98.66913195,19.62148842],[-98.66962323,19.62198185],[-98.6699124,19.62238663],[-98.67013217,19.62328365],[-98.67009478,19.62341506],[-98.67054911,19.62482792],[-98.67081692,19.62500914],[-98.67139117,19.62491982],[-98.67160888,19.62516423],[-98.67239572,19.62514757],[-98.67198754,19.62566194],[-98.67181551,19.62572054],[-98.67221314,19.62631572],[-98.67197383,19.62665282],[-98.67203888,19.62802068],[-98.67210777,19.62837694],[-98.67215542,19.62858425],[-98.67271637,19.6300648],[-98.67265929,19.63022717],[-98.67261592,19.63143949],[-98.67148162,19.63312734],[-98.67152885,19.63372494],[-98.67163692,19.63456703],[-98.67171615,19.63514382],[-98.67169709,19.63564922],[-98.67181726,19.63616934],[-98.67203665,19.63672948],[-98.6704516,19.6387514],[-98.66927277,19.64048822],[-98.66902977,19.6411256],[-98.66941026,19.64218805],[-98.6694582,19.64230625],[-98.6693804,19.64266197],[-98.66887415,19.64314994],[-98.66855085,19.64335883],[-98.66834097,19.64342738],[-98.66814223,19.64368086],[-98.6676314,19.64435562],[-98.66772706,19.64463585],[-98.6694498,19.64705677],[-98.66982352,19.64854628],[-98.67001452,19.64988635],[-98.66987522,19.65009395],[-98.67041423,19.65122229],[-98.6707558,19.65328334],[-98.67073085,19.65385518],[-98.67069542,19.65455174],[-98.67033526,19.65559003],[-98.67024514,19.65733751],[-98.67005482,19.65867614],[-98.66822857,19.65850431],[-98.66847183,19.65877362],[-98.66866434,19.65910155],[-98.66863606,19.6592122],[-98.6676418,19.65999431],[-98.66714145,19.66037294],[-98.66694425,19.6605714],[-98.66739855,19.66086594],[-98.66777774,19.66133594],[-98.66709345,19.66191688],[-98.66643598,19.66226788],[-98.66579145,19.66187185],[-98.66670803,19.66090306],[-98.66620898,19.66064909],[-98.6660056,19.66037309],[-98.66549589,19.65978928],[-98.6651716,19.66035348],[-98.66553026,19.66074046],[-98.66536249,19.66160829],[-98.66511897,19.66145866],[-98.66474334,19.66072962],[-98.664681,19.66040532],[-98.66461662,19.66007043],[-98.66468851,19.65931638],[-98.66481022,19.65858572],[-98.66475734,19.65771429],[-98.66435702,19.65703245],[-98.66355951,19.65654032],[-98.66288685,19.65618914],[-98.66248763,19.65581352],[-98.66203817,19.65529672],[-98.66121574,19.65478112],[-98.65994888,19.65441462],[-98.65996182,19.65431891],[-98.65975969,19.65433008],[-98.65945291,19.65413617],[-98.65812102,19.65396742],[-98.6580758,19.65374934],[-98.65797949,19.65374529],[-98.65554583,19.65047226],[-98.65481234,19.65118352],[-98.65310666,19.654315],[-98.65293322,19.65421866],[-98.65225968,19.65360831],[-98.65195988,19.6532088],[-98.65194188,19.65316323],[-98.65133511,19.65330655],[-98.65096609,19.65343883],[-98.65070294,19.65333858],[-98.65058072,19.65302248],[-98.65063418,19.65265683],[-98.650565,19.65217458],[-98.65030189,19.65205769],[-98.64992515,19.65187772],[-98.64970106,19.65167811],[-98.64944558,19.65142472],[-98.64926245,19.65127025],[-98.64891838,19.65098051],[-98.64854838,19.65100692],[-98.64817957,19.65105608],[-98.64791605,19.65112206],[-98.6476538,19.65100969],[-98.64756522,19.65097175],[-98.64733752,19.65072194],[-98.64716031,19.65054703],[-98.64678794,19.65032554],[-98.6464444,19.65014917],[-98.64564906,19.64973235],[-98.64487443,19.64928595],[-98.64456808,19.64926752],[-98.64418658,19.64883089],[-98.64381414,19.6488378],[-98.64355415,19.64918591],[-98.64290449,19.64920125],[-98.64194088,19.64949015],[-98.64160846,19.64949043],[-98.64143437,19.6498016],[-98.64149003,19.64999697],[-98.64125178,19.65022868],[-98.64104068,19.65041112],[-98.64095242,19.65062708],[-98.64082898,19.65085957],[-98.64067048,19.65107537],[-98.64042382,19.65145725],[-98.64007218,19.65167266],[-98.63972069,19.65182158],[-98.63962209,19.65197362],[-98.63973577,19.6519752],[-98.63932032,19.65282451],[-98.63929682,19.65293458],[-98.63923342,19.65300215],[-98.6389776,19.65352511],[-98.63876891,19.6533984],[-98.63870832,19.65341434],[-98.63849378,19.65353982],[-98.63829346,19.65370446],[-98.63810889,19.65407837],[-98.63782155,19.65427483],[-98.63737602,19.65417274],[-98.63697971,19.65424372],[-98.63699118,19.65422494],[-98.63650705,19.65426502],[-98.63630454,19.65452285],[-98.63619525,19.65467042],[-98.6358094,19.65505942],[-98.63564525,19.65522809],[-98.63518237,19.65543005],[-98.63494914,19.65553786],[-98.63454052,19.65552583],[-98.63403138,19.65551451],[-98.63319983,19.65550558],[-98.63297785,19.65553003],[-98.63269095,19.65572417],[-98.63205363,19.65593642],[-98.63162823,19.65597565],[-98.6311386,19.6561192],[-98.63070955,19.65624794],[-98.63034023,19.65640808],[-98.62949489,19.65673603],[-98.62937502,19.65667694],[-98.62919705,19.65646243],[-98.62888492,19.65607938],[-98.62876955,19.65605891],[-98.62842189,19.6562504],[-98.62818448,19.65657391],[-98.62773077,19.65643609],[-98.62750185,19.65612478],[-98.62743626,19.65604548],[-98.62674863,19.65580654],[-98.62636689,19.65567715],[-98.62548729,19.65559777],[-98.62511351,19.65556003],[-98.62484388,19.65572469],[-98.62477348,19.65576474],[-98.62444871,19.65583783],[-98.62430646,19.65613292],[-98.62313749,19.65678146],[-98.62222085,19.65765972],[-98.62219129,19.65799117],[-98.62234502,19.65837195],[-98.62205675,19.65908088],[-98.62132372,19.66035582],[-98.62118517,19.66059688],[-98.62087012,19.66086249],[-98.62054568,19.66102462],[-98.61990051,19.66107166],[-98.61967057,19.66116392],[-98.61969234,19.66117251],[-98.62026937,19.66140026],[-98.62042275,19.66145875],[-98.62066346,19.66150766],[-98.62120106,19.66176425],[-98.6219504,19.66256662],[-98.62208702,19.66269808],[-98.62281752,19.66314266],[-98.62332063,19.66345108],[-98.62371605,19.66353192],[-98.62442555,19.66367582],[-98.62460011,19.66371011],[-98.62506603,19.66310986],[-98.62593618,19.66308785],[-98.62751145,19.66346755],[-98.62791537,19.66353508],[-98.62791185,19.66356025],[-98.62776212,19.66514086],[-98.62866452,19.66529457],[-98.63014505,19.66669771],[-98.63002717,19.66731031],[-98.63093738,19.66723183],[-98.6310598,19.66736431],[-98.63143008,19.66756162],[-98.63178597,19.66756235],[-98.63191937,19.66759069],[-98.63209671,19.66785782],[-98.63212665,19.6678678],[-98.63239306,19.66795669],[-98.63292642,19.66816837],[-98.63304431,19.66849151],[-98.63322203,19.66859015],[-98.63407925,19.66807271],[-98.63428055,19.66820629],[-98.63451974,19.66858728],[-98.63477028,19.66927572],[-98.63494666,19.669964],[-98.63519777,19.67039974],[-98.63525655,19.67063852],[-98.63549352,19.67076535],[-98.63567195,19.67055512],[-98.63580602,19.67028866],[-98.63619209,19.6700648],[-98.63714566,19.66946212],[-98.63758835,19.66902872],[-98.63792955,19.66897325],[-98.6383734,19.66922245],[-98.63871666,19.66981892],[-98.63887112,19.67035768],[-98.63920117,19.67061842],[-98.63961594,19.6708158],[-98.63989709,19.67108311],[-98.63970372,19.67134946],[-98.63946592,19.67158765],[-98.63949412,19.67223352],[-98.63931495,19.67278069],[-98.6390176,19.67311705],[-98.63846671,19.67369045],[-98.63814078,19.67395763],[-98.63779923,19.67416754],[-98.63721998,19.67455948],[-98.63701168,19.67486791],[-98.63615118,19.67503465],[-98.63543429,19.67502674],[-98.63497432,19.67513812],[-98.6345892,19.67494078],[-98.63415988,19.67461702],[-98.63352268,19.67440512],[-98.63284114,19.67413698],[-98.63254446,19.67417849],[-98.63223711,19.67452635],[-98.63204725,19.67515203],[-98.63221423,19.67591869],[-98.632228,19.67638202],[-98.63200497,19.67663428],[-98.63135215,19.67700668],[-98.63108528,19.67744325],[-98.63101862,19.67771574],[-98.63074058,19.67799629],[-98.63034909,19.67834295],[-98.63010694,19.67902574],[-98.63004992,19.67967385],[-98.62989414,19.68068478],[-98.62992998,19.68119294],[-98.62989205,19.68159582],[-98.62983418,19.68261185],[-98.62955762,19.6840184],[-98.62924303,19.68498808],[-98.62927223,19.68553651],[-98.62940017,19.68623757],[-98.62946366,19.68681525],[-98.62937254,19.6872758],[-98.62905672,19.68795789],[-98.62861569,19.6887952],[-98.62772463,19.68933025],[-98.62655686,19.69009869],[-98.62603446,19.69048334],[-98.62553545,19.69090068],[-98.62511028,19.69137463],[-98.62520146,19.69195298],[-98.62531109,19.6925664],[-98.62523966,19.69277174],[-98.62520745,19.69306577],[-98.62521822,19.69412082],[-98.62517695,19.69452835],[-98.6250664,19.69507312],[-98.62484429,19.69568205],[-98.62406929,19.69613312],[-98.6239154,19.69640805],[-98.62402012,19.6968934],[-98.62438831,19.69715768],[-98.624455,19.69736306],[-98.62513777,19.69800431],[-98.62731363,19.70003237],[-98.62682142,19.70086174],[-98.62901538,19.70268975],[-98.62994262,19.70346223],[-98.62971377,19.70356798],[-98.62991837,19.70411402],[-98.63079325,19.70470442],[-98.63073518,19.70537314],[-98.63088966,19.70602994],[-98.6309006,19.70708675],[-98.63084745,19.70718469],[-98.63010174,19.70774555],[-98.62996495,19.70784466],[-98.62994931,19.70791691],[-98.62947202,19.70961475],[-98.62943357,19.70972085],[-98.629733,19.70972603],[-98.62999586,19.70999774],[-98.62999565,19.7100836],[-98.63018089,19.71018795],[-98.63021709,19.71024902],[-98.63045965,19.71032863],[-98.63062723,19.71054817],[-98.63083975,19.71072712],[-98.63084965,19.71081977],[-98.63096511,19.71089911],[-98.63099417,19.71098955],[-98.63120085,19.71110297],[-98.63118342,19.71135595],[-98.63117975,19.71140791],[-98.63127857,19.71146235],[-98.63142971,19.71138815],[-98.63149777,19.71157355],[-98.63142735,19.71160954],[-98.63154828,19.7116708],[-98.63164429,19.71166877],[-98.6318818,19.71185683],[-98.63189068,19.71211891],[-98.63211968,19.71235212],[-98.63225792,19.71239988],[-98.63224723,19.71263255],[-98.63242649,19.71295151],[-98.63237242,19.71313891],[-98.63247574,19.71329275],[-98.63233374,19.71379172],[-98.6301312,19.71571645],[-98.63002635,19.71610445],[-98.63028689,19.71685285],[-98.63346158,19.71496452],[-98.63345968,19.71599022],[-98.63085374,19.7177194],[-98.63145912,19.71866512],[-98.63169174,19.71913105],[-98.63179237,19.71964637],[-98.63180414,19.72019765],[-98.63201308,19.72083069],[-98.63225095,19.72133277],[-98.63252683,19.72167906],[-98.63264825,19.72182165],[-98.63279529,19.72216538],[-98.63292434,19.72223586],[-98.63280652,19.72232597],[-98.63256943,19.72249208],[-98.63225372,19.72265974],[-98.63198975,19.72291225],[-98.63181112,19.72298106],[-98.63165745,19.722974],[-98.63154762,19.72274957],[-98.63163222,19.72228565],[-98.63156543,19.72218837],[-98.63161598,19.72198951],[-98.63158625,19.72166322],[-98.63152475,19.72148023],[-98.63118932,19.72136428],[-98.63064368,19.72132237],[-98.62920114,19.72264525],[-98.62876531,19.72257197],[-98.62857557,19.72235917],[-98.62839437,19.72231358],[-98.62819225,19.72227697],[-98.6278928,19.72182218],[-98.62763637,19.7218216],[-98.62734906,19.72222986],[-98.62735218,19.72238575],[-98.62751583,19.72276794],[-98.62744554,19.72297562],[-98.62750709,19.72339371],[-98.62746926,19.7237438],[-98.6275152,19.72395402],[-98.62668314,19.72444011],[-98.62621426,19.7247124],[-98.62630042,19.72483234],[-98.62626752,19.72485937],[-98.62693238,19.72564709],[-98.62574243,19.72660905],[-98.62470305,19.72742449],[-98.62446149,19.72649542],[-98.62377969,19.72557434],[-98.62317971,19.72602255],[-98.62290885,19.72629754],[-98.62149452,19.72704658],[-98.62128378,19.72712518],[-98.62123622,19.72706632],[-98.62099534,19.72677208],[-98.61980805,19.726932],[-98.61907177,19.72726689],[-98.61622635,19.72854122],[-98.61598452,19.72930878],[-98.61589903,19.72948295],[-98.61518025,19.72941511]]]]},"properties":{"municipality":"Emiliano Zapata","official_key":"13021","CVE_ENT":"13","CVE_MUN":"021","geometry_kind":"municipality","source":"INEGI Gaia — Servicio vectorial del Marco Geoestadístico"}},"features":[{"type":"Feature","geometry":{"type":"MultiPolygon","crs":{"type":"name","properties":{"name":"EPSG:6365"}},"coordinates":[[[[-98.54475783,19.66428026],[-98.54453777,19.6636636],[-98.54436495,19.66318965],[-98.54427645,19.66293608],[-98.54407411,19.66238569],[-98.54386651,19.66181029],[-98.54370072,19.66136515],[-98.543322,19.661496291],[-98.542814141,19.661663736],[-98.54180555,19.66199318],[-98.541497509,19.66209649],[-98.54122482,19.66218868],[-98.54095962,19.66227346],[-98.54069315,19.662361231],[-98.54043245,19.662449351],[-98.539938349,19.6626147],[-98.5399272,19.66261843],[-98.53953215,19.662754051],[-98.539019779,19.66291934],[-98.538215143,19.663196053],[-98.538149671,19.663218569],[-98.537367645,19.6634875],[-98.5362952,19.663856296],[-98.535875605,19.66288842],[-98.536956253,19.662527091],[-98.537847273,19.66222916],[-98.53839861,19.662005374],[-98.53830789,19.661861911],[-98.538140079,19.66161948],[-98.53796209,19.661367981],[-98.537456179,19.660587681],[-98.540128402,19.659602842],[-98.53985182,19.65922094],[-98.539571242,19.658860926],[-98.539179639,19.65814863],[-98.538001659,19.65850754],[-98.538926864,19.657905977],[-98.538612059,19.65746182],[-98.538372799,19.657123021],[-98.538661045,19.656908666],[-98.538077364,19.656176028],[-98.5380725,19.656169923],[-98.538304734,19.656016671],[-98.539000119,19.65556992],[-98.539221112,19.655411099],[-98.538634761,19.654678891],[-98.538217739,19.65496717],[-98.53776674,19.655274821],[-98.537012489,19.655791371],[-98.536431429,19.656193321],[-98.535898969,19.6554746],[-98.53633003,19.65517648],[-98.53667786,19.65492966],[-98.5369612,19.654734981],[-98.537203179,19.65456782],[-98.53755783,19.65432372],[-98.53778849,19.654162631],[-98.53807037,19.653959621],[-98.53831878,19.653787851],[-98.53876578,19.653480831],[-98.53911,19.653248201],[-98.538899679,19.65293755],[-98.53873606,19.652708881],[-98.538564342,19.652470256],[-98.538503663,19.652385934],[-98.538494832,19.652373663],[-98.53847351,19.652344033],[-98.538469208,19.652338055],[-98.538446498,19.652306498],[-98.538436132,19.652292092],[-98.538417707,19.652266489],[-98.538417442,19.652266122],[-98.538401793,19.652244376],[-98.538389362,19.652227099],[-98.538364622,19.652192719],[-98.538354089,19.652178083],[-98.538345141,19.65216565],[-98.538322155,19.652133709],[-98.538315169,19.652124],[-98.538292625,19.652093296],[-98.53827541,19.652069851],[-98.538247727,19.652032149],[-98.538229609,19.652007474],[-98.53820665,19.651976206],[-98.53819758,19.651963853],[-98.53814012,19.651885596],[-98.538135842,19.651879771],[-98.538110569,19.65184535],[-98.538110543,19.65184532],[-98.538093807,19.65182785],[-98.538073379,19.651806521],[-98.538022572,19.651730795],[-98.538365369,19.651496581],[-98.5376364,19.65027414],[-98.536963157,19.649060175],[-98.536469939,19.648170809],[-98.536493837,19.648152437],[-98.536911313,19.647831478],[-98.537953501,19.649634221],[-98.538345104,19.649416984],[-98.537693979,19.64830365],[-98.538531979,19.647823511],[-98.537997709,19.64688975],[-98.53873732,19.646218481],[-98.539476919,19.645547221],[-98.54025483,19.64484754],[-98.54043443,19.64504091],[-98.54063489,19.64497346],[-98.54089198,19.64492046],[-98.54111882,19.64488528],[-98.54123969,19.64489631],[-98.54148512,19.64495774],[-98.54163249,19.64496171],[-98.54186711,19.64484068],[-98.54207558,19.64460872],[-98.54224426,19.64444675],[-98.54233955,19.64450546],[-98.54260126,19.64462838],[-98.54266478,19.64466929],[-98.54276266,19.64472272],[-98.54288362,19.64479098],[-98.54295978,19.64482942],[-98.54314752,19.64508472],[-98.54339257,19.64516968],[-98.54427171,19.64642018],[-98.54447146,19.64669725],[-98.54485835,19.64722622],[-98.54494105,19.64720688],[-98.545369933,19.647730459],[-98.54540202,19.64776963],[-98.54638714,19.64895102],[-98.54710906,19.64980543],[-98.54735385,19.65009662],[-98.54737463,19.65025922],[-98.54765683,19.65057448],[-98.54795335,19.6509164],[-98.54809563,19.65108991],[-98.54829626,19.65131789],[-98.54852906,19.65158929],[-98.54878882,19.65190029],[-98.5493182,19.65252863],[-98.54977271,19.65303469],[-98.55002598,19.65330725],[-98.5502918,19.65358311],[-98.55051797,19.65380591],[-98.55067229,19.65395528],[-98.55076009,19.65404642],[-98.55103685,19.65437478],[-98.55139475,19.65476942],[-98.55166742,19.65508294],[-98.55203085,19.65554771],[-98.55216051,19.65568625],[-98.55270788,19.65596609],[-98.55358811,19.65641977],[-98.55393605,19.65661385],[-98.55397083,19.65664689],[-98.55401545,19.65671298],[-98.55410975,19.65681689],[-98.55424888,19.65691148],[-98.55448758,19.65700631],[-98.55509428,19.65725755],[-98.55594963,19.65759894],[-98.55625662,19.65771302],[-98.55578449,19.65781185],[-98.55499174,19.65798318],[-98.55368942,19.65827766],[-98.55309446,19.65841391],[-98.55188135,19.65865835],[-98.55113102,19.65880918],[-98.55127782,19.65918438],[-98.55140251,19.65952132],[-98.551441,19.65972305],[-98.55137811,19.66001374],[-98.55131048,19.66026174],[-98.55118151,19.66049375],[-98.55102043,19.66070738],[-98.55081678,19.66085651],[-98.55057706,19.6609756],[-98.55032388,19.66106474],[-98.55004794,19.66121794],[-98.54993746,19.6613124],[-98.54986988,19.66137018],[-98.54969592,19.66159423],[-98.5494684,19.66198294],[-98.54934515,19.66219498],[-98.54931694,19.66226228],[-98.54931452,19.66235005],[-98.54932282,19.66247051],[-98.54936771,19.66279882],[-98.54940337,19.6628892],[-98.54953468,19.66319751],[-98.54962729,19.66344125],[-98.549656217,19.663516554],[-98.54967249,19.663558911],[-98.54934251,19.66370397],[-98.5494948,19.66394406],[-98.54971835,19.6643034],[-98.54983949,19.66451146],[-98.54972945,19.664454571],[-98.549672829,19.66443058],[-98.548870849,19.664112711],[-98.54847915,19.663939111],[-98.548317169,19.66387252],[-98.548097949,19.663808751],[-98.548009289,19.663786681],[-98.547255799,19.66439282],[-98.54661845,19.66489795],[-98.54613772,19.665261521],[-98.545468014,19.665847329],[-98.54535489,19.66594628],[-98.5450766,19.66517285],[-98.54499625,19.66493669],[-98.54490331,19.66468225],[-98.54475783,19.66428026]]]]},"properties":{"locality":"Emiliano Zapata","municipality":null,"official_key":"130210001","CVE_ENT":"13","CVE_MUN":"021","CVE_LOC":"0001","ambito":"URBANO","geometry_kind":"locality","source":"INEGI Gaia — Servicio vectorial del Marco Geoestadístico"}},{"type":"Feature","geometry":{"type":"MultiPolygon","crs":{"type":"name","properties":{"name":"EPSG:6365"}},"coordinates":[[[[-98.569495946,19.671693576],[-98.569341864,19.671565062],[-98.569236063,19.67147696],[-98.569078926,19.672303218],[-98.568243972,19.672155649],[-98.567960607,19.672091969],[-98.567202017,19.671974254],[-98.566962196,19.671935603],[-98.566734997,19.671840507],[-98.566573117,19.671686881],[-98.566679934,19.671352451],[-98.566733104,19.670997814],[-98.566061505,19.670863579],[-98.566039987,19.670807067],[-98.565841197,19.670284964],[-98.56567563,19.66983381],[-98.565616263,19.669364597],[-98.565348649,19.669326088],[-98.565256323,19.668871685],[-98.565311982,19.668538567],[-98.565478417,19.668450713],[-98.567007414,19.668731612],[-98.566985185,19.668152874],[-98.56691783,19.66709406],[-98.566857025,19.666102268],[-98.56684781,19.665842853],[-98.565907867,19.665545548],[-98.56593575,19.664706471],[-98.565481286,19.664581741],[-98.565022305,19.66443715],[-98.564577074,19.664297555],[-98.564075233,19.664139355],[-98.564051129,19.663166058],[-98.564070768,19.6624409],[-98.56447941,19.662550293],[-98.564906826,19.662677366],[-98.565364691,19.662815326],[-98.565819084,19.662964957],[-98.565805187,19.662761579],[-98.566664593,19.662782393],[-98.56662568,19.66208495],[-98.56657718,19.66152009],[-98.566567151,19.66148359],[-98.567236126,19.661697084],[-98.568042044,19.661962698],[-98.568727076,19.662209993],[-98.569108321,19.662326728],[-98.570317274,19.662700368],[-98.571692114,19.663137108],[-98.572419784,19.663352854],[-98.573076173,19.663575399],[-98.57365579,19.663722854],[-98.574309072,19.663776319],[-98.575059801,19.663882854],[-98.575141135,19.664279847],[-98.575093711,19.664512444],[-98.574926267,19.664748378],[-98.574678404,19.664963889],[-98.574266755,19.665191913],[-98.573998379,19.665369597],[-98.573912535,19.665499223],[-98.573769331,19.665684167],[-98.57339134,19.666094559],[-98.5728805,19.666654986],[-98.572847095,19.666841601],[-98.572321642,19.667396902],[-98.571996634,19.66773446],[-98.571582949,19.66799756],[-98.570451075,19.668168172],[-98.570365941,19.668631533],[-98.570173519,19.669003968],[-98.570078353,19.669162872],[-98.569957758,19.669303881],[-98.569935196,19.669428618],[-98.569950183,19.669533149],[-98.570096569,19.669712692],[-98.570130302,19.669892235],[-98.570037665,19.670155159],[-98.569853831,19.670276646],[-98.569644405,19.6703221],[-98.56960664,19.670448376],[-98.569536474,19.670635262],[-98.569524887,19.670837286],[-98.569560722,19.671074641],[-98.569568019,19.671276574],[-98.569645821,19.671402779],[-98.569611936,19.67164305],[-98.569495946,19.671693576]]]]},"properties":{"locality":"Santa Bárbara","municipality":null,"official_key":"130210005","CVE_ENT":"13","CVE_MUN":"021","CVE_LOC":"0005","ambito":"RURAL","geometry_kind":"locality","source":"INEGI Gaia — Servicio vectorial del Marco Geoestadístico"}},{"type":"Feature","geometry":{"type":"MultiPolygon","crs":{"type":"name","properties":{"name":"EPSG:6365"}},"coordinates":[[[[-98.574114955,19.700208337],[-98.57291547,19.699530599],[-98.572293695,19.698973311],[-98.573347408,19.698931405],[-98.573707014,19.698850426],[-98.574329667,19.69871877],[-98.576164689,19.698689604],[-98.576514949,19.697772021],[-98.576796319,19.69697112],[-98.576844769,19.696798601],[-98.577910298,19.697115515],[-98.578033264,19.696794708],[-98.578084772,19.696556531],[-98.578007219,19.69628277],[-98.57777446,19.695621421],[-98.577215607,19.694644773],[-98.577748462,19.694384186],[-98.577671411,19.694152799],[-98.577641727,19.693873052],[-98.577614727,19.693446836],[-98.57757101,19.69300037],[-98.578076116,19.693009789],[-98.578410847,19.693064158],[-98.578345929,19.693818043],[-98.578422985,19.694391794],[-98.578542956,19.694682709],[-98.578689925,19.695207748],[-98.578698846,19.69522321],[-98.578707767,19.695243725],[-98.579012432,19.695624187],[-98.579324533,19.695777106],[-98.579474806,19.695492455],[-98.580066649,19.695606457],[-98.58058723,19.695722879],[-98.581700631,19.696013111],[-98.582204123,19.69461245],[-98.582210831,19.694572327],[-98.582222904,19.694539778],[-98.582401192,19.693986566],[-98.583286883,19.694235557],[-98.583344917,19.694262269],[-98.583829016,19.694402725],[-98.583914215,19.694182533],[-98.584916031,19.69446515],[-98.585011258,19.694015427],[-98.585689455,19.69421979],[-98.585545022,19.694798392],[-98.584950751,19.694596957],[-98.584568343,19.694478589],[-98.584055909,19.695884627],[-98.584730102,19.696104699],[-98.585120843,19.696209684],[-98.585415024,19.696425781],[-98.585831833,19.696397011],[-98.585320237,19.696869006],[-98.585173421,19.697209685],[-98.585156416,19.697489382],[-98.585718769,19.697430692],[-98.585722646,19.697744763],[-98.586059116,19.697957823],[-98.586292173,19.698091013],[-98.58618966,19.698690726],[-98.586424517,19.698667934],[-98.586497264,19.698713256],[-98.586555698,19.698852233],[-98.586584913,19.699199497],[-98.586755089,19.699342826],[-98.586824085,19.699550853],[-98.586354328,19.699548807],[-98.585830926,19.699597265],[-98.585299919,19.69965378],[-98.585058369,19.69967972],[-98.584201,19.699933851],[-98.58349777,19.70021749],[-98.582994539,19.700425521],[-98.581896799,19.70086711],[-98.581855459,19.700885751],[-98.581242949,19.701161891],[-98.581014249,19.701255321],[-98.580848449,19.70132306],[-98.580586859,19.701423061],[-98.58027645,19.701501971],[-98.57976057,19.70154471],[-98.579742449,19.701546221],[-98.579074147,19.701578262],[-98.578616007,19.701560053],[-98.578190438,19.701499239],[-98.577602629,19.701380015],[-98.577077247,19.70123418],[-98.576668672,19.700991379],[-98.576328438,19.701459284],[-98.575385064,19.700926758],[-98.574114955,19.700208337]]]]},"properties":{"locality":"Santa Clara","municipality":null,"official_key":"130210006","CVE_ENT":"13","CVE_MUN":"021","CVE_LOC":"0006","ambito":"RURAL","geometry_kind":"locality","source":"INEGI Gaia — Servicio vectorial del Marco Geoestadístico"}},{"type":"Feature","geometry":{"type":"MultiPolygon","crs":{"type":"name","properties":{"name":"EPSG:6365"}},"coordinates":[[[[-98.576076308,19.683999487],[-98.574562078,19.684257987],[-98.573976605,19.681513092],[-98.575465035,19.681252973],[-98.574857539,19.680326885],[-98.577358892,19.680252221],[-98.578363332,19.680259676],[-98.57842853,19.680259366],[-98.579484559,19.680239332],[-98.5794911,19.680864347],[-98.579831599,19.68101237],[-98.57989617,19.681084941],[-98.57998414,19.68121605],[-98.57999342,19.68123188],[-98.580354474,19.681799549],[-98.5806297,19.682003543],[-98.581660782,19.682570586],[-98.582678382,19.683398806],[-98.582948129,19.684951943],[-98.581296379,19.685192005],[-98.580899602,19.685265046],[-98.580543198,19.685332827],[-98.580839913,19.687079503],[-98.579146427,19.685598672],[-98.577883768,19.685829161],[-98.576566123,19.6860546],[-98.575302122,19.686239632],[-98.576076308,19.683999487]]]]},"properties":{"locality":"José María Morelos (San José)","municipality":null,"official_key":"130210011","CVE_ENT":"13","CVE_MUN":"021","CVE_LOC":"0011","ambito":"RURAL","geometry_kind":"locality","source":"INEGI Gaia — Servicio vectorial del Marco Geoestadístico"}},{"type":"Feature","geometry":{"type":"MultiPolygon","crs":{"type":"name","properties":{"name":"EPSG:6365"}},"coordinates":[[[[-98.539974375,19.662633619],[-98.540176094,19.663152939],[-98.540297831,19.663466348],[-98.540468861,19.663906657],[-98.540610071,19.664270193],[-98.540742349,19.664610736],[-98.540874038,19.664949755],[-98.541009366,19.665298144],[-98.541142071,19.665639779],[-98.540186269,19.6659525],[-98.540058071,19.665594797],[-98.539941182,19.665268649],[-98.539808191,19.664906048],[-98.539689665,19.664579301],[-98.539561616,19.66423722],[-98.539383678,19.663771094],[-98.539267865,19.66345976],[-98.539067789,19.662921562],[-98.539974375,19.662633619]]]]},"properties":{"locality":"Demetrio Martínez","municipality":null,"official_key":"130210031","CVE_ENT":"13","CVE_MUN":"021","CVE_LOC":"0031","ambito":"RURAL","geometry_kind":"locality","source":"INEGI Gaia — Servicio vectorial del Marco Geoestadístico"}},{"type":"Feature","geometry":{"type":"MultiPolygon","crs":{"type":"name","properties":{"name":"EPSG:6365"}},"coordinates":[[[[-98.538022572,19.651730795],[-98.538073379,19.651806521],[-98.538093807,19.65182785],[-98.538110543,19.65184532],[-98.538110569,19.65184535],[-98.538135842,19.651879771],[-98.53814012,19.651885596],[-98.53819758,19.651963853],[-98.53820665,19.651976206],[-98.538229609,19.652007474],[-98.538247727,19.652032149],[-98.53827541,19.652069851],[-98.538292625,19.652093296],[-98.538315169,19.652124],[-98.538322155,19.652133709],[-98.538345141,19.65216565],[-98.538354089,19.652178083],[-98.538364622,19.652192719],[-98.538389362,19.652227099],[-98.538401793,19.652244376],[-98.538417442,19.652266122],[-98.538417707,19.652266489],[-98.538436132,19.652292092],[-98.538446498,19.652306498],[-98.538469208,19.652338055],[-98.53847351,19.652344033],[-98.538494832,19.652373663],[-98.538503663,19.652385934],[-98.538564342,19.652470256],[-98.536177228,19.654102712],[-98.535578932,19.653340708],[-98.536486425,19.65269951],[-98.536836885,19.652458093],[-98.537859612,19.651830757],[-98.538022572,19.651730795]]]]},"properties":{"locality":"Rafael Franco [Colonia]","municipality":null,"official_key":"130210037","CVE_ENT":"13","CVE_MUN":"021","CVE_LOC":"0037","ambito":"RURAL","geometry_kind":"locality","source":"INEGI Gaia — Servicio vectorial del Marco Geoestadístico"}},{"type":"Feature","geometry":{"type":"MultiPolygon","crs":{"type":"name","properties":{"name":"EPSG:6365"}},"coordinates":[[[[-98.545369933,19.647730459],[-98.54494105,19.64720688],[-98.544949831,19.647133237],[-98.545869828,19.646890643],[-98.546602372,19.646697474],[-98.547444905,19.646475296],[-98.548426919,19.64621633],[-98.548654088,19.647600421],[-98.547738671,19.647831076],[-98.547597054,19.647866759],[-98.547420881,19.647181267],[-98.546836053,19.647334988],[-98.546068837,19.647539229],[-98.546283309,19.648223418],[-98.545902383,19.648333116],[-98.545369933,19.647730459]]]]},"properties":{"locality":"Ampliación Cuauhtémoc","municipality":null,"official_key":"130210038","CVE_ENT":"13","CVE_MUN":"021","CVE_LOC":"0038","ambito":"RURAL","geometry_kind":"locality","source":"INEGI Gaia — Servicio vectorial del Marco Geoestadístico"}},{"type":"Feature","geometry":{"type":"Polygon","coordinates":[[[-98.5394769,19.6455472],[-98.5402548,19.6448475],[-98.5404344,19.6450409],[-98.541647,19.6464286],[-98.5421615,19.6470234],[-98.5423355,19.6471894],[-98.5425727,19.6474885],[-98.5428587,19.6478178],[-98.5429846,19.6479635],[-98.5431584,19.6482029],[-98.5423827,19.6487337],[-98.5419736,19.6490145],[-98.5415249,19.649322],[-98.5394769,19.6455472]]]},"properties":{"locality":"VENUSTIANO CARRANZA","official_key":"1302100010001","CVE_ENT":"13","CVE_MUN":"021","CVE_LOC":"0001","CVE_ASEN":"0001","settlement_type":"COLONIA","source":"INEGI DCAH 2025"}},{"type":"Feature","geometry":{"type":"Polygon","coordinates":[[[-98.5434474,19.6594648],[-98.5433141,19.6592515],[-98.5429073,19.6586199],[-98.5426993,19.6583044],[-98.5424136,19.6578969],[-98.5420095,19.6573068],[-98.5419754,19.657265],[-98.5418197,19.6570629],[-98.5416356,19.6567975],[-98.5413707,19.6564307],[-98.5413195,19.6563604],[-98.541272,19.6562941],[-98.540753,19.6555416],[-98.5407284,19.6555064],[-98.5401934,19.654707],[-98.5401525,19.6546548],[-98.5396447,19.6540075],[-98.5395676,19.6536915],[-98.5395516,19.6536572],[-98.5394022,19.6536834],[-98.5391919,19.6533763],[-98.5391222,19.6532692],[-98.53911,19.6532482],[-98.5388997,19.6529376],[-98.5387361,19.6527089],[-98.5385643,19.6524703],[-98.5385037,19.6523859],[-98.5384948,19.6523737],[-98.5384735,19.652344],[-98.5384692,19.6523381],[-98.5384465,19.6523065],[-98.5384361,19.6522921],[-98.5384177,19.6522665],[-98.5384174,19.6522661],[-98.5384018,19.6522444],[-98.5383894,19.6522271],[-98.5383646,19.6521927],[-98.5383541,19.6521781],[-98.5383451,19.6521656],[-98.5383222,19.6521337],[-98.5383152,19.652124],[-98.5382926,19.6520933],[-98.5382754,19.6520699],[-98.5382477,19.6520322],[-98.5382296,19.6520075],[-98.5382066,19.6519762],[-98.5381976,19.6519639],[-98.5381401,19.6518856],[-98.5381358,19.6518798],[-98.5381106,19.6518454],[-98.5381105,19.6518453],[-98.5380938,19.6518279],[-98.5380734,19.6518065],[-98.5380226,19.6517308],[-98.5383654,19.6514966],[-98.5387218,19.651253],[-98.5392068,19.6509199],[-98.5396408,19.6506206],[-98.5399759,19.650388],[-98.5405624,19.6499829],[-98.5407245,19.6498717],[-98.5415249,19.649322],[-98.5419736,19.6490145],[-98.5423827,19.6487337],[-98.5431584,19.6482029],[-98.5429846,19.6479635],[-98.5434821,19.6478132],[-98.5439251,19.647676],[-98.5442259,19.6475875],[-98.5443781,19.6475375],[-98.5447796,19.6473939],[-98.545134,19.6478988],[-98.5455334,19.6484557],[-98.5460314,19.6491439],[-98.5464616,19.6497591],[-98.5468253,19.6502507],[-98.5471697,19.6507526],[-98.5473098,19.6509527],[-98.5474793,19.651142],[-98.5480524,19.6520516],[-98.5483912,19.6525437],[-98.5484842,19.6527655],[-98.5485583,19.652987],[-98.5487118,19.653435],[-98.5489115,19.6540038],[-98.5493006,19.6550144],[-98.5496323,19.6559796],[-98.5499937,19.6569694],[-98.5503397,19.6579719],[-98.5505638,19.658636],[-98.5506718,19.6589556],[-98.5501755,19.6591286],[-98.5496564,19.6593096],[-98.5492248,19.6594614],[-98.5486079,19.6596668],[-98.5484927,19.6597068],[-98.5475362,19.6600427],[-98.546485,19.6604085],[-98.5455874,19.6607154],[-98.5454202,19.6607735],[-98.5446452,19.6610422],[-98.5444143,19.6611196],[-98.5438758,19.660191],[-98.5434474,19.6594648]]]},"properties":{"locality":"CENTRO","official_key":"1302100010002","CVE_ENT":"13","CVE_MUN":"021","CVE_LOC":"0001","CVE_ASEN":"0002","settlement_type":"COLONIA","source":"INEGI DCAH 2025"}},{"type":"Feature","geometry":{"type":"Polygon","coordinates":[[[-98.5379621,19.661368],[-98.5388738,19.6610421],[-98.5393544,19.6608729],[-98.5396276,19.6607817],[-98.5398907,19.660691],[-98.5401541,19.6605952],[-98.540426,19.6605027],[-98.5407218,19.6604006],[-98.540824,19.6605691],[-98.5412095,19.6611355],[-98.5412936,19.6612527],[-98.5418055,19.6619932],[-98.5414975,19.6620965],[-98.5412248,19.6621887],[-98.5409596,19.6622735],[-98.5406932,19.6623612],[-98.5404325,19.6624494],[-98.5399383,19.6626147],[-98.5399272,19.6626184],[-98.5395321,19.662754],[-98.5390198,19.6629193],[-98.5388265,19.662612],[-98.5386596,19.6623658],[-98.5384821,19.6621232],[-98.5383986,19.6620054],[-98.5383079,19.6618619],[-98.5381401,19.6616195],[-98.5379621,19.661368]]]},"properties":{"locality":"PRI REVOLUCIÓN","official_key":"1302100010003","CVE_ENT":"13","CVE_MUN":"021","CVE_LOC":"0001","CVE_ASEN":"0003","settlement_type":"COLONIA","source":"INEGI DCAH 2025"}},{"type":"Feature","geometry":{"type":"Polygon","coordinates":[[[-98.5446452,19.6610422],[-98.5454202,19.6607735],[-98.5455874,19.6607154],[-98.546485,19.6604085],[-98.5467684,19.6611796],[-98.5468426,19.6614128],[-98.545965,19.6617045],[-98.5449997,19.6620022],[-98.5449121,19.661758],[-98.5446452,19.6610422]]]},"properties":{"locality":"RAMOS MILLÁN","official_key":"1302100010004","CVE_ENT":"13","CVE_MUN":"021","CVE_LOC":"0001","CVE_ASEN":"0004","settlement_type":"COLONIA","source":"INEGI DCAH 2025"}},{"type":"Feature","geometry":{"type":"Polygon","coordinates":[[[-98.5388627,19.6567733],[-98.5390331,19.6566479],[-98.5392756,19.6564767],[-98.5395318,19.6562976],[-98.5397215,19.6561603],[-98.5400295,19.6559467],[-98.5401874,19.655846],[-98.5403054,19.6557651],[-98.5403834,19.6557087],[-98.5404782,19.6556296],[-98.5407284,19.6555064],[-98.540753,19.6555416],[-98.541272,19.6562941],[-98.5413195,19.6563604],[-98.5413707,19.6564307],[-98.541066,19.6564831],[-98.5409271,19.6565665],[-98.5407276,19.6566971],[-98.5405395,19.656819],[-98.5402769,19.6569979],[-98.5401265,19.6571005],[-98.5398653,19.6572786],[-98.5398419,19.6572946],[-98.5393852,19.6576014],[-98.5389272,19.6579064],[-98.5386121,19.6574618],[-98.5383728,19.657123],[-98.538712,19.6568809],[-98.5388462,19.6567851],[-98.5388627,19.6567733]]]},"properties":{"locality":"LOS REYES","official_key":"1302100010005","CVE_ENT":"13","CVE_MUN":"021","CVE_LOC":"0001","CVE_ASEN":"0005","settlement_type":"COLONIA","source":"INEGI DCAH 2025"}},{"type":"Feature","geometry":{"type":"Polygon","coordinates":[[[-98.5382388,19.659327],[-98.5393537,19.6589405],[-98.5401855,19.6586541],[-98.5410018,19.6583768],[-98.5415238,19.6581921],[-98.5416008,19.6581648],[-98.5417,19.6581297],[-98.5424136,19.6578969],[-98.5426993,19.6583044],[-98.5429073,19.6586199],[-98.5433141,19.6592515],[-98.5434474,19.6594648],[-98.5431711,19.6595632],[-98.5427583,19.6597048],[-98.5420355,19.6599507],[-98.5407218,19.6604006],[-98.540426,19.6605027],[-98.5401541,19.6605952],[-98.5398907,19.660691],[-98.5396276,19.6607817],[-98.5393544,19.6608729],[-98.5388738,19.6610421],[-98.5379621,19.661368],[-98.5374562,19.6605877],[-98.5369205,19.6597797],[-98.5372685,19.6596675],[-98.5382388,19.659327]]]},"properties":{"locality":"LOS CIPRÉCES","official_key":"1302100010007","CVE_ENT":"13","CVE_MUN":"021","CVE_LOC":"0001","CVE_ASEN":"0007","settlement_type":"COLONIA","source":"INEGI DCAH 2025"}},{"type":"Feature","geometry":{"type":"Polygon","coordinates":[[[-98.5421615,19.6470234],[-98.541647,19.6464286],[-98.5420651,19.6462822],[-98.5421424,19.6462486],[-98.5426313,19.6460898],[-98.5431076,19.6459391],[-98.543613,19.6457626],[-98.543772,19.6457094],[-98.5442717,19.6464202],[-98.5444715,19.6466972],[-98.5448583,19.6472262],[-98.5447796,19.6473939],[-98.5443781,19.6475375],[-98.5442259,19.6475875],[-98.5439251,19.647676],[-98.5434821,19.6478132],[-98.5429846,19.6479635],[-98.5428587,19.6478178],[-98.5425727,19.6474885],[-98.5423355,19.6471894],[-98.5421615,19.6470234]]]},"properties":{"locality":"LOMA BONITA","official_key":"1302100010008","CVE_ENT":"13","CVE_MUN":"021","CVE_LOC":"0001","CVE_ASEN":"0008","settlement_type":"COLONIA","source":"INEGI DCAH 2025"}},{"type":"Feature","geometry":{"type":"Polygon","coordinates":[[[-98.5447796,19.6473939],[-98.5448583,19.6472262],[-98.544941,19.6472069],[-98.5449411,19.647207],[-98.5453699,19.6477305],[-98.545402,19.6477696],[-98.5463871,19.648951],[-98.5471091,19.6498054],[-98.5473538,19.6500966],[-98.5473746,19.6502592],[-98.5476568,19.6505745],[-98.5479534,19.6509164],[-98.5480956,19.6510899],[-98.5482963,19.6513179],[-98.5485291,19.6515893],[-98.5487888,19.6519003],[-98.5493182,19.6525286],[-98.5497727,19.6530347],[-98.550026,19.6533073],[-98.5502918,19.6535831],[-98.550518,19.6538059],[-98.5506723,19.6539553],[-98.5507601,19.6540464],[-98.5510369,19.6543748],[-98.5513948,19.6547694],[-98.5516674,19.6550829],[-98.5520308,19.6555477],[-98.5521605,19.6556863],[-98.5527079,19.6559661],[-98.5535881,19.6564198],[-98.5539361,19.6566138],[-98.5539708,19.6566469],[-98.5540154,19.656713],[-98.5541097,19.6568169],[-98.5542489,19.6569115],[-98.5544876,19.6570063],[-98.5550942,19.6572575],[-98.5550943,19.6572576],[-98.5559496,19.6575989],[-98.5562566,19.657713],[-98.5557845,19.6578119],[-98.5549917,19.6579832],[-98.5536894,19.6582777],[-98.5530945,19.6584139],[-98.5518814,19.6586584],[-98.551131,19.6588092],[-98.5506718,19.6589556],[-98.5505638,19.658636],[-98.5503397,19.6579719],[-98.5499937,19.6569694],[-98.5496323,19.6559796],[-98.5493006,19.6550144],[-98.5489115,19.6540038],[-98.5487118,19.653435],[-98.5485583,19.652987],[-98.5484842,19.6527655],[-98.5483912,19.6525437],[-98.5480524,19.6520516],[-98.5474793,19.651142],[-98.5473098,19.6509527],[-98.5471697,19.6507526],[-98.5468253,19.6502507],[-98.5464616,19.6497591],[-98.5460314,19.6491439],[-98.5455334,19.6484557],[-98.545134,19.6478988],[-98.5447796,19.6473939]]]},"properties":{"locality":"EXHACIENDA DE SAN LORENZO","official_key":"1302100010009","CVE_ENT":"13","CVE_MUN":"021","CVE_LOC":"0001","CVE_ASEN":"0009","settlement_type":"COLONIA","source":"INEGI DCAH 2025"}},{"type":"Feature","geometry":{"type":"Polygon","coordinates":[[[-98.538532,19.6478235],[-98.5390003,19.6486472],[-98.5392723,19.649134],[-98.5395337,19.6496089],[-98.5396809,19.6498772],[-98.5399759,19.650388],[-98.5396408,19.6506206],[-98.5392068,19.6509199],[-98.5387218,19.651253],[-98.5383654,19.6514966],[-98.5376364,19.6502741],[-98.5380931,19.6500052],[-98.5385259,19.649731],[-98.537694,19.6483037],[-98.538532,19.6478235]]]},"properties":{"locality":"SAN GABRIEL","official_key":"1302100010010","CVE_ENT":"13","CVE_MUN":"021","CVE_LOC":"0001","CVE_ASEN":"0010","settlement_type":"COLONIA","source":"INEGI DCAH 2025"}},{"type":"Feature","geometry":{"type":"Polygon","coordinates":[[[-98.5389272,19.6579064],[-98.5393852,19.6576014],[-98.5398419,19.6572946],[-98.5398653,19.6572786],[-98.5401265,19.6571005],[-98.5402769,19.6569979],[-98.5405395,19.656819],[-98.5407276,19.6566971],[-98.5409271,19.6565665],[-98.541066,19.6564831],[-98.5413707,19.6564307],[-98.5416356,19.6567975],[-98.5418197,19.6570629],[-98.5419754,19.657265],[-98.5420095,19.6573068],[-98.5424136,19.6578969],[-98.5417,19.6581297],[-98.5416008,19.6581648],[-98.5415238,19.6581921],[-98.5410018,19.6583768],[-98.5401855,19.6586541],[-98.5393537,19.6589405],[-98.5382388,19.659327],[-98.5378458,19.6585593],[-98.5380017,19.6585075],[-98.5389272,19.6579064]]]},"properties":{"locality":"SANTA CECILIA","official_key":"1302100010011","CVE_ENT":"13","CVE_MUN":"021","CVE_LOC":"0001","CVE_ASEN":"0011","settlement_type":"COLONIA","source":"INEGI DCAH 2025"}},{"type":"Feature","geometry":{"type":"Polygon","coordinates":[[[-98.539376,19.6553092],[-98.5398138,19.6550055],[-98.5401934,19.654707],[-98.5407284,19.6555064],[-98.5404782,19.6556296],[-98.5403834,19.6557087],[-98.5403054,19.6557651],[-98.5401874,19.655846],[-98.5400295,19.6559467],[-98.5397215,19.6561603],[-98.5395318,19.6562976],[-98.5392756,19.6564767],[-98.5390331,19.6566479],[-98.5388627,19.6567733],[-98.5386545,19.6564857],[-98.5384491,19.6562082],[-98.5383278,19.6560452],[-98.5390001,19.6555699],[-98.539376,19.6553092]]]},"properties":{"locality":"SANTA CRUZ","official_key":"1302100010012","CVE_ENT":"13","CVE_MUN":"021","CVE_LOC":"0001","CVE_ASEN":"0012","settlement_type":"COLONIA","source":"INEGI DCAH 2025"}},{"type":"Feature","geometry":{"type":"Polygon","coordinates":[[[-98.5483172,19.6638725],[-98.548098,19.6638088],[-98.5480093,19.6637867],[-98.5479285,19.6637545],[-98.5477846,19.663702],[-98.5476726,19.6636435],[-98.5475194,19.6634963],[-98.5474376,19.6633652],[-98.5473871,19.6632138],[-98.5472575,19.662772],[-98.5471826,19.6625142],[-98.5471109,19.6623006],[-98.5470186,19.6620822],[-98.5469429,19.6618643],[-98.5468678,19.6615453],[-98.5468426,19.6614128],[-98.5467684,19.6611796],[-98.546485,19.6604085],[-98.5475362,19.6600427],[-98.5484927,19.6597068],[-98.5486079,19.6596668],[-98.5492248,19.6594614],[-98.5496564,19.6593096],[-98.5501755,19.6591286],[-98.5506718,19.6589556],[-98.551131,19.6588092],[-98.5512778,19.6591844],[-98.5514025,19.6595213],[-98.551441,19.659723],[-98.5513781,19.6600137],[-98.5513105,19.6602617],[-98.5511815,19.6604938],[-98.5510204,19.6607074],[-98.5508168,19.6608565],[-98.5505771,19.6609756],[-98.5503239,19.6610647],[-98.5500479,19.6612179],[-98.5499375,19.6613124],[-98.5498699,19.6613702],[-98.5496959,19.6615942],[-98.5494684,19.6619829],[-98.5493452,19.662195],[-98.5493169,19.6622623],[-98.5493145,19.66235],[-98.5493228,19.6624705],[-98.5493677,19.6627988],[-98.5494034,19.6628892],[-98.5495347,19.6631975],[-98.5496273,19.6634412],[-98.5496725,19.6635589],[-98.5493425,19.663704],[-98.5494948,19.6639441],[-98.5497184,19.6643034],[-98.5498395,19.6645115],[-98.5497294,19.6644546],[-98.5496728,19.6644306],[-98.5488708,19.6641127],[-98.5484791,19.6639391],[-98.5483172,19.6638725]]]},"properties":{"locality":"SANTOS LUGARES","official_key":"1302100010013","CVE_ENT":"13","CVE_MUN":"021","CVE_LOC":"0001","CVE_ASEN":"0013","settlement_type":"COLONIA","source":"INEGI DCAH 2025"}},{"type":"Feature","geometry":{"type":"Polygon","coordinates":[[[-98.5440741,19.6623857],[-98.5438665,19.6618103],[-98.5437007,19.6613651],[-98.5444143,19.6611196],[-98.5446452,19.6610422],[-98.5449121,19.661758],[-98.5449997,19.6620022],[-98.545965,19.6617045],[-98.5468426,19.6614128],[-98.5468678,19.6615453],[-98.5469429,19.6618643],[-98.5470186,19.6620822],[-98.5471109,19.6623006],[-98.5471826,19.6625142],[-98.5472575,19.662772],[-98.5473871,19.6632138],[-98.5474376,19.6633652],[-98.5475194,19.6634963],[-98.5476726,19.6636435],[-98.5477846,19.663702],[-98.5479285,19.6637545],[-98.5480093,19.6637867],[-98.5472558,19.6643928],[-98.5466185,19.664898],[-98.5461377,19.6652615],[-98.5453549,19.6659463],[-98.5450766,19.6651729],[-98.5449963,19.6649367],[-98.5449033,19.6646823],[-98.5447578,19.6642803],[-98.5445378,19.6636636],[-98.544365,19.6631896],[-98.5442765,19.6629361],[-98.5440741,19.6623857]]]},"properties":{"locality":"UNIDAD DEPORTIVA","official_key":"1302100010014","CVE_ENT":"13","CVE_MUN":"021","CVE_LOC":"0001","CVE_ASEN":"0014","settlement_type":"COLONIA","source":"INEGI DCAH 2025"}},{"type":"Feature","geometry":{"type":"Polygon","coordinates":[[[-98.542399,19.6617489],[-98.5420573,19.6609822],[-98.5414332,19.6612079],[-98.5412936,19.6612527],[-98.5412095,19.6611355],[-98.540824,19.6605691],[-98.5407218,19.6604006],[-98.5420355,19.6599507],[-98.5427583,19.6597048],[-98.5431711,19.6595632],[-98.5434474,19.6594648],[-98.5438758,19.660191],[-98.5444143,19.6611196],[-98.5437007,19.6613651],[-98.543322,19.6614963],[-98.5425596,19.6617477],[-98.5424179,19.6617938],[-98.542399,19.6617489]]]},"properties":{"locality":"VALLE DEL SOL","official_key":"1302100010015","CVE_ENT":"13","CVE_MUN":"021","CVE_LOC":"0001","CVE_ASEN":"0015","settlement_type":"COLONIA","source":"INEGI DCAH 2025"}},{"type":"Feature","geometry":{"type":"Polygon","coordinates":[[[-98.5372032,19.6545678],[-98.5375578,19.6543237],[-98.5377885,19.6541626],[-98.5380704,19.6539596],[-98.5383188,19.6537879],[-98.5387658,19.6534808],[-98.53911,19.6532482],[-98.5391222,19.6532692],[-98.5391919,19.6533763],[-98.5394022,19.6536834],[-98.5395516,19.6536572],[-98.5395676,19.6536915],[-98.5396447,19.6540075],[-98.5401525,19.6546548],[-98.5401934,19.654707],[-98.5398138,19.6550055],[-98.539376,19.6553092],[-98.5388462,19.6545449],[-98.5382177,19.6549672],[-98.5377667,19.6552748],[-98.5370125,19.6557914],[-98.5364314,19.6561933],[-98.535899,19.6554746],[-98.53633,19.6551765],[-98.5366779,19.6549297],[-98.5369612,19.654735],[-98.5372032,19.6545678]]]},"properties":{"locality":"SAN RAFAEL","official_key":"1302100010016","CVE_ENT":"13","CVE_MUN":"021","CVE_LOC":"0001","CVE_ASEN":"0016","settlement_type":"COLONIA","source":"INEGI DCAH 2025"}},{"type":"Feature","geometry":{"type":"Polygon","coordinates":[[[-98.5404344,19.6450409],[-98.5406349,19.6449735],[-98.540892,19.6449205],[-98.5411188,19.6448853],[-98.5412397,19.6448963],[-98.5414851,19.6449577],[-98.5416325,19.6449617],[-98.5418671,19.6448407],[-98.5420756,19.6446087],[-98.5422443,19.6444468],[-98.5423396,19.6445055],[-98.5426013,19.6446284],[-98.5426648,19.6446693],[-98.5427627,19.6447227],[-98.5428836,19.644791],[-98.5429598,19.6448294],[-98.5431475,19.6450847],[-98.5433926,19.6451697],[-98.543772,19.6457094],[-98.543613,19.6457626],[-98.5431076,19.6459391],[-98.5426313,19.6460898],[-98.5421424,19.6462486],[-98.5420651,19.6462822],[-98.541647,19.6464286],[-98.5404344,19.6450409]]]},"properties":{"locality":"LOMA BONITA","official_key":"1302100010017","CVE_ENT":"13","CVE_MUN":"021","CVE_LOC":"0001","CVE_ASEN":"0017","settlement_type":"AMPLIACIÓN","source":"INEGI DCAH 2025"}},{"type":"Feature","geometry":{"type":"Polygon","coordinates":[[[-98.5412936,19.6612527],[-98.5414332,19.6612079],[-98.5420573,19.6609822],[-98.542399,19.6617489],[-98.5424179,19.6617938],[-98.5418055,19.6619932],[-98.5412936,19.6612527]]]},"properties":{"locality":"SAN CARLOS","official_key":"1302100010018","CVE_ENT":"13","CVE_MUN":"021","CVE_LOC":"0001","CVE_ASEN":"0018","settlement_type":"COLONIA","source":"INEGI DCAH 2025"}},{"type":"Feature","geometry":{"type":"Polygon","coordinates":[[[-98.5394769,19.6455472],[-98.5415249,19.649322],[-98.5407245,19.6498717],[-98.5405624,19.6499829],[-98.5399759,19.650388],[-98.5396809,19.6498772],[-98.5395337,19.6496089],[-98.5392723,19.649134],[-98.5390003,19.6486472],[-98.538532,19.6478235],[-98.5379977,19.6468898],[-98.5387373,19.6462185],[-98.5394769,19.6455472]]]},"properties":{"locality":"AMPLIACIÓN VENUSTIANO CARRANZA","official_key":"1302100010019","CVE_ENT":"13","CVE_MUN":"021","CVE_LOC":"0001","CVE_ASEN":"0019","settlement_type":"COLONIA","source":"INEGI DCAH 2025"}},{"type":"Feature","geometry":{"type":"Polygon","coordinates":[[[-98.5694959,19.6716936],[-98.5693419,19.6715651],[-98.5692361,19.671477],[-98.5690789,19.6723032],[-98.568244,19.6721556],[-98.5679606,19.672092],[-98.567202,19.6719743],[-98.5669622,19.6719356],[-98.566735,19.6718405],[-98.5665731,19.6716869],[-98.5666799,19.6713525],[-98.5667331,19.6709978],[-98.5660615,19.6708636],[-98.5656796,19.6698605],[-98.5656158,19.6694301],[-98.5653594,19.6693738],[-98.5652527,19.6689012],[-98.5653066,19.6684628],[-98.5654784,19.6684154],[-98.5668948,19.6686508],[-98.5668618,19.6682539],[-98.5668147,19.6677295],[-98.5667837,19.667089],[-98.5667578,19.6662412],[-98.5667244,19.6660777],[-98.5658918,19.6658183],[-98.5659223,19.6648858],[-98.5658594,19.664864],[-98.5658115,19.664835],[-98.5657739,19.6648121],[-98.5653925,19.6646972],[-98.5653525,19.6646777],[-98.56532,19.6646619],[-98.5649427,19.6645508],[-98.5649053,19.6645329],[-98.5648699,19.664516],[-98.5645207,19.6644011],[-98.5644746,19.6643857],[-98.5644405,19.6643743],[-98.5640591,19.6642555],[-98.5639898,19.6642386],[-98.5639814,19.6631686],[-98.563991,19.6627682],[-98.5639869,19.66271],[-98.5639935,19.6626569],[-98.5639769,19.6623424],[-98.5657306,19.6628917],[-98.5657113,19.6627363],[-98.5664768,19.6627091],[-98.5663741,19.6614402],[-98.5665182,19.6614544],[-98.5672361,19.6616971],[-98.568042,19.6619627],[-98.5687271,19.66221],[-98.5691083,19.6623267],[-98.5703173,19.6627004],[-98.5716921,19.6631371],[-98.5724198,19.6633529],[-98.5730762,19.6635754],[-98.5736558,19.6637229],[-98.5743091,19.6637763],[-98.5750598,19.6638829],[-98.5751411,19.6642798],[-98.5750937,19.6645124],[-98.5749263,19.6647484],[-98.5746784,19.6649639],[-98.5742668,19.6651919],[-98.5739984,19.6653696],[-98.5739125,19.6654992],[-98.5737693,19.6656842],[-98.5733913,19.6660946],[-98.5728376,19.6666398],[-98.5727023,19.6670336],[-98.572268,19.6676141],[-98.5721147,19.6678405],[-98.5716098,19.667942],[-98.5714157,19.667979],[-98.5710646,19.6676083],[-98.570633,19.6680003],[-98.5704511,19.6681682],[-98.5703659,19.6686315],[-98.5701735,19.669004],[-98.5700784,19.6691629],[-98.5699578,19.6693039],[-98.5699352,19.6694286],[-98.5699502,19.6695331],[-98.5700966,19.6697127],[-98.5701303,19.6698922],[-98.5700377,19.6701552],[-98.5698538,19.6702766],[-98.5696444,19.6703221],[-98.5696066,19.6704484],[-98.5695365,19.6706353],[-98.5695249,19.6708373],[-98.5695607,19.6710746],[-98.569568,19.6712766],[-98.5696458,19.6714028],[-98.5696119,19.6716431],[-98.5694959,19.6716936]]]},"properties":{"locality":"SANTA BARBARA","official_key":"1302100050001","CVE_ENT":"13","CVE_MUN":"021","CVE_LOC":"0005","CVE_ASEN":"0001","settlement_type":"PUEBLO","source":"INEGI DCAH 2025"}},{"type":"Feature","geometry":{"type":"Polygon","coordinates":[[[-98.574115,19.7002083],[-98.5729155,19.6995306],[-98.5722937,19.6989733],[-98.5733474,19.6989314],[-98.573707,19.6988504],[-98.5743297,19.6987188],[-98.5761647,19.6986896],[-98.5765149,19.697772],[-98.5767963,19.6969711],[-98.5768448,19.6967986],[-98.5779103,19.6971155],[-98.5780333,19.6967947],[-98.5780848,19.6965565],[-98.5780072,19.6962828],[-98.5777745,19.6956214],[-98.5772156,19.6946448],[-98.5777485,19.6943842],[-98.5776714,19.6941528],[-98.5776417,19.6938731],[-98.5776147,19.6934468],[-98.577571,19.6930004],[-98.5780761,19.6930098],[-98.5784108,19.6930642],[-98.5783459,19.693818],[-98.578423,19.6943918],[-98.578543,19.6946827],[-98.5786899,19.6952077],[-98.5786988,19.6952232],[-98.5787078,19.6952437],[-98.5790124,19.6956242],[-98.5793245,19.6957771],[-98.5794748,19.6954925],[-98.5800666,19.6956065],[-98.5805872,19.6957229],[-98.5817006,19.6960131],[-98.5822041,19.6946125],[-98.5822108,19.6945723],[-98.5822229,19.6945398],[-98.5824012,19.6939866],[-98.5832869,19.6942356],[-98.5833449,19.6942623],[-98.583829,19.6944027],[-98.5839142,19.6941825],[-98.584916,19.6944652],[-98.5850113,19.6940154],[-98.5856895,19.6942198],[-98.585545,19.6947984],[-98.5849508,19.694597],[-98.5845683,19.6944786],[-98.5840559,19.6958846],[-98.5847301,19.6961047],[-98.5851208,19.6962097],[-98.585415,19.6964258],[-98.5858318,19.696397],[-98.5853202,19.696869],[-98.5851734,19.6972097],[-98.5851564,19.6974894],[-98.5857188,19.6974307],[-98.5857226,19.6977448],[-98.5860591,19.6979578],[-98.5862922,19.698091],[-98.5861897,19.6986907],[-98.5864245,19.6986679],[-98.5864973,19.6987133],[-98.5865557,19.6988522],[-98.5865849,19.6991995],[-98.5867551,19.6993428],[-98.5868241,19.6995509],[-98.5863543,19.6995488],[-98.5858309,19.6995973],[-98.5852999,19.6996538],[-98.5850584,19.6996797],[-98.584201,19.6999339],[-98.5834978,19.7002175],[-98.5829945,19.7004255],[-98.5818968,19.7008671],[-98.5818555,19.7008858],[-98.5812429,19.7011619],[-98.5810142,19.7012553],[-98.5808484,19.7013231],[-98.5805869,19.7014231],[-98.5802765,19.701502],[-98.5797606,19.7015447],[-98.5797424,19.7015462],[-98.5790741,19.7015783],[-98.578616,19.7015601],[-98.5781904,19.7014992],[-98.5776026,19.70138],[-98.5770772,19.7012342],[-98.5766687,19.7009914],[-98.5763284,19.7014593],[-98.5753851,19.7009268],[-98.574115,19.7002083]]]},"properties":{"locality":"SANTA CLARA","official_key":"1302100060001","CVE_ENT":"13","CVE_MUN":"021","CVE_LOC":"0006","CVE_ASEN":"0001","settlement_type":"PUEBLO","source":"INEGI DCAH 2025"}},{"type":"Feature","geometry":{"type":"Polygon","coordinates":[[[-98.5760763,19.6839995],[-98.5745621,19.684258],[-98.5739766,19.6815131],[-98.575465,19.681253],[-98.5748575,19.6803269],[-98.5773589,19.6802522],[-98.5783633,19.6802597],[-98.5784285,19.6802594],[-98.5794846,19.6802393],[-98.5794911,19.6808643],[-98.5798316,19.6810124],[-98.5798962,19.6810849],[-98.5799841,19.681216],[-98.5799934,19.6812319],[-98.5803545,19.6817995],[-98.5806297,19.6820035],[-98.5816608,19.6825706],[-98.5826784,19.6833988],[-98.5829481,19.6849519],[-98.5812964,19.685192],[-98.5808996,19.685265],[-98.5805432,19.6853328],[-98.5808399,19.6870795],[-98.5791464,19.6855987],[-98.5778838,19.6858292],[-98.5765661,19.6860546],[-98.5753021,19.6862396],[-98.5760763,19.6839995]]]},"properties":{"locality":"JOSÉ MARIA MORELOS","official_key":"1302100110001","CVE_ENT":"13","CVE_MUN":"021","CVE_LOC":"0011","CVE_ASEN":"0001","settlement_type":"PUEBLO","source":"INEGI DCAH 2025"}},{"type":"Feature","geometry":{"type":"Polygon","coordinates":[[[-98.5380226,19.6517308],[-98.5380734,19.6518065],[-98.5380938,19.6518279],[-98.5381105,19.6518453],[-98.5381106,19.6518454],[-98.5381358,19.6518798],[-98.5381401,19.6518856],[-98.5381976,19.6519639],[-98.5382066,19.6519762],[-98.5382296,19.6520075],[-98.5382477,19.6520322],[-98.5382754,19.6520699],[-98.5382926,19.6520933],[-98.5383152,19.652124],[-98.5383222,19.6521337],[-98.5383451,19.6521656],[-98.5383541,19.6521781],[-98.5383646,19.6521927],[-98.5383894,19.6522271],[-98.5384018,19.6522444],[-98.5384174,19.6522661],[-98.5384177,19.6522665],[-98.5384361,19.6522921],[-98.5384465,19.6523065],[-98.5384692,19.6523381],[-98.5384735,19.652344],[-98.5384948,19.6523737],[-98.5385037,19.6523859],[-98.5385643,19.6524703],[-98.5361772,19.6541027],[-98.5355789,19.6533407],[-98.5364864,19.6526995],[-98.5368369,19.6524581],[-98.5378596,19.6518308],[-98.5380226,19.6517308]]]},"properties":{"locality":"RAFAEL FRANCO","official_key":"1302100370001","CVE_ENT":"13","CVE_MUN":"021","CVE_LOC":"0037","CVE_ASEN":"0001","settlement_type":"COLONIA","source":"INEGI DCAH 2025"}},{"type":"Feature","geometry":{"type":"Polygon","coordinates":[[[-98.5453699,19.6477305],[-98.5449411,19.647207],[-98.544941,19.6472069],[-98.5449498,19.6471332],[-98.5458698,19.6468906],[-98.5466024,19.6466975],[-98.5474449,19.6464753],[-98.5484269,19.6462163],[-98.5486541,19.6476004],[-98.5477387,19.6478311],[-98.5475971,19.6478668],[-98.5474209,19.6471813],[-98.5468361,19.647335],[-98.5460688,19.6475392],[-98.5462833,19.6482234],[-98.5459024,19.6483331],[-98.5453699,19.6477305]]]},"properties":{"locality":"AMPLIACIÓN LOMA BONITA","official_key":"1302100380001","CVE_ENT":"13","CVE_MUN":"021","CVE_LOC":"0038","CVE_ASEN":"0001","settlement_type":"COLONIA","source":"INEGI DCAH 2025"}}]}