{"type":"FeatureCollection","name":"inegi-hidalgo-026","metadata":{"state":"Hidalgo","CVE_ENT":"13","CVE_MUN":"026","municipality":"Huazalingo","sources":["INEGI Gaia — Servicio vectorial del Marco Geoestadístico","INEGI DCAH 2025"],"source_urls":["https://gaia.inegi.org.mx/wscatgeo/v2/geo/mgem/13","https://gaia.inegi.org.mx/wscatgeo/v2/geo/localidades/pol/13/026","https://www.inegi.org.mx/contenidos/productos/prod_serv/contenidos/espanol/bvinegi/productos/geografia/delimitaciones/794551163078/13_hidalgo.zip"],"geometry_policy":"Solo se publican polígonos de INEGI; no se generan puntos ni geometrías sintéticas.","locality_polygon_count":27,"settlement_polygon_count":9},"municipality":{"type":"Feature","geometry":{"type":"MultiPolygon","crs":{"type":"name","properties":{"name":"EPSG:6365"}},"coordinates":[[[[-98.496940677,21.057443542],[-98.495392139,21.057248493],[-98.495182929,21.05722214],[-98.495139238,21.057216637],[-98.494967242,21.057194972],[-98.494966829,21.057194921],[-98.494915889,21.057188505],[-98.494915475,21.057188453],[-98.494613789,21.057150461],[-98.49461345,21.057150418],[-98.494582521,21.057146524],[-98.49458218,21.057146481],[-98.48072802,21.05540066],[-98.48062762,21.05504454],[-98.48030629,21.05463203],[-98.48031429,21.0539992],[-98.47995189,21.0529426],[-98.47946466,21.05154149],[-98.47888065,21.05032495],[-98.47848266,21.04944109],[-98.47833132,21.04879755],[-98.47787331,21.04809809],[-98.4773974,21.04708958],[-98.47734811,21.04569234],[-98.47740457,21.04503208],[-98.47789551,21.04404292],[-98.4783664,21.04322246],[-98.47869877,21.04273242],[-98.47884285,21.04272322],[-98.47897475,21.04239203],[-98.47935675,21.04194832],[-98.47949278,21.04182675],[-98.47972274,21.0415564],[-98.47983608,21.04136297],[-98.47986277,21.04108932],[-98.48011571,21.04085375],[-98.48022022,21.04059948],[-98.48022698,21.04049728],[-98.48038678,21.04042189],[-98.48059168,21.04034997],[-98.48082142,21.04023854],[-98.48091315,21.0401366],[-98.48100588,21.04002822],[-98.48121286,21.03969471],[-98.48135903,21.03944334],[-98.48156568,21.03890089],[-98.48180298,21.03811888],[-98.48179454,21.038084],[-98.48160145,21.03808783],[-98.48133055,21.03818266],[-98.48084306,21.03846068],[-98.48068508,21.03858385],[-98.48002832,21.03886402],[-98.48002512,21.03884654],[-98.48011432,21.03848705],[-98.47960334,21.03872938],[-98.47896772,21.03920243],[-98.47874234,21.03902163],[-98.47849338,21.03868417],[-98.4783272,21.03839298],[-98.47807962,21.037551],[-98.47807375,21.03750755],[-98.47853983,21.03750028],[-98.47904035,21.03747722],[-98.47923365,21.03703157],[-98.47923602,21.03694078],[-98.47916115,21.03679428],[-98.47887429,21.03653785],[-98.47872368,21.03639528],[-98.47874072,21.03632185],[-98.47890149,21.03619214],[-98.47909849,21.0360686],[-98.47910098,21.03597325],[-98.47897971,21.03590266],[-98.47873752,21.03584937],[-98.47850206,21.03584646],[-98.4781286,21.03573895],[-98.47799982,21.03564811],[-98.47791246,21.03561094],[-98.47764226,21.03570765],[-98.47729292,21.03564709],[-98.47699068,21.03551885],[-98.47666135,21.0353794],[-98.47654815,21.0353362],[-98.47656345,21.03487311],[-98.47663038,21.03439663],[-98.47587955,21.03497255],[-98.47553834,21.03506505],[-98.475153,21.03515351],[-98.47538112,21.03588468],[-98.47537565,21.03640808],[-98.47556278,21.03661252],[-98.47527149,21.03683095],[-98.47495617,21.03707671],[-98.47479622,21.03727945],[-98.47458557,21.03745028],[-98.47420465,21.03773378],[-98.47370362,21.03814083],[-98.47333423,21.03821909],[-98.47258032,21.03851898],[-98.47214198,21.03872682],[-98.47177463,21.03885446],[-98.47133278,21.03897242],[-98.47109334,21.03920426],[-98.47087471,21.03945498],[-98.47042118,21.03962245],[-98.46992088,21.03962975],[-98.46986377,21.03930466],[-98.46983851,21.03927846],[-98.46942911,21.03932748],[-98.46933365,21.03939965],[-98.46935811,21.03974397],[-98.46894528,21.03967618],[-98.46865886,21.03959502],[-98.46794654,21.03935178],[-98.46698052,21.03938368],[-98.46645258,21.03959034],[-98.46640785,21.03958189],[-98.46608586,21.03954022],[-98.46562523,21.03952208],[-98.46518322,21.03967218],[-98.46466034,21.03974668],[-98.46435375,21.03977255],[-98.46385557,21.03990731],[-98.46327151,21.04020409],[-98.4630046,21.04021912],[-98.46210986,21.04020795],[-98.46134618,21.04018365],[-98.46104354,21.04017748],[-98.46091774,21.04021049],[-98.46062478,21.04042285],[-98.46010977,21.04089455],[-98.45945611,21.04082198],[-98.45949948,21.04062332],[-98.45880725,21.0407226],[-98.45879177,21.04082715],[-98.4584922,21.04090103],[-98.45795051,21.04125349],[-98.45769992,21.04130089],[-98.45745205,21.04131328],[-98.45680289,21.04140478],[-98.45662935,21.04150875],[-98.45588988,21.04178445],[-98.45585158,21.04180702],[-98.45550214,21.04175182],[-98.45465243,21.04202968],[-98.45421057,21.04218742],[-98.4540744,21.04220437],[-98.45385157,21.04224712],[-98.45333775,21.04306258],[-98.453071,21.04319703],[-98.45208492,21.0435088],[-98.45155397,21.04359817],[-98.45159962,21.04364017],[-98.45153163,21.04366731],[-98.45103402,21.04408905],[-98.45093325,21.04420071],[-98.45063565,21.04426228],[-98.44976718,21.04414477],[-98.44957423,21.04400623],[-98.44931338,21.04376397],[-98.44929718,21.04360998],[-98.44915626,21.04355206],[-98.44909338,21.04371275],[-98.44863948,21.043939],[-98.44784389,21.04419938],[-98.44737406,21.04405691],[-98.44765308,21.04371897],[-98.44752443,21.04364966],[-98.44734875,21.04368371],[-98.44704848,21.04382665],[-98.44692178,21.04400714],[-98.44647972,21.04426194],[-98.44575518,21.0439832],[-98.44579863,21.04337825],[-98.44513843,21.04334372],[-98.44433045,21.04348614],[-98.44401283,21.04355065],[-98.44358718,21.04362715],[-98.44316428,21.04328217],[-98.44303757,21.04308248],[-98.44296077,21.04272818],[-98.44280666,21.04230629],[-98.442764464,21.042268116],[-98.4426498,21.04216438],[-98.44234034,21.04241749],[-98.442320563,21.042501356],[-98.442316313,21.042519373],[-98.442241367,21.042837179],[-98.442227584,21.042895626],[-98.442213494,21.042955373],[-98.442206097,21.042986739],[-98.44219581,21.043030358],[-98.44207243,21.04355354],[-98.44203331,21.04382952],[-98.44161388,21.04399689],[-98.44113158,21.04399002],[-98.441006565,21.043974997],[-98.4407954,21.04394962],[-98.44072735,21.04395023],[-98.44055268,21.04396626],[-98.44006771,21.044058],[-98.43981625,21.04411043],[-98.43945217,21.04427868],[-98.4391606,21.04441037],[-98.43884926,21.04453989],[-98.43844505,21.04460846],[-98.43826672,21.04460846],[-98.43814152,21.04459811],[-98.43743443,21.04466757],[-98.43709146,21.0447722],[-98.43694252,21.04493389],[-98.436618134,21.04513548],[-98.43647051,21.04522722],[-98.43643925,21.04529403],[-98.43631208,21.04545868],[-98.43625848,21.04572852],[-98.43619315,21.04633114],[-98.43598342,21.04637383],[-98.43479948,21.04639145],[-98.43474202,21.04639257],[-98.434532117,21.046214353],[-98.43402649,21.04578505],[-98.43331097,21.04469077],[-98.43325786,21.04498263],[-98.43314282,21.0450074],[-98.43286185,21.04498898],[-98.43257803,21.04503871],[-98.43233192,21.04508751],[-98.43203177,21.04513],[-98.43173586,21.04513606],[-98.43142189,21.04514731],[-98.43105729,21.04510635],[-98.43091746,21.04510169],[-98.43036691,21.04489978],[-98.43008525,21.04499609],[-98.42985038,21.04497249],[-98.42964582,21.04521277],[-98.42921737,21.04525102],[-98.42900329,21.04523968],[-98.42886071,21.04510962],[-98.4283301,21.045119042],[-98.42761258,21.04513178],[-98.4273418,21.04443691],[-98.427273356,21.044384079],[-98.42723028,21.04435083],[-98.427158896,21.044381866],[-98.426409109,21.044707859],[-98.426333525,21.044740721],[-98.426278842,21.044764495],[-98.42626303,21.04477137],[-98.426174099,21.044937806],[-98.42616386,21.04495697],[-98.426087965,21.045099026],[-98.425815959,21.045608155],[-98.425815587,21.045608851],[-98.425802637,21.04563309],[-98.42569251,21.04583922],[-98.425417474,21.046062999],[-98.42532534,21.046137962],[-98.425325202,21.046138074],[-98.42486149,21.046112],[-98.424808949,21.046068001],[-98.424793428,21.046055005],[-98.424546073,21.045847866],[-98.424520412,21.045826377],[-98.424308554,21.045648963],[-98.424294963,21.045637582],[-98.424166065,21.045529641],[-98.424165955,21.045529549],[-98.423909828,21.045315063],[-98.423644479,21.045092851],[-98.423607845,21.045062172],[-98.423482969,21.0449576],[-98.423213868,21.044732242],[-98.423137464,21.044668258],[-98.423099914,21.044636812],[-98.423011957,21.044563153],[-98.42300123,21.04455417],[-98.42292674,21.044554575],[-98.422510197,21.044556836],[-98.422459275,21.044557113],[-98.42229954,21.04455798],[-98.422233909,21.044560158],[-98.42000423,21.04463414],[-98.418856228,21.044248393],[-98.418793267,21.044227237],[-98.418792389,21.044226943],[-98.418774047,21.044220779],[-98.418773996,21.044220762],[-98.41868491,21.044190827],[-98.41853085,21.04413906],[-98.418420141,21.044165239],[-98.41834192,21.044183736],[-98.417897982,21.044288713],[-98.41788903,21.04429083],[-98.417854775,21.044307623],[-98.41784397,21.04431292],[-98.417780894,21.044225683],[-98.41774915,21.04418178],[-98.41766857,21.04405049],[-98.41740014,21.04405095],[-98.41736268,21.044050604],[-98.41723754,21.04404945],[-98.41706943,21.04397777],[-98.41695443,21.0439416],[-98.41677422,21.04386506],[-98.41658723,21.04385954],[-98.41630574,21.04389318],[-98.41613271,21.04391548],[-98.41595535,21.04384234],[-98.41611492,21.04366729],[-98.416178154,21.043481608],[-98.41621972,21.04335955],[-98.41625443,21.04303274],[-98.416255932,21.042903589],[-98.41626058,21.04250385],[-98.41627302,21.04217652],[-98.41626734,21.04169192],[-98.41624992,21.04137265],[-98.416215801,21.04111651],[-98.41618798,21.04090765],[-98.41616628,21.04074862],[-98.41616683,21.04044889],[-98.41619225,21.04019157],[-98.416255558,21.039939118],[-98.41627042,21.03987985],[-98.41633228,21.03967005],[-98.41646352,21.03928688],[-98.41655086,21.03902737],[-98.41672463,21.03855969],[-98.41700669,21.03815022],[-98.4171756,21.03784735],[-98.41735423,21.0373996],[-98.417375661,21.03735163],[-98.417511,21.03704868],[-98.41760965,21.03680142],[-98.41769325,21.03662103],[-98.417711247,21.036582651],[-98.41781188,21.03636805],[-98.41799734,21.0361112],[-98.41808002,21.03596529],[-98.41820602,21.03577111],[-98.4182946,21.03560069],[-98.41839566,21.03555378],[-98.41860503,21.03544295],[-98.41898578,21.03515457],[-98.41924706,21.03483329],[-98.41935189,21.03460655],[-98.41959626,21.03421968],[-98.41979555,21.03392506],[-98.42000697,21.03387134],[-98.4202798,21.03386097],[-98.42054435,21.0336576],[-98.42067226,21.03338395],[-98.42070483,21.03299909],[-98.42062526,21.03273674],[-98.42053408,21.03249754],[-98.42041877,21.03233262],[-98.42027852,21.03210474],[-98.42025211,21.03198309],[-98.42014125,21.03186755],[-98.41991022,21.03163466],[-98.41949446,21.03146978],[-98.41954514,21.03131938],[-98.42003977,21.03045515],[-98.42044915,21.0298798],[-98.42089112,21.02981198],[-98.421201,21.0294582],[-98.42134591,21.02852934],[-98.42155817,21.02811211],[-98.42208743,21.02777463],[-98.4229242,21.02737005],[-98.42344732,21.02700352],[-98.42359237,21.02681425],[-98.4242202,21.02662448],[-98.42445222,21.02651223],[-98.42471382,21.02651835],[-98.42515223,21.02643654],[-98.42548411,21.02626012],[-98.42583192,21.02583606],[-98.42594214,21.02571574],[-98.42623711,21.02539374],[-98.42630854,21.02523488],[-98.426368583,21.025101343],[-98.42641938,21.02498837],[-98.426784355,21.024684632],[-98.427456899,21.024124925],[-98.427547485,21.024049537],[-98.428502215,21.023254974],[-98.428763996,21.023037108],[-98.428960103,21.022873897],[-98.429011152,21.022831411],[-98.42907376,21.022779305],[-98.42930617,21.02258588],[-98.429431875,21.022495181],[-98.42967802,21.02231758],[-98.429800097,21.022319236],[-98.430192625,21.022324562],[-98.430598902,21.022330072],[-98.43075808,21.02233223],[-98.430898057,21.022263065],[-98.43110658,21.02216003],[-98.431114091,21.02215167],[-98.43155631,21.02165949],[-98.43161614,21.021612753],[-98.43180175,21.0214678],[-98.431944,21.021415421],[-98.43206998,21.02136902],[-98.433121403,21.021191454],[-98.43327632,21.02116529],[-98.43384334,21.02116557],[-98.43441734,21.02113892],[-98.4349354,21.02096805],[-98.434954462,21.020956109],[-98.43507248,21.02088218],[-98.43511492,21.02089835],[-98.43531475,21.02096602],[-98.43551568,21.02104085],[-98.43568532,21.02108738],[-98.43586237,21.02115665],[-98.43612326,21.02118528],[-98.43626232,21.02112986],[-98.43644655,21.02101517],[-98.436660239,21.020868308],[-98.43666188,21.02086718],[-98.436710377,21.020794188],[-98.43682025,21.02062882],[-98.436824058,21.020624003],[-98.43697646,21.02043128],[-98.43705068,21.02025168],[-98.437065748,21.020195865],[-98.437128,21.01996528],[-98.43715662,21.0196826],[-98.43712949,21.01945246],[-98.43709565,21.01912674],[-98.43711354,21.01879282],[-98.43717332,21.01860342],[-98.43724398,21.01844186],[-98.43733146,21.01821838],[-98.43750037,21.01799849],[-98.43766789,21.01781343],[-98.43777517,21.01771717],[-98.43785471,21.01761683],[-98.43786352,21.01736457],[-98.43783846,21.01718163],[-98.43774337,21.01689346],[-98.43768186,21.01673563],[-98.43827894,21.01577991],[-98.43899982,21.01511668],[-98.43903035,21.01409602],[-98.43944397,21.01391631],[-98.43937368,21.01374437],[-98.43921028,21.01320806],[-98.43909877,21.0121476],[-98.43932358,21.01204592],[-98.43952306,21.01191794],[-98.43915242,21.01113672],[-98.43948192,21.01104412],[-98.43887763,21.01038785],[-98.43870072,21.01017432],[-98.43922645,21.01031506],[-98.43928243,21.01029703],[-98.43934462,21.01022771],[-98.43956009,21.01010078],[-98.43936885,21.00980855],[-98.43932558,21.00938768],[-98.43927611,21.00927546],[-98.43922482,21.00918998],[-98.43911926,21.00867777],[-98.43974838,21.00870602],[-98.44020048,21.00861809],[-98.43994948,21.00829917],[-98.43981725,21.0080846],[-98.43965695,21.00693477],[-98.44025875,21.00673446],[-98.44038011,21.00668403],[-98.4404026,21.00638015],[-98.4404102,21.00610365],[-98.44027843,21.00553052],[-98.44005288,21.00534343],[-98.44027737,21.00515488],[-98.44037825,21.00444709],[-98.44049742,21.00423323],[-98.44056185,21.00392502],[-98.44014522,21.00393791],[-98.43812343,21.00386351],[-98.43832791,21.00284803],[-98.43842485,21.00208422],[-98.43844115,21.00189842],[-98.43858197,21.00150266],[-98.43884703,21.0006288],[-98.43899732,20.99987808],[-98.43905728,20.99930392],[-98.43931643,20.99851642],[-98.43931822,20.99808923],[-98.43944494,20.99769942],[-98.43979123,20.99612289],[-98.43989506,20.99573318],[-98.43998925,20.99534805],[-98.44015488,20.994484],[-98.44018585,20.9938932],[-98.44041917,20.99306542],[-98.44059218,20.99220185],[-98.44077062,20.99134134],[-98.44087543,20.99061335],[-98.44100449,20.98976835],[-98.44117202,20.98900488],[-98.44138677,20.98809509],[-98.44146292,20.98766715],[-98.4416176,20.9867682],[-98.44168988,20.98633738],[-98.44197269,20.9849936],[-98.44206663,20.98453234],[-98.44229658,20.98320526],[-98.4425954,20.98162423],[-98.44269111,20.98111652],[-98.44297766,20.97948546],[-98.44324571,20.9781552],[-98.44519511,20.9742296],[-98.44570122,20.97345654],[-98.44629465,20.97261748],[-98.44647122,20.97196309],[-98.44730906,20.97112614],[-98.44979418,20.96624911],[-98.45008772,20.96586069],[-98.45078631,20.96615992],[-98.45164629,20.96650389],[-98.45345646,20.96743294],[-98.45646642,20.96892531],[-98.45828477,20.96853977],[-98.45882669,20.9669342],[-98.45957608,20.96597954],[-98.460384,20.965638],[-98.46145328,20.96525358],[-98.46302398,20.96424886],[-98.4642458,20.96327688],[-98.46522654,20.96238311],[-98.46663248,20.96145963],[-98.467994168,20.960812454],[-98.46835874,20.96063918],[-98.46975306,20.96036825],[-98.47052258,20.96050828],[-98.47143743,20.96102726],[-98.47242406,20.9619938],[-98.47379729,20.96356451],[-98.47419751,20.9644604],[-98.47477366,20.96525995],[-98.47556843,20.96548298],[-98.47627238,20.96582451],[-98.4770674,20.96597966],[-98.47856797,20.9660182],[-98.47941788,20.96598685],[-98.48017743,20.96593826],[-98.48072971,20.96586257],[-98.48126189,20.96575177],[-98.48178515,20.96524066],[-98.48281494,20.96434912],[-98.48395308,20.96393966],[-98.48505392,20.96370211],[-98.48632311,20.96289849],[-98.48606774,20.96251922],[-98.48606915,20.96210629],[-98.48625449,20.96152188],[-98.48651409,20.9606624],[-98.48695714,20.95976908],[-98.48728937,20.95911629],[-98.48802458,20.95856792],[-98.488248407,20.958456819],[-98.48859629,20.95828414],[-98.488585956,20.957745522],[-98.48857866,20.95736523],[-98.488649553,20.956942877],[-98.48872661,20.95648379],[-98.488757015,20.956302641],[-98.48877805,20.95617732],[-98.48869266,20.95589345],[-98.48852135,20.95548775],[-98.488511472,20.955469061],[-98.48843555,20.95532543],[-98.488427817,20.955286031],[-98.48830825,20.95467678],[-98.48835431,20.95382606],[-98.48835652,20.9531778],[-98.48853086,20.95269212],[-98.48923228,20.95125306],[-98.48927412,20.95054969],[-98.48915752,20.95003098],[-98.48915954,20.94943858],[-98.48912235,20.948772],[-98.48951925,20.94806969],[-98.4895602,20.94762551],[-98.48964123,20.94699632],[-98.48964437,20.94607068],[-98.49034918,20.94519923],[-98.4907652,20.94497483],[-98.49111643,20.9445246],[-98.49155542,20.94397206],[-98.49173186,20.94350078],[-98.49206135,20.94300945],[-98.49232563,20.94241537],[-98.49252378,20.94198518],[-98.49256915,20.941493],[-98.4928126,20.94108586],[-98.49290098,20.94079894],[-98.49314223,20.94055349],[-98.49338366,20.94024652],[-98.49362546,20.93983698],[-98.49408538,20.93955117],[-98.49465548,20.938999],[-98.49507142,20.93879511],[-98.4956402,20.93863268],[-98.49596891,20.93836698],[-98.49673631,20.93763078],[-98.49691197,20.93738514],[-98.49695657,20.9371186],[-98.49700145,20.93677002],[-98.49700254,20.93644182],[-98.49721889,20.93642432],[-98.49752514,20.93634317],[-98.49780986,20.93615938],[-98.49791982,20.93595458],[-98.49818275,20.93575023],[-98.49857622,20.93573088],[-98.49894855,20.93548582],[-98.49912422,20.93524017],[-98.49936565,20.93493318],[-98.49941045,20.93460511],[-98.49963958,20.93452998],[-98.49996354,20.93451211],[-98.50042898,20.93458183],[-98.50081142,20.93438815],[-98.50121289,20.93415274],[-98.5013592,20.93379183],[-98.50162445,20.93361234],[-98.50203974,20.93353749],[-98.5025838,20.93334752],[-98.50303128,20.93307098],[-98.50342749,20.93269205],[-98.50403451,20.93227957],[-98.50461128,20.93221326],[-98.50525031,20.93221218],[-98.50585075,20.9322736],[-98.50624877,20.93230995],[-98.50694097,20.9321896],[-98.50756046,20.93205768],[-98.50783009,20.93180829],[-98.50807052,20.93180954],[-98.50849732,20.93197263],[-98.50876442,20.93199578],[-98.5091846,20.93380969],[-98.50907263,20.93518678],[-98.50912068,20.9363358],[-98.50958478,20.93741003],[-98.50976298,20.93853223],[-98.51038558,20.93880223],[-98.51113792,20.9391214],[-98.51165591,20.93961055],[-98.51201795,20.94012366],[-98.51248406,20.94058829],[-98.51318137,20.9406626],[-98.51404329,20.94075115],[-98.51527835,20.94165598],[-98.51621165,20.94292366],[-98.51694472,20.94229892],[-98.51687377,20.94253086],[-98.51720023,20.94253535],[-98.51761991,20.94180037],[-98.51848348,20.94153637],[-98.51836749,20.94084177],[-98.51828455,20.94018574],[-98.51845783,20.93952842],[-98.51864834,20.9386288],[-98.51883922,20.93761177],[-98.51928838,20.93731949],[-98.5197058,20.93717391],[-98.52022794,20.93688185],[-98.52061429,20.93666768],[-98.52106003,20.93648765],[-98.52161277,20.93609537],[-98.52195862,20.93563306],[-98.52227989,20.93489626],[-98.5227698,20.93449111],[-98.52293251,20.93418983],[-98.5233734,20.93401391],[-98.52377931,20.93369632],[-98.52436172,20.93331288],[-98.52477634,20.93296974],[-98.52557148,20.9321604],[-98.52575846,20.93146711],[-98.52601934,20.93077402],[-98.52668591,20.93035957],[-98.52865988,20.93140651],[-98.52937277,20.93182943],[-98.53005186,20.93243935],[-98.53086363,20.933112],[-98.52993268,20.93337448],[-98.52925042,20.93377797],[-98.52850097,20.93441512],[-98.52803822,20.93520551],[-98.52799929,20.93582983],[-98.5280344,20.93641968],[-98.52858729,20.93690686],[-98.52958403,20.93729122],[-98.53034302,20.93729868],[-98.53067883,20.93712794],[-98.53095408,20.93684258],[-98.53122922,20.93658585],[-98.53183886,20.93658752],[-98.53208343,20.93635931],[-98.53269432,20.93596043],[-98.53394914,20.93433305],[-98.53468298,20.93359117],[-98.53532391,20.93333543],[-98.53623146,20.93312235],[-98.53664675,20.93323217],[-98.53698071,20.93328366],[-98.53719085,20.93328929],[-98.53738492,20.93326452],[-98.53758457,20.93314454],[-98.53783411,20.93296223],[-98.53800117,20.93290785],[-98.53821823,20.93286928],[-98.53853549,20.93281531],[-98.53885302,20.93267518],[-98.53914545,20.93255065],[-98.53939045,20.9325878],[-98.53953214,20.93274828],[-98.53970429,20.93289145],[-98.53657382,20.93724223],[-98.53640954,20.93770045],[-98.53645878,20.93809554],[-98.53650842,20.93846218],[-98.53653874,20.93900262],[-98.53676978,20.93944468],[-98.53712388,20.94022549],[-98.53704055,20.94074843],[-98.5368172,20.94128131],[-98.53661226,20.9419366],[-98.53633198,20.94263606],[-98.53577885,20.94393662],[-98.53521755,20.94838529],[-98.53534249,20.94868229],[-98.5356196,20.94890972],[-98.53573723,20.94914454],[-98.53672623,20.94938991],[-98.53741843,20.94960852],[-98.53840802,20.94967314],[-98.53916637,20.94983],[-98.53962703,20.95023378],[-98.53942974,20.950805],[-98.53955546,20.95152565],[-98.54049229,20.95192834],[-98.54159902,20.95255017],[-98.5421504,20.95351206],[-98.5420622,20.95447223],[-98.54235345,20.95470954],[-98.54240928,20.95474651],[-98.54249302,20.95500709],[-98.54269952,20.95506771],[-98.5427008,20.95521972],[-98.54261088,20.95546332],[-98.54275242,20.95634594],[-98.5424814,20.95667831],[-98.54252343,20.9572096],[-98.54238114,20.95725446],[-98.54242563,20.95803478],[-98.54231622,20.95812546],[-98.54233403,20.95834725],[-98.54226429,20.95836043],[-98.54213975,20.95851825],[-98.54244629,20.95846405],[-98.54261205,20.9589948],[-98.54226278,20.95912445],[-98.5422202,20.95949034],[-98.5420724,20.95964518],[-98.54209143,20.95978946],[-98.5416052,20.96001635],[-98.54142994,20.95987012],[-98.54117271,20.95992548],[-98.54134135,20.96002517],[-98.54142055,20.96013112],[-98.54163835,20.96025955],[-98.54171243,20.96033037],[-98.5417696,20.96032191],[-98.54193518,20.96038132],[-98.54241031,20.95980657],[-98.54265995,20.9599556],[-98.5427062,20.96010062],[-98.54290937,20.96019408],[-98.54275048,20.96030225],[-98.54249148,20.96199817],[-98.54262823,20.96238065],[-98.54252586,20.96252188],[-98.54246828,20.96271798],[-98.54244938,20.96285263],[-98.54223694,20.96290731],[-98.54212843,20.96325325],[-98.54201414,20.96339095],[-98.54167394,20.96348668],[-98.54165565,20.96352308],[-98.54117983,20.96349522],[-98.54120049,20.96358352],[-98.54113626,20.96385889],[-98.54103003,20.96396766],[-98.54128788,20.96408568],[-98.54163969,20.96389389],[-98.54212648,20.96344292],[-98.54217722,20.96356354],[-98.54211117,20.96366097],[-98.54217863,20.96381723],[-98.54175888,20.96418875],[-98.54179229,20.96428332],[-98.54174537,20.96431008],[-98.54173215,20.96442938],[-98.54154749,20.96447054],[-98.54150308,20.96480363],[-98.54145898,20.96485978],[-98.54165162,20.96492329],[-98.54171974,20.96504522],[-98.54180146,20.9649846],[-98.54176525,20.96492611],[-98.54179908,20.96476258],[-98.54210272,20.96456746],[-98.54223158,20.96453735],[-98.54247875,20.96434883],[-98.5427032,20.96411752],[-98.54306165,20.96460146],[-98.54328946,20.96487169],[-98.54323703,20.96497902],[-98.54280289,20.96617643],[-98.54248305,20.96610734],[-98.54228369,20.96594157],[-98.54227531,20.96590094],[-98.54202874,20.96591637],[-98.54156611,20.96598083],[-98.54157712,20.96586637],[-98.54179094,20.96540885],[-98.5414752,20.96550831],[-98.54124043,20.96558914],[-98.54101129,20.96580369],[-98.54088129,20.96590451],[-98.54123465,20.96587185],[-98.54128138,20.96590635],[-98.54131708,20.96597445],[-98.54141469,20.96609295],[-98.54142825,20.96621291],[-98.5413772,20.96635463],[-98.54120966,20.96640752],[-98.54092994,20.96640883],[-98.54077391,20.96663543],[-98.54069657,20.96676194],[-98.54052295,20.96700469],[-98.54035815,20.96723658],[-98.54014654,20.96743391],[-98.54003322,20.96761645],[-98.54007649,20.96766251],[-98.54019425,20.9674438],[-98.54048923,20.96714278],[-98.54068571,20.96702502],[-98.54081048,20.96706512],[-98.54108882,20.96708403],[-98.54124355,20.96701283],[-98.54116166,20.96680395],[-98.54127903,20.96677768],[-98.5413902,20.96681929],[-98.54161011,20.96678668],[-98.54188069,20.96678909],[-98.54212522,20.96664248],[-98.54189437,20.96647665],[-98.54215108,20.96621345],[-98.54227094,20.96613715],[-98.54229203,20.96618706],[-98.54246743,20.96656672],[-98.54301318,20.96727815],[-98.54310172,20.96706875],[-98.54320997,20.96696523],[-98.54329978,20.96695577],[-98.54345451,20.96702402],[-98.54341665,20.9671832],[-98.54369486,20.96720854],[-98.54353668,20.96793966],[-98.54321831,20.96803346],[-98.54322638,20.96805702],[-98.54327791,20.968172],[-98.54331345,20.96825457],[-98.54341243,20.96821897],[-98.54352082,20.96819391],[-98.54361388,20.96820645],[-98.54365018,20.96832552],[-98.54366748,20.96832203],[-98.54395337,20.96862815],[-98.54397194,20.96866046],[-98.54398934,20.96886945],[-98.54427083,20.96883483],[-98.544287,20.96898742],[-98.54429714,20.96922832],[-98.54450915,20.96917642],[-98.544465576,20.969310302],[-98.54445828,20.96933272],[-98.544453898,20.96936087],[-98.544450906,20.969380091],[-98.544446613,20.969407673],[-98.54442485,20.96954748],[-98.544380515,20.969602219],[-98.544360215,20.969627284],[-98.54432194,20.96967454],[-98.544322748,20.969675713],[-98.54442985,20.96983112],[-98.54425234,20.97000283],[-98.54409017,20.97011483],[-98.54406289,20.97008425],[-98.54392957,20.97018749],[-98.54361426,20.97029665],[-98.54374394,20.97046971],[-98.54515069,20.96933694],[-98.54541206,20.96922566],[-98.54561034,20.96929135],[-98.545669073,20.969367881],[-98.54572936,20.969446438],[-98.546192394,20.970049788],[-98.54631792,20.97021335],[-98.546639582,20.970308189],[-98.54697842,20.97040809],[-98.54782822,20.97048854],[-98.54845605,20.97153402],[-98.54870972,20.97186902],[-98.54885578,20.97203549],[-98.54906823,20.97219743],[-98.54962415,20.97236054],[-98.54968688,20.97240186],[-98.54973514,20.97248477],[-98.54977775,20.97282758],[-98.55007374,20.97310626],[-98.54999905,20.97335814],[-98.55003192,20.97377265],[-98.5502916,20.97408692],[-98.55027915,20.97411935],[-98.55016562,20.97432529],[-98.55046535,20.97444526],[-98.55049305,20.97453749],[-98.55049402,20.97466737],[-98.55072069,20.97481934],[-98.55076508,20.97482068],[-98.55076543,20.97503168],[-98.55050175,20.97535291],[-98.55041675,20.97549683],[-98.55027326,20.97567842],[-98.55021245,20.97579789],[-98.55009014,20.97563122],[-98.54992134,20.97553608],[-98.549708,20.97532788],[-98.54962322,20.97523091],[-98.54920857,20.97563888],[-98.54918371,20.97561994],[-98.54918163,20.97572055],[-98.54900094,20.97566742],[-98.5489294,20.97558966],[-98.54888375,20.97549469],[-98.54873692,20.97564349],[-98.54881328,20.97575597],[-98.5487978,20.97583649],[-98.54881762,20.97592046],[-98.54860246,20.97630494],[-98.54849338,20.97646691],[-98.54814968,20.97641674],[-98.54814766,20.97702595],[-98.54806663,20.97708782],[-98.54765962,20.97746215],[-98.54744292,20.97755003],[-98.54721014,20.97757877],[-98.5471178,20.97777846],[-98.54695295,20.97797855],[-98.54706383,20.97822412],[-98.54698262,20.97827066],[-98.54665525,20.97793982],[-98.54595414,20.97804935],[-98.5449306,20.97843054],[-98.54394618,20.9779668],[-98.54345085,20.97799711],[-98.54265752,20.97860871],[-98.54247458,20.97884583],[-98.54247643,20.97948391],[-98.54268389,20.98002498],[-98.54305845,20.98037995],[-98.54312518,20.98063348],[-98.54298158,20.98097665],[-98.54260654,20.9812588],[-98.54186435,20.9811926],[-98.54147235,20.98102685],[-98.54071051,20.98110008],[-98.54029958,20.98123358],[-98.54022168,20.9815714],[-98.54016137,20.98165075],[-98.54000582,20.98173132],[-98.539894,20.98197428],[-98.53969294,20.98210526],[-98.53968122,20.98197592],[-98.5396254,20.98193172],[-98.53948643,20.98198623],[-98.53921289,20.98199605],[-98.53908731,20.98224],[-98.53889105,20.98217049],[-98.53878403,20.98238691],[-98.53833883,20.98241782],[-98.53796123,20.98285486],[-98.53788415,20.9838402],[-98.53782183,20.98452946],[-98.53753314,20.98491534],[-98.53733058,20.98537043],[-98.53739285,20.98607328],[-98.53702285,20.98696583],[-98.53669623,20.98772351],[-98.53704982,20.98894532],[-98.53709566,20.98964186],[-98.53710297,20.99004923],[-98.53699058,20.99026437],[-98.5366764,20.99055268],[-98.53583034,20.99067035],[-98.5354824,20.98996245],[-98.53478035,20.98965669],[-98.53458372,20.98991028],[-98.53427771,20.98990755],[-98.53317595,20.99090052],[-98.53274126,20.9914246],[-98.53262852,20.99196329],[-98.53279875,20.99271029],[-98.53294825,20.99329243],[-98.53349582,20.99388757],[-98.53372269,20.99442588],[-98.5336932,20.99476226],[-98.53345612,20.99507437],[-98.53292868,20.99582611],[-98.5327438,20.99613143],[-98.53232848,20.997039],[-98.53214566,20.99884031],[-98.53217715,20.99915898],[-98.53221632,20.99951545],[-98.53225063,20.99997932],[-98.53199605,21.00085362],[-98.53170822,21.00171003],[-98.53166823,21.00248629],[-98.53173229,21.00267565],[-98.53181232,21.00391737],[-98.53156472,21.00430137],[-98.53064231,21.00480702],[-98.53068669,21.00521245],[-98.53079332,21.00532615],[-98.53233445,21.0069468],[-98.532528,21.00767571],[-98.53259002,21.00830308],[-98.53253471,21.0090962],[-98.53207468,21.01024692],[-98.53087709,21.01149763],[-98.53096208,21.01157138],[-98.53104065,21.01160458],[-98.53044851,21.01238922],[-98.52955415,21.01324895],[-98.52936726,21.01380385],[-98.52960878,21.01396578],[-98.52950903,21.01427265],[-98.52943383,21.014411],[-98.52927663,21.01461029],[-98.52928172,21.01473628],[-98.52943582,21.01484912],[-98.52878115,21.01515137],[-98.52859418,21.015504919],[-98.52858391,21.01552434],[-98.52867183,21.01581088],[-98.52873566,21.01564828],[-98.528754845,21.01555271],[-98.52876211,21.01551652],[-98.52897711,21.01529803],[-98.52957491,21.0151646],[-98.53046634,21.01538749],[-98.53032583,21.01566248],[-98.53005909,21.01550774],[-98.53000937,21.01561355],[-98.53002763,21.01603289],[-98.53004045,21.01622806],[-98.52988852,21.01665312],[-98.52983894,21.01697668],[-98.53013389,21.0170558],[-98.53003791,21.01812043],[-98.52979578,21.01927337],[-98.52973986,21.01934557],[-98.52969562,21.01943252],[-98.52943072,21.019662],[-98.52974206,21.01974926],[-98.52986131,21.01979257],[-98.53005758,21.01973232],[-98.53080662,21.01935058],[-98.53115326,21.01872446],[-98.53208388,21.01901377],[-98.53192765,21.01921114],[-98.53181035,21.01932588],[-98.53170162,21.01962774],[-98.53194388,21.01970198],[-98.53188828,21.01991094],[-98.53186671,21.020202],[-98.53207577,21.02037877],[-98.53216882,21.02054163],[-98.53220428,21.02069212],[-98.5322078,21.02072452],[-98.53211558,21.02074511],[-98.53212217,21.02091628],[-98.53221748,21.02127202],[-98.53212378,21.02135083],[-98.53200763,21.02151426],[-98.53188694,21.02180515],[-98.53209258,21.02184929],[-98.532361,21.02180197],[-98.53238448,21.02172757],[-98.53244086,21.02191374],[-98.53248149,21.02206978],[-98.53259648,21.02217155],[-98.53270926,21.02227349],[-98.53295052,21.02210392],[-98.53320978,21.02210488],[-98.53323846,21.02214011],[-98.5332184,21.02233823],[-98.53331151,21.02239408],[-98.53339718,21.02238871],[-98.53328282,21.02262897],[-98.53323469,21.02272097],[-98.53345585,21.02279843],[-98.53338785,21.02287537],[-98.53328592,21.02293575],[-98.53314435,21.02299591],[-98.53307363,21.02311611],[-98.53330012,21.02335617],[-98.53334703,21.02340649],[-98.53373018,21.02308023],[-98.53390222,21.02327646],[-98.53412408,21.02331586],[-98.53431391,21.02346671],[-98.53415522,21.02364951],[-98.53414288,21.02374575],[-98.53415812,21.02393754],[-98.53444254,21.02387209],[-98.53466306,21.02414788],[-98.53449742,21.02458225],[-98.53365902,21.02438938],[-98.53337778,21.02398628],[-98.53330358,21.02385894],[-98.53293075,21.02363875],[-98.53275771,21.02377031],[-98.53193332,21.02340026],[-98.53153457,21.02388097],[-98.53097445,21.02384778],[-98.53095966,21.02354626],[-98.53103142,21.02319955],[-98.53118722,21.02291974],[-98.53124378,21.02279191],[-98.53127405,21.02271669],[-98.53127323,21.02249258],[-98.53097846,21.02250897],[-98.53084372,21.02255285],[-98.53067054,21.02257762],[-98.53025975,21.02274902],[-98.53063195,21.02397731],[-98.53039709,21.02413878],[-98.53080271,21.02439786],[-98.53109595,21.0245924],[-98.53103966,21.0250772],[-98.53105343,21.02525871],[-98.53075909,21.02536037],[-98.53056817,21.02535129],[-98.5301446,21.02523849],[-98.52996448,21.02528415],[-98.52978105,21.02530037],[-98.52960466,21.0253706],[-98.52962185,21.02545522],[-98.52937723,21.02565465],[-98.52930605,21.02588037],[-98.52896998,21.02597383],[-98.528890223,21.025991778],[-98.52871428,21.02603137],[-98.528550499,21.026166005],[-98.528527794,21.026184669],[-98.52848743,21.02621785],[-98.528341567,21.026381126],[-98.52823545,21.02649991],[-98.528094898,21.026549057],[-98.52793411,21.02660528],[-98.52782971,21.02652577],[-98.52764545,21.02641451],[-98.52765317,21.02639397],[-98.52767282,21.02634169],[-98.52759572,21.02627492],[-98.52753595,21.02609371],[-98.52756188,21.02599717],[-98.52743328,21.0260044],[-98.52733168,21.02600198],[-98.52718872,21.02616494],[-98.52709215,21.02619411],[-98.52703677,21.02623589],[-98.52690548,21.02630374],[-98.52678117,21.0263594],[-98.52676372,21.02636969],[-98.52663929,21.02643692],[-98.52654103,21.02649492],[-98.52645092,21.02659637],[-98.52636934,21.0267104],[-98.5262912,21.02676418],[-98.52624692,21.02676568],[-98.52600608,21.02676502],[-98.52584202,21.02672349],[-98.52568914,21.02659986],[-98.52557968,21.02659955],[-98.52550542,21.026557118],[-98.52548962,21.02654809],[-98.52544246,21.02652115],[-98.525441956,21.026521237],[-98.525441452,21.026521323],[-98.525440446,21.026521496],[-98.52538949,21.02653025],[-98.524989861,21.026721671],[-98.52452491,21.02694438],[-98.524422557,21.026976396],[-98.52435055,21.02699892],[-98.52460392,21.02707668],[-98.52489391,21.02707966],[-98.524855869,21.027163686],[-98.524836931,21.027205517],[-98.52482003,21.02724285],[-98.52478551,21.02748949],[-98.52473838,21.02762646],[-98.5248064,21.0281332],[-98.52477054,21.02819623],[-98.52478257,21.02875066],[-98.5248838,21.02898886],[-98.52485597,21.02904298],[-98.52485385,21.02943986],[-98.52467226,21.02962757],[-98.52456505,21.02983603],[-98.52342606,21.02958223],[-98.52327231,21.02946323],[-98.52300458,21.0294216],[-98.52283432,21.02958854],[-98.52257318,21.02972514],[-98.52239009,21.02987955],[-98.52233372,21.02993811],[-98.52210166,21.03044971],[-98.52190103,21.03099714],[-98.52189594,21.03109194],[-98.52127257,21.03091943],[-98.52086472,21.03078662],[-98.52082057,21.03077834],[-98.52072246,21.03095425],[-98.52060575,21.03109148],[-98.52042732,21.03128557],[-98.52017252,21.0316302],[-98.5198556,21.03204868],[-98.51942363,21.03230431],[-98.51844466,21.03260962],[-98.51815531,21.03275205],[-98.51791955,21.03289011],[-98.51780208,21.03296362],[-98.51768505,21.03308225],[-98.51764977,21.03318745],[-98.51735471,21.03336363],[-98.51722738,21.03342455],[-98.51724228,21.03346169],[-98.51723918,21.03355906],[-98.51722672,21.03359874],[-98.51740911,21.03377843],[-98.51735262,21.03402352],[-98.5166984,21.03458395],[-98.51632211,21.03494022],[-98.51576166,21.0359978],[-98.51554792,21.03667109],[-98.51573762,21.03730575],[-98.51599222,21.03755366],[-98.51598137,21.03774597],[-98.51586335,21.03826515],[-98.51571603,21.0391086],[-98.51581595,21.0401686],[-98.51518165,21.04093974],[-98.51479626,21.04137957],[-98.51439655,21.04164543],[-98.51380669,21.04189077],[-98.51291545,21.04251317],[-98.51209282,21.04303646],[-98.51117775,21.04364708],[-98.51105248,21.04412545],[-98.51081577,21.04470902],[-98.5105184,21.04533518],[-98.51036986,21.04601052],[-98.51022752,21.04604209],[-98.50991175,21.04612345],[-98.50940128,21.04605382],[-98.50924151,21.04608778],[-98.50892043,21.04613075],[-98.5086588,21.04617151],[-98.50831626,21.0462114],[-98.50756538,21.04648562],[-98.50741154,21.04676012],[-98.50713897,21.04736615],[-98.50688857,21.04799428],[-98.50688628,21.04869298],[-98.50676134,21.04892554],[-98.50678465,21.04939142],[-98.50693211,21.04985765],[-98.50715383,21.05039398],[-98.50709014,21.0508826],[-98.50689451,21.05134789],[-98.5066398,21.0517412],[-98.50634189,21.05233615],[-98.50573815,21.05325671],[-98.50558555,21.05356772],[-98.50546662,21.05413843],[-98.50521165,21.05470826],[-98.50482038,21.055154],[-98.50459532,21.05554605],[-98.50432006,21.05583638],[-98.50412477,21.05595769],[-98.50392786,21.05602851],[-98.50363966,21.05608169],[-98.5031786,21.05615894],[-98.50278555,21.0562462],[-98.50242423,21.05625006],[-98.50151265,21.05583946],[-98.50091546,21.05581805],[-98.50017089,21.05600258],[-98.49947657,21.05634568],[-98.49890118,21.056559],[-98.49850266,21.05687678],[-98.49804166,21.05722657],[-98.49785348,21.05735488],[-98.49762554,21.0575298],[-98.496940677,21.057443542]]]]},"properties":{"municipality":"Huazalingo","official_key":"13026","CVE_ENT":"13","CVE_MUN":"026","geometry_kind":"municipality","source":"INEGI Gaia — Servicio vectorial del Marco Geoestadístico"}},"features":[{"type":"Feature","geometry":{"type":"MultiPolygon","crs":{"type":"name","properties":{"name":"EPSG:6365"}},"coordinates":[[[[-98.507910322,20.982451882],[-98.507841992,20.982425636],[-98.507839985,20.982424862],[-98.507927492,20.982304985],[-98.507944197,20.982262737],[-98.507944228,20.98226266],[-98.507945384,20.982259739],[-98.507752548,20.982369277],[-98.507750922,20.9823702],[-98.507440297,20.982227664],[-98.507303568,20.982164923],[-98.506790231,20.981822637],[-98.506789,20.981821816],[-98.506606385,20.981371032],[-98.506580815,20.980976647],[-98.506581432,20.980973579],[-98.506716615,20.980302539],[-98.506742318,20.980164798],[-98.506742522,20.980163709],[-98.506157644,20.980030973],[-98.5061554,20.980030463],[-98.505658092,20.980162385],[-98.505522108,20.980198463],[-98.505009969,20.980229955],[-98.504812958,20.980145615],[-98.503459308,20.979566106],[-98.503459134,20.979566031],[-98.503457446,20.979565308],[-98.503466538,20.979548446],[-98.503672323,20.979166831],[-98.504305538,20.978595738],[-98.504305861,20.978595447],[-98.50466443,20.978373155],[-98.504667536,20.978372742],[-98.504787585,20.978356755],[-98.504985589,20.978203054],[-98.504985877,20.978202832],[-98.505130252,20.977956536],[-98.505130323,20.977956416],[-98.505591003,20.977645872],[-98.505619523,20.977626647],[-98.505628742,20.977626707],[-98.505880011,20.977628343],[-98.505918435,20.97757594],[-98.506316768,20.977318383],[-98.506628481,20.977326044],[-98.506578769,20.977537012],[-98.506577853,20.977667155],[-98.506609123,20.977709644],[-98.506609061,20.977709492],[-98.506636266,20.977699558],[-98.507450923,20.977402077],[-98.507726465,20.977303382],[-98.507976307,20.977213892],[-98.508017492,20.977209324],[-98.508020225,20.977209534],[-98.508805415,20.977269785],[-98.508948643,20.977280576],[-98.509134,20.977294538],[-98.509181445,20.977297755],[-98.509182262,20.977299184],[-98.509182451,20.977299513],[-98.509217061,20.977359969],[-98.509300328,20.977721944],[-98.509343368,20.977909046],[-98.509433984,20.978246616],[-98.5096458,20.97874117],[-98.509806861,20.979090493],[-98.50980543,20.97932677],[-98.509804154,20.979539169],[-98.509800183,20.979552345],[-98.509631523,20.980111986],[-98.509636753,20.980218801],[-98.509673414,20.980392385],[-98.50966746,20.980414886],[-98.509644461,20.980501816],[-98.509640753,20.9805516],[-98.509478322,20.981025477],[-98.509441969,20.981108215],[-98.509412785,20.981161093],[-98.509197262,20.981551662],[-98.509199343,20.981551777],[-98.509199505,20.981551786],[-98.509306476,20.981557646],[-98.509305927,20.981559009],[-98.509305803,20.981559313],[-98.509161662,20.981916909],[-98.509135862,20.982024369],[-98.509052903,20.982136274],[-98.509038282,20.982155996],[-98.509037845,20.982156585],[-98.508959069,20.982140847],[-98.508956445,20.982140323],[-98.508900785,20.982160446],[-98.508853,20.982185985],[-98.508818,20.982281063],[-98.508355273,20.983532636],[-98.508353737,20.983536791],[-98.508353505,20.983537418],[-98.508353137,20.983538415],[-98.508320291,20.9834248],[-98.508319965,20.983413717],[-98.508308575,20.983024468],[-98.508306199,20.982943265],[-98.508306098,20.982939771],[-98.508306039,20.982937778],[-98.508304029,20.982869087],[-98.508297661,20.982651439],[-98.508296913,20.982625875],[-98.508296891,20.982625139],[-98.508087307,20.982519863],[-98.507910322,20.982451882]]]]},"properties":{"locality":"Huazalingo","municipality":null,"official_key":"130260001","CVE_ENT":"13","CVE_MUN":"026","CVE_LOC":"0001","ambito":"URBANO","geometry_kind":"locality","source":"INEGI Gaia — Servicio vectorial del Marco Geoestadístico"}},{"type":"Feature","geometry":{"type":"MultiPolygon","crs":{"type":"name","properties":{"name":"EPSG:6365"}},"coordinates":[[[[-98.442118226,21.042059574],[-98.442112369,21.04248858],[-98.44189542,21.042484801],[-98.441864089,21.04248426],[-98.441838719,21.04279778],[-98.441824569,21.04281303],[-98.441684879,21.042775201],[-98.441643449,21.04273252],[-98.441624859,21.042650061],[-98.44164212,21.042581891],[-98.441670919,21.04246623],[-98.44165805,21.042371381],[-98.44157888,21.042272051],[-98.441499339,21.04211702],[-98.441444859,21.04197166],[-98.44140749,21.041818081],[-98.441399979,21.04179311],[-98.44138722,21.041560121],[-98.441313366,21.041454984],[-98.441137939,21.041359986],[-98.44104398,21.041250589],[-98.440971479,21.041131181],[-98.440939139,21.04096138],[-98.440875419,21.040817741],[-98.440823599,21.040697431],[-98.440812509,21.04068155],[-98.440752029,21.04059851],[-98.440689679,21.0405094],[-98.44063908,21.040537051],[-98.440557549,21.04058775],[-98.4404094,21.040664401],[-98.4403484,21.04069595],[-98.44030054,21.04074872],[-98.440312249,21.04066405],[-98.44032698,21.040636631],[-98.44037183,21.04054328],[-98.440511289,21.0403986],[-98.44070012,21.04023075],[-98.440852709,21.04012394],[-98.44101615,21.040023863],[-98.4412386,21.039748549],[-98.441630625,21.039428827],[-98.44179686,21.03993322],[-98.441957079,21.04024983],[-98.44208295,21.04054355],[-98.442319479,21.04115009],[-98.442481191,21.041953784],[-98.442118226,21.042059574]]]]},"properties":{"locality":"Ámaxac","municipality":null,"official_key":"130260003","CVE_ENT":"13","CVE_MUN":"026","CVE_LOC":"0003","ambito":"RURAL","geometry_kind":"locality","source":"INEGI Gaia — Servicio vectorial del Marco Geoestadístico"}},{"type":"Feature","geometry":{"type":"MultiPolygon","crs":{"type":"name","properties":{"name":"EPSG:6365"}},"coordinates":[[[[-98.430496054,21.023614559],[-98.430694795,21.023880157],[-98.431352837,21.023430169],[-98.431509161,21.023436695],[-98.431960532,21.023563293],[-98.431801418,21.024074489],[-98.43125978,21.023888543],[-98.430820136,21.024070436],[-98.43109988,21.024525096],[-98.430500049,21.02497577],[-98.430033339,21.02537342],[-98.42970428,21.02568025],[-98.42922329,21.02611108],[-98.428976319,21.026338691],[-98.42863285,21.02667645],[-98.42858672,21.026769621],[-98.428482569,21.026839221],[-98.428347369,21.02692251],[-98.42758969,21.027332221],[-98.427037429,21.026747781],[-98.42662722,21.02630357],[-98.426598459,21.026230851],[-98.425983849,21.025683381],[-98.42622637,21.02541052],[-98.426628579,21.02499971],[-98.426997234,21.024626821],[-98.427400998,21.024266406],[-98.427684954,21.024104398],[-98.428122104,21.023817141],[-98.428609008,21.023486198],[-98.428681416,21.02341203],[-98.428992855,21.022941001],[-98.42994075,21.024008651],[-98.43017495,21.023846951],[-98.430496054,21.023614559]]]]},"properties":{"locality":"Cuamontax","municipality":null,"official_key":"130260007","CVE_ENT":"13","CVE_MUN":"026","CVE_LOC":"0007","ambito":"RURAL","geometry_kind":"locality","source":"INEGI Gaia — Servicio vectorial del Marco Geoestadístico"}},{"type":"Feature","geometry":{"type":"MultiPolygon","crs":{"type":"name","properties":{"name":"EPSG:6365"}},"coordinates":[[[[-98.495623992,21.023522396],[-98.495739328,21.023695148],[-98.495696412,21.023795295],[-98.495409416,21.02419588],[-98.495079504,21.024048165],[-98.494655716,21.023985572],[-98.494972216,21.023897945],[-98.494792508,21.023747726],[-98.494993673,21.023389702],[-98.495202886,21.023174387],[-98.495320903,21.02333462],[-98.495345043,21.023447286],[-98.495623992,21.023522396]]],[[[-98.497582422,21.023535017],[-98.49820834,21.023670171],[-98.497506979,21.02438165],[-98.49734155,21.024744051],[-98.497154149,21.025066311],[-98.496647979,21.02481218],[-98.496173038,21.024368491],[-98.496691867,21.023883682],[-98.497073902,21.023691802],[-98.497582422,21.023535017]]]]},"properties":{"locality":"Comala","municipality":null,"official_key":"130260009","CVE_ENT":"13","CVE_MUN":"026","CVE_LOC":"0009","ambito":"RURAL","geometry_kind":"locality","source":"INEGI Gaia — Servicio vectorial del Marco Geoestadístico"}},{"type":"Feature","geometry":{"type":"MultiPolygon","crs":{"type":"name","properties":{"name":"EPSG:6365"}},"coordinates":[[[[-98.45096245,21.01648171],[-98.451802284,21.016586942],[-98.451938829,21.016583261],[-98.452113549,21.01647158],[-98.452226709,21.016423181],[-98.45233612,21.01639571],[-98.452408649,21.016433421],[-98.452595909,21.01660585],[-98.452658059,21.01667332],[-98.452750539,21.016697371],[-98.45278888,21.016695831],[-98.452824709,21.01664623],[-98.45287814,21.01642537],[-98.452955969,21.015997551],[-98.453003339,21.01590837],[-98.45309092,21.015845091],[-98.453154349,21.015844651],[-98.45324595,21.01583014],[-98.453611689,21.01572778],[-98.453927519,21.01567605],[-98.45402039,21.016078301],[-98.454129352,21.016079946],[-98.454144437,21.016377035],[-98.454143429,21.016674126],[-98.45412394,21.016737291],[-98.454194649,21.0168686],[-98.45422422,21.01705658],[-98.454193259,21.017138721],[-98.45416149,21.01760792],[-98.454115349,21.017743891],[-98.454112599,21.018136571],[-98.453839339,21.01813383],[-98.453837399,21.018170031],[-98.453493829,21.018203481],[-98.45310389,21.018241351],[-98.45280209,21.018276491],[-98.452582119,21.01828608],[-98.452366149,21.018271541],[-98.4522382,21.01822654],[-98.452138019,21.01809815],[-98.45211305,21.01786535],[-98.451807632,21.017774103],[-98.451582599,21.017484595],[-98.451454095,21.017229202],[-98.451308011,21.017122795],[-98.451062686,21.016813585],[-98.45096245,21.01648171]]]]},"properties":{"locality":"Copaltitla","municipality":null,"official_key":"130260010","CVE_ENT":"13","CVE_MUN":"026","CVE_LOC":"0010","ambito":"RURAL","geometry_kind":"locality","source":"INEGI Gaia — Servicio vectorial del Marco Geoestadístico"}},{"type":"Feature","geometry":{"type":"MultiPolygon","crs":{"type":"name","properties":{"name":"EPSG:6365"}},"coordinates":[[[[-98.52565228,21.026190341],[-98.52570377,21.026018621],[-98.525733859,21.025882921],[-98.526110049,21.02518023],[-98.526175309,21.025079661],[-98.52622437,21.024911801],[-98.526264539,21.024693891],[-98.52627914,21.0246234],[-98.52629278,21.02454065],[-98.526305019,21.02446311],[-98.526323349,21.024347061],[-98.52634285,21.024235851],[-98.526340336,21.024113272],[-98.526337139,21.02392768],[-98.526334419,21.02376982],[-98.526326259,21.02368918],[-98.52631866,21.02358878],[-98.526304659,21.023352251],[-98.526300779,21.02323958],[-98.526294429,21.0231686],[-98.526292769,21.023133741],[-98.52629358,21.023072341],[-98.526379399,21.02274134],[-98.526323646,21.022469502],[-98.526128418,21.022227707],[-98.526145658,21.021934396],[-98.52624451,21.021748364],[-98.52648513,21.021426375],[-98.526539902,21.021193587],[-98.526496023,21.021004858],[-98.52641819,21.020726071],[-98.526320456,21.020640497],[-98.526147849,21.02058711],[-98.526129868,21.020370172],[-98.526131454,21.019786071],[-98.526204365,21.019479147],[-98.526319582,21.019352161],[-98.52659484,21.018969894],[-98.527042059,21.018697547],[-98.526951625,21.018527101],[-98.52621005,21.01850912],[-98.526295919,21.01835258],[-98.5263268,21.01814678],[-98.52633629,21.01791411],[-98.526394369,21.01792494],[-98.52662512,21.017968],[-98.52675463,21.01811606],[-98.526832079,21.01797965],[-98.526938049,21.017775151],[-98.527042879,21.017540681],[-98.52713666,21.01717665],[-98.52741329,21.016802581],[-98.527534739,21.016615171],[-98.527918229,21.016262261],[-98.527951969,21.016263031],[-98.52797314,21.016270951],[-98.528147739,21.01640582],[-98.52833237,21.01646602],[-98.52834997,21.0164284],[-98.52835195,21.016401311],[-98.52841723,21.01619005],[-98.528470919,21.016024511],[-98.528564229,21.01597815],[-98.52862086,21.016207651],[-98.52859788,21.0164538],[-98.528735979,21.01648328],[-98.528745166,21.016461038],[-98.528959169,21.016489542],[-98.529271073,21.016506777],[-98.529191223,21.016984037],[-98.52910843,21.0174018],[-98.529068949,21.0175942],[-98.5286104,21.01757537],[-98.528586357,21.017769758],[-98.528972692,21.017736306],[-98.529033366,21.018163584],[-98.529110134,21.018485702],[-98.529212706,21.018496491],[-98.529215084,21.019051053],[-98.529071762,21.019262094],[-98.528998176,21.019340436],[-98.52867475,21.019560911],[-98.52867935,21.01964642],[-98.528558519,21.019745511],[-98.528512019,21.019757321],[-98.52844889,21.0197682],[-98.52825954,21.01977229],[-98.528245279,21.019818],[-98.5281754,21.019950401],[-98.52809014,21.02003369],[-98.52791717,21.02014623],[-98.52791782,21.02022068],[-98.527864649,21.02029871],[-98.52785214,21.020446121],[-98.52789394,21.020451851],[-98.527896919,21.02056382],[-98.52788795,21.02065772],[-98.52798189,21.02066052],[-98.52811034,21.02069995],[-98.52813678,21.02083814],[-98.528498979,21.020941],[-98.528498709,21.021041171],[-98.528645241,21.021177039],[-98.52883178,21.021251911],[-98.528474297,21.022065289],[-98.528329879,21.02209218],[-98.52828917,21.022164091],[-98.52823345,21.02224208],[-98.528166109,21.02232458],[-98.52802786,21.02242949],[-98.52788097,21.022472981],[-98.5277328,21.022516431],[-98.527622999,21.022548541],[-98.527548369,21.02266083],[-98.52738175,21.022911511],[-98.527346369,21.023066941],[-98.52734475,21.023129341],[-98.527336619,21.023295511],[-98.52734468,21.02352914],[-98.52731948,21.023667881],[-98.52724042,21.02395202],[-98.52727982,21.02424875],[-98.52720418,21.024642751],[-98.52746457,21.02474715],[-98.527883,21.0250088],[-98.527656329,21.025867244],[-98.527298019,21.025946074],[-98.527140869,21.026143602],[-98.526942764,21.026253417],[-98.526532764,21.026465881],[-98.526442644,21.026583455],[-98.526355205,21.026703532],[-98.52628856,21.026744431],[-98.526010381,21.026749021],[-98.525837766,21.026708757],[-98.525700496,21.026583473],[-98.525579319,21.02658462],[-98.525475486,21.026524745],[-98.525451344,21.026512476],[-98.525520259,21.026469721],[-98.52560711,21.02627575],[-98.52565228,21.026190341]]]]},"properties":{"locality":"Chiatipán","municipality":null,"official_key":"130260013","CVE_ENT":"13","CVE_MUN":"026","CVE_LOC":"0013","ambito":"RURAL","geometry_kind":"locality","source":"INEGI Gaia — Servicio vectorial del Marco Geoestadístico"}},{"type":"Feature","geometry":{"type":"MultiPolygon","crs":{"type":"name","properties":{"name":"EPSG:6365"}},"coordinates":[[[[-98.492791198,21.051616983],[-98.492723015,21.051645058],[-98.492638569,21.051632072],[-98.492431756,21.051447538],[-98.49216341,21.051232487],[-98.491599909,21.050813545],[-98.491895106,21.050467174],[-98.492154693,21.050203611],[-98.492410115,21.050440388],[-98.492720608,21.050700656],[-98.49296543,21.050942174],[-98.49269683,21.05118528],[-98.492984022,21.051444883],[-98.492791198,21.051616983]]]]},"properties":{"locality":"Huilotitla I","municipality":null,"official_key":"130260014","CVE_ENT":"13","CVE_MUN":"026","CVE_LOC":"0014","ambito":"RURAL","geometry_kind":"locality","source":"INEGI Gaia — Servicio vectorial del Marco Geoestadístico"}},{"type":"Feature","geometry":{"type":"MultiPolygon","crs":{"type":"name","properties":{"name":"EPSG:6365"}},"coordinates":[[[[-98.49056458,20.959284881],[-98.490224619,20.959086881],[-98.490237479,20.959046141],[-98.490248829,20.959012381],[-98.490374999,20.958871181],[-98.490476199,20.95860555],[-98.49059305,20.95835438],[-98.49012235,20.957994921],[-98.490325419,20.957797951],[-98.489943779,20.95750535],[-98.489499289,20.95720352],[-98.49021943,20.956575891],[-98.490817509,20.95637049],[-98.490878999,20.956455231],[-98.49108554,20.95671946],[-98.491362879,20.956581341],[-98.491602289,20.956451261],[-98.49169486,20.95639949],[-98.492318079,20.95638382],[-98.49246752,20.95649743],[-98.49266229,20.95668249],[-98.493349909,20.95690683],[-98.493671679,20.95702925],[-98.49385578,20.957112941],[-98.49405328,20.957381601],[-98.494363999,20.957720091],[-98.49433675,20.957981201],[-98.49416135,20.957845111],[-98.493919169,20.957820341],[-98.493787079,20.957788481],[-98.493208859,20.957513481],[-98.492922569,20.95731722],[-98.49248066,20.95720175],[-98.492148617,20.957132369],[-98.492420973,20.957603771],[-98.49288109,20.95821538],[-98.493174179,20.95860326],[-98.493159059,20.95931305],[-98.492954999,20.959080261],[-98.491743627,20.959471415],[-98.491511384,20.959809419],[-98.49095118,20.959520541],[-98.49089386,20.959612051],[-98.49083189,20.959711491],[-98.490733859,20.95988285],[-98.49055272,20.959864061],[-98.490251489,20.95983285],[-98.490231719,20.959816051],[-98.49036983,20.95962185],[-98.49040571,20.959560321],[-98.49056458,20.959284881]]]]},"properties":{"locality":"Ixtlahuac","municipality":null,"official_key":"130260016","CVE_ENT":"13","CVE_MUN":"026","CVE_LOC":"0016","ambito":"RURAL","geometry_kind":"locality","source":"INEGI Gaia — Servicio vectorial del Marco Geoestadístico"}},{"type":"Feature","geometry":{"type":"MultiPolygon","crs":{"type":"name","properties":{"name":"EPSG:6365"}},"coordinates":[[[[-98.498683019,20.990836121],[-98.4983694,20.99080252],[-98.49814274,20.990768511],[-98.498287769,20.989909321],[-98.49824992,20.98939103],[-98.497994473,20.989199046],[-98.497996724,20.98903535],[-98.497926556,20.988983093],[-98.497933234,20.988897474],[-98.497966077,20.988865935],[-98.49801367,20.988444984],[-98.49855542,20.988549213],[-98.498721379,20.988236921],[-98.499307466,20.988537772],[-98.499038609,20.988650942],[-98.49900256,20.988737121],[-98.499043066,20.988887251],[-98.499161799,20.98906955],[-98.49923948,20.98911146],[-98.499508249,20.98909962],[-98.49954009,20.98915317],[-98.49954552,20.989239741],[-98.499283399,20.98949708],[-98.49917471,20.989665541],[-98.499129739,20.989773061],[-98.49911582,20.989806341],[-98.499193919,20.98982055],[-98.499320319,20.989819551],[-98.49994214,20.98979962],[-98.49982723,20.99003951],[-98.499797229,20.99023105],[-98.49980422,20.9902404],[-98.49994889,20.990248401],[-98.49998357,20.99025974],[-98.49958557,20.99038772],[-98.49952546,20.99041011],[-98.49928157,20.99062129],[-98.49904522,20.99063362],[-98.49899032,20.990660201],[-98.498940109,20.99070323],[-98.49888223,20.990766261],[-98.49879402,20.990854521],[-98.498683019,20.990836121]]]]},"properties":{"locality":"Mazahapa","municipality":null,"official_key":"130260017","CVE_ENT":"13","CVE_MUN":"026","CVE_LOC":"0017","ambito":"RURAL","geometry_kind":"locality","source":"INEGI Gaia — Servicio vectorial del Marco Geoestadístico"}},{"type":"Feature","geometry":{"type":"MultiPolygon","crs":{"type":"name","properties":{"name":"EPSG:6365"}},"coordinates":[[[[-98.461760528,21.014542755],[-98.46206698,21.014244118],[-98.462645517,21.014727822],[-98.462961893,21.015164044],[-98.463260931,21.015647735],[-98.463274011,21.015793438],[-98.463262426,21.015914758],[-98.46317643,21.016050709],[-98.46308871,21.0161948],[-98.463049188,21.016253359],[-98.462975564,21.016275823],[-98.462906626,21.016271181],[-98.462754539,21.01619643],[-98.462659804,21.016107755],[-98.462557983,21.015911057],[-98.46246674,21.015800386],[-98.462361852,21.015729928],[-98.462181385,21.015596646],[-98.461942709,21.01536457],[-98.46169806,21.015056851],[-98.461188692,21.01469608],[-98.461479537,21.014313448],[-98.461760528,21.014542755]]]]},"properties":{"locality":"Otecoch","municipality":null,"official_key":"130260018","CVE_ENT":"13","CVE_MUN":"026","CVE_LOC":"0018","ambito":"RURAL","geometry_kind":"locality","source":"INEGI Gaia — Servicio vectorial del Marco Geoestadístico"}},{"type":"Feature","geometry":{"type":"MultiPolygon","crs":{"type":"name","properties":{"name":"EPSG:6365"}},"coordinates":[[[[-98.472861236,21.034259631],[-98.473260884,21.034242107],[-98.473344032,21.034317211],[-98.473349398,21.03454753],[-98.473454004,21.034835431],[-98.473403041,21.034968114],[-98.472783451,21.034898017],[-98.472426717,21.034692732],[-98.472547416,21.034299686],[-98.472759311,21.0345976],[-98.472791498,21.034577573],[-98.472861236,21.034259631]]],[[[-98.467868122,21.034201358],[-98.468063966,21.034146717],[-98.468074275,21.034050438],[-98.4680068,21.033939139],[-98.467845031,21.03381668],[-98.467516962,21.033977115],[-98.46748972,21.03375441],[-98.46811601,21.033240346],[-98.468719724,21.032729388],[-98.468958179,21.032587551],[-98.469004749,21.032742781],[-98.46901546,21.03286118],[-98.469059749,21.032986111],[-98.469134599,21.03305843],[-98.469281019,21.03315114],[-98.469287459,21.033182691],[-98.469308449,21.033285231],[-98.469419719,21.033262971],[-98.469453709,21.033256171],[-98.46954003,21.033231751],[-98.469634079,21.03320511],[-98.46977418,21.033129111],[-98.46984677,21.03309237],[-98.469903819,21.033059281],[-98.46996957,21.03305025],[-98.47006735,21.032996081],[-98.470103519,21.032982511],[-98.47015222,21.03297883],[-98.47029198,21.03296645],[-98.47039371,21.03294958],[-98.470422005,21.032891161],[-98.470445477,21.032781953],[-98.47064061,21.032472461],[-98.47068219,21.032504393],[-98.470878999,21.032490291],[-98.471514325,21.032493097],[-98.471527674,21.032725706],[-98.471580089,21.032729651],[-98.471912056,21.032688195],[-98.472132034,21.032815441],[-98.472285819,21.032966397],[-98.472333708,21.033189496],[-98.47257857,21.03315818],[-98.47288874,21.033190321],[-98.4727111,21.033660974],[-98.472637901,21.033796905],[-98.472523872,21.033792273],[-98.472401,21.033817132],[-98.47228451,21.033875437],[-98.472163663,21.033929927],[-98.472015659,21.033983801],[-98.4718838,21.03401377],[-98.471690289,21.033994541],[-98.471635066,21.033970386],[-98.471422166,21.033951988],[-98.471208573,21.034005992],[-98.47093518,21.03408683],[-98.470726379,21.03414925],[-98.47049088,21.034157],[-98.470311249,21.03414797],[-98.4702684,21.034145551],[-98.470043309,21.03415626],[-98.46995542,21.034159097],[-98.469627212,21.034342894],[-98.469276071,21.034423057],[-98.469315534,21.034763139],[-98.469125168,21.034890213],[-98.469034044,21.03490213],[-98.469007051,21.034671312],[-98.46875632,21.03468801],[-98.468457309,21.03467717],[-98.468210419,21.03465129],[-98.467894801,21.034623611],[-98.467598467,21.0345389],[-98.46760254,21.034329013],[-98.467868122,21.034201358]]]]},"properties":{"locality":"Pilchiatipa","municipality":null,"official_key":"130260021","CVE_ENT":"13","CVE_MUN":"026","CVE_LOC":"0021","ambito":"RURAL","geometry_kind":"locality","source":"INEGI Gaia — Servicio vectorial del Marco Geoestadístico"}},{"type":"Feature","geometry":{"type":"MultiPolygon","crs":{"type":"name","properties":{"name":"EPSG:6365"}},"coordinates":[[[[-98.4832938,21.01991263],[-98.48312489,21.01999774],[-98.48297834,21.02000382],[-98.482394689,21.01949822],[-98.48226468,21.019396401],[-98.482229119,21.01936575],[-98.48220171,21.01938865],[-98.48207037,21.01929123],[-98.4823398,21.019046221],[-98.48239518,21.019010171],[-98.48265263,21.01876571],[-98.48316557,21.018360728],[-98.483793884,21.0179438],[-98.483988919,21.017856321],[-98.484047279,21.01785871],[-98.484264619,21.01767306],[-98.484672379,21.017524941],[-98.48490026,21.017488111],[-98.484992,21.01744448],[-98.485047309,21.01744465],[-98.48513786,21.017341371],[-98.48535125,21.017194631],[-98.485441629,21.01714672],[-98.48555148,21.017105891],[-98.485679249,21.017052031],[-98.48598026,21.01692343],[-98.48608586,21.01689851],[-98.486254179,21.016765111],[-98.48665545,21.01677345],[-98.48694245,21.016784371],[-98.4870474,21.01677038],[-98.487124199,21.016758781],[-98.48736722,21.01676774],[-98.487564089,21.01678611],[-98.48755588,21.016717521],[-98.48796505,21.016728581],[-98.488147059,21.01657628],[-98.488400837,21.01639435],[-98.488793509,21.016569121],[-98.48973708,21.016962571],[-98.490354059,21.017157691],[-98.49054669,21.017223481],[-98.49051657,21.017249821],[-98.49063482,21.017345261],[-98.49037234,21.01759515],[-98.49027062,21.01764743],[-98.49006454,21.017816261],[-98.49004174,21.017839801],[-98.48967554,21.01810334],[-98.48971937,21.018165231],[-98.489608719,21.01828606],[-98.48950217,21.018359801],[-98.48933151,21.018608031],[-98.489330219,21.018652431],[-98.48884185,21.019517291],[-98.48852452,21.01997992],[-98.48821995,21.020045281],[-98.48817975,21.01993206],[-98.488148849,21.01980774],[-98.487546489,21.01974165],[-98.487011319,21.019707771],[-98.48696151,21.019718231],[-98.48649217,21.02010597],[-98.48624235,21.020281151],[-98.48598423,21.02043194],[-98.485303259,21.02029517],[-98.484812519,21.02016498],[-98.484478089,21.020068691],[-98.48423254,21.020017521],[-98.48377971,21.01995025],[-98.4832938,21.01991263]]],[[[-98.489252119,21.020335651],[-98.489853849,21.02076063],[-98.48909438,21.02160028],[-98.48886263,21.02166795],[-98.488682939,21.02180208],[-98.48858365,21.02159491],[-98.48857058,21.02151034],[-98.4885612,21.02129815],[-98.488558619,21.02097735],[-98.488419709,21.02056998],[-98.489252119,21.020335651]]]]},"properties":{"locality":"San Francisco","municipality":null,"official_key":"130260023","CVE_ENT":"13","CVE_MUN":"026","CVE_LOC":"0023","ambito":"RURAL","geometry_kind":"locality","source":"INEGI Gaia — Servicio vectorial del Marco Geoestadístico"}},{"type":"Feature","geometry":{"type":"MultiPolygon","crs":{"type":"name","properties":{"name":"EPSG:6365"}},"coordinates":[[[[-98.50388609,20.98946551],[-98.503388127,20.989465598],[-98.503356869,20.989570862],[-98.503012725,20.989445823],[-98.502853066,20.988720975],[-98.502796607,20.98868367],[-98.502699782,20.988568989],[-98.502785078,20.988459832],[-98.503162206,20.988704805],[-98.503393428,20.988390888],[-98.503464271,20.988434189],[-98.503517529,20.988330996],[-98.503678077,20.988247837],[-98.503794785,20.98826173],[-98.503990878,20.988375194],[-98.504174827,20.988538225],[-98.50428951,20.98840434],[-98.504462919,20.98822463],[-98.50463331,20.988112061],[-98.50485595,20.98800551],[-98.505061029,20.987935771],[-98.50535997,20.98814071],[-98.505195769,20.98854683],[-98.504917119,20.98927425],[-98.50482249,20.98984645],[-98.5044146,20.98980062],[-98.50423929,20.98977738],[-98.50416037,20.989744851],[-98.504061249,20.989702231],[-98.503980969,20.98964277],[-98.5039352,20.98959369],[-98.50390458,20.989512321],[-98.50388609,20.98946551]]]]},"properties":{"locality":"San Juan","municipality":null,"official_key":"130260024","CVE_ENT":"13","CVE_MUN":"026","CVE_LOC":"0024","ambito":"RURAL","geometry_kind":"locality","source":"INEGI Gaia — Servicio vectorial del Marco Geoestadístico"}},{"type":"Feature","geometry":{"type":"MultiPolygon","crs":{"type":"name","properties":{"name":"EPSG:6365"}},"coordinates":[[[[-98.522803019,20.95249111],[-98.522759761,20.952233911],[-98.523145549,20.951894691],[-98.5236226,20.951580031],[-98.524194041,20.951130074],[-98.524656316,20.950716764],[-98.524872248,20.951057818],[-98.525242514,20.95055329],[-98.525779078,20.950001167],[-98.525967319,20.950071875],[-98.526525704,20.950147596],[-98.526711751,20.950211361],[-98.526730855,20.950387632],[-98.526813347,20.950685654],[-98.527005808,20.950951111],[-98.527173224,20.951150833],[-98.527627076,20.951385957],[-98.527987051,20.951608558],[-98.527836149,20.951765477],[-98.52755685,20.951589691],[-98.527502855,20.952030105],[-98.527467093,20.952054003],[-98.527428649,20.952358443],[-98.527395462,20.952627002],[-98.527368576,20.952623748],[-98.527322917,20.952921076],[-98.527084137,20.95285896],[-98.527014368,20.952806608],[-98.526954002,20.952720318],[-98.526923141,20.952646549],[-98.526820967,20.952563398],[-98.526635393,20.952352007],[-98.526552924,20.952305494],[-98.526455041,20.9522801],[-98.526366274,20.952269445],[-98.526096515,20.952237567],[-98.525950685,20.952123925],[-98.525858498,20.952195643],[-98.525526604,20.952526944],[-98.525389251,20.952514691],[-98.525161709,20.952758536],[-98.525061942,20.952803219],[-98.524990602,20.952793],[-98.524656404,20.952842894],[-98.524587712,20.952982999],[-98.524120422,20.953226609],[-98.524350503,20.953847194],[-98.524366011,20.953946774],[-98.523902669,20.953958047],[-98.523702185,20.954021922],[-98.523593577,20.954124623],[-98.523478284,20.954199774],[-98.523352304,20.954237358],[-98.52316975,20.954224272],[-98.523025911,20.954351705],[-98.522857939,20.95450668],[-98.522775079,20.9545356],[-98.522784049,20.954323681],[-98.52276417,20.95398485],[-98.522733089,20.95379249],[-98.522733799,20.953648781],[-98.52278409,20.95356255],[-98.52287875,20.953502711],[-98.522991509,20.95344046],[-98.523022539,20.953401711],[-98.52302383,20.953230821],[-98.522993029,20.953027181],[-98.522901819,20.952720741],[-98.522803019,20.95249111]]]]},"properties":{"locality":"San Pedro","municipality":null,"official_key":"130260025","CVE_ENT":"13","CVE_MUN":"026","CVE_LOC":"0025","ambito":"RURAL","geometry_kind":"locality","source":"INEGI Gaia — Servicio vectorial del Marco Geoestadístico"}},{"type":"Feature","geometry":{"type":"MultiPolygon","crs":{"type":"name","properties":{"name":"EPSG:6365"}},"coordinates":[[[[-98.467783505,20.99878037],[-98.467494137,20.998616261],[-98.467385921,20.998627166],[-98.467195703,20.998684027],[-98.466937759,20.99867954],[-98.466883431,20.998391343],[-98.466972059,20.998178481],[-98.46746883,20.99801449],[-98.467593809,20.997980287],[-98.467719722,20.997966583],[-98.467689515,20.997875319],[-98.46778877,20.99764445],[-98.467890705,20.99751124],[-98.467943804,20.997499741],[-98.468002447,20.997306125],[-98.468027232,20.997110171],[-98.468178543,20.99703727],[-98.468330334,20.997206527],[-98.46838862,20.997281981],[-98.46852486,20.99741048],[-98.468630599,20.997473431],[-98.468894859,20.997576081],[-98.46907037,20.997669461],[-98.469206177,20.997891885],[-98.468764047,20.99818644],[-98.468769624,20.99821425],[-98.469024187,20.998136633],[-98.469229751,20.998092423],[-98.469253538,20.998122126],[-98.469366358,20.998238682],[-98.46926559,20.998331094],[-98.469100449,20.998433521],[-98.468989218,20.998743977],[-98.468845886,20.998926569],[-98.468747131,20.998950005],[-98.468648379,20.998948398],[-98.468647525,20.999189687],[-98.468606439,20.999433481],[-98.468455507,20.999589823],[-98.468271723,20.999555002],[-98.468087939,20.999477614],[-98.467789357,20.999547437],[-98.467616838,20.999539632],[-98.467793489,20.999100329],[-98.467599834,20.998993237],[-98.467783505,20.99878037]]]]},"properties":{"locality":"Santa María","municipality":null,"official_key":"130260026","CVE_ENT":"13","CVE_MUN":"026","CVE_LOC":"0026","ambito":"RURAL","geometry_kind":"locality","source":"INEGI Gaia — Servicio vectorial del Marco Geoestadístico"}},{"type":"Feature","geometry":{"type":"MultiPolygon","crs":{"type":"name","properties":{"name":"EPSG:6365"}},"coordinates":[[[[-98.45268874,20.988021],[-98.452583502,20.988012884],[-98.452493566,20.987994964],[-98.452738279,20.987850772],[-98.452773461,20.987794955],[-98.452711928,20.987720718],[-98.452521905,20.987638959],[-98.452317426,20.987521878],[-98.45224201,20.987519683],[-98.452083601,20.987482275],[-98.451893008,20.987317146],[-98.451745831,20.987392805],[-98.451434866,20.987325454],[-98.451409471,20.987356891],[-98.4512902,20.987248088],[-98.451214596,20.987156535],[-98.451182421,20.987031553],[-98.451165659,20.986927058],[-98.451127442,20.986757452],[-98.451104648,20.986591033],[-98.451085898,20.986431225],[-98.451100431,20.986399844],[-98.451122328,20.986352565],[-98.451204112,20.986189465],[-98.451310038,20.986078955],[-98.451455315,20.985883748],[-98.451707661,20.985781135],[-98.451874178,20.985763669],[-98.451836448,20.985702136],[-98.451838952,20.985367635],[-98.451955166,20.985393106],[-98.45218026,20.985516008],[-98.452279289,20.985558772],[-98.452374889,20.985583121],[-98.452563923,20.985661348],[-98.452658164,20.985744684],[-98.452729775,20.985891888],[-98.452816939,20.986075921],[-98.45291255,20.986207197],[-98.453140583,20.98652332],[-98.453231117,20.986602351],[-98.453313607,20.986631296],[-98.453469985,20.986767152],[-98.453582169,20.986884594],[-98.453637682,20.987000002],[-98.453649284,20.98704984],[-98.453658202,20.987124719],[-98.453650929,20.987250447],[-98.453631628,20.987358476],[-98.453628421,20.987426436],[-98.453576025,20.987640757],[-98.453678127,20.987624998],[-98.453760745,20.987646231],[-98.453825544,20.987674695],[-98.453858768,20.987719796],[-98.453864489,20.987781816],[-98.453795023,20.987899565],[-98.453636137,20.987993852],[-98.4534762,20.987973261],[-98.45323043,20.987961551],[-98.45268874,20.988021]]],[[[-98.451847373,20.988337837],[-98.451863467,20.988460545],[-98.45184469,20.988536925],[-98.451801775,20.988583252],[-98.451925156,20.988771071],[-98.452107548,20.988913812],[-98.452051221,20.989074085],[-98.451718628,20.989281938],[-98.451538919,20.989294458],[-98.451281426,20.989352056],[-98.451045392,20.989127926],[-98.450771808,20.98895889],[-98.450681953,20.988853713],[-98.450569969,20.988773577],[-98.450413397,20.988759803],[-98.450280124,20.988312168],[-98.450823689,20.988193529],[-98.451033122,20.988350241],[-98.451156724,20.988391757],[-98.451421802,20.98825856],[-98.451421578,20.988089935],[-98.451407942,20.987931325],[-98.451582061,20.987866626],[-98.451726674,20.988142504],[-98.451847373,20.988337837]]]]},"properties":{"locality":"Santo Tomás (Cuaxahual)","municipality":null,"official_key":"130260027","CVE_ENT":"13","CVE_MUN":"026","CVE_LOC":"0027","ambito":"RURAL","geometry_kind":"locality","source":"INEGI Gaia — Servicio vectorial del Marco Geoestadístico"}},{"type":"Feature","geometry":{"type":"MultiPolygon","crs":{"type":"name","properties":{"name":"EPSG:6365"}},"coordinates":[[[[-98.492348712,21.029702421],[-98.492482544,21.029910016],[-98.492493447,21.03010082],[-98.49236999,21.030104136],[-98.492317444,21.030496708],[-98.492399317,21.030638203],[-98.492351741,21.030658881],[-98.492352092,21.030771865],[-98.492280024,21.030889854],[-98.492149539,21.0308896],[-98.492008325,21.030874324],[-98.491701033,21.030890058],[-98.491681162,21.030855214],[-98.490937418,21.031213605],[-98.490455683,21.030425455],[-98.490750041,21.030425494],[-98.491093407,21.030060263],[-98.491149279,21.030035651],[-98.4919066,21.029406401],[-98.49218272,21.02941034],[-98.49224577,21.02959188],[-98.492142739,21.029619521],[-98.492163216,21.029661967],[-98.492348712,21.029702421]]]]},"properties":{"locality":"Tepemaxac","municipality":null,"official_key":"130260033","CVE_ENT":"13","CVE_MUN":"026","CVE_LOC":"0033","ambito":"RURAL","geometry_kind":"locality","source":"INEGI Gaia — Servicio vectorial del Marco Geoestadístico"}},{"type":"Feature","geometry":{"type":"MultiPolygon","crs":{"type":"name","properties":{"name":"EPSG:6365"}},"coordinates":[[[[-98.50017494,20.97381271],[-98.500064983,20.973801267],[-98.500034244,20.973838239],[-98.499942873,20.973899153],[-98.499356574,20.97416375],[-98.499187156,20.974104739],[-98.499198578,20.974034307],[-98.499198578,20.973967682],[-98.49918528,20.9739126],[-98.49902202,20.97389926],[-98.49899543,20.9738966],[-98.49886646,20.97388368],[-98.498784462,20.9738914],[-98.498758615,20.973921754],[-98.498727631,20.973923215],[-98.498696277,20.973924701],[-98.498656231,20.9739266],[-98.498574721,20.973915122],[-98.49851632,20.97389938],[-98.49846872,20.97386228],[-98.49843388,20.97382546],[-98.49841177,20.97379134],[-98.49813682,20.97374662],[-98.49812405,20.97364786],[-98.49815808,20.97351898],[-98.49820618,20.97343845],[-98.49827455,20.97336558],[-98.49843026,20.97335722],[-98.49838609,20.97308749],[-98.49842854,20.97292998],[-98.49845009,20.97288726],[-98.49858594,20.97287357],[-98.49870152,20.97287532],[-98.49879745,20.97286077],[-98.49892077,20.97285711],[-98.49900518,20.97285472],[-98.49909145,20.97289992],[-98.49911632,20.97293083],[-98.49914345,20.97296451],[-98.4991924,20.97308809],[-98.49922365,20.97304638],[-98.49937152,20.97276645],[-98.49944755,20.97269375],[-98.49946882,20.97267272],[-98.49962074,20.97252243],[-98.4997458,20.97243166],[-98.4998548,20.97236932],[-98.49998734,20.97238437],[-98.50036223,20.97251783],[-98.5004596,20.97252571],[-98.50056888,20.97253457],[-98.5005884,20.97252883],[-98.50059572,20.97257377],[-98.50047848,20.97262602],[-98.50039618,20.97267725],[-98.50024289,20.97277217],[-98.50013128,20.97283685],[-98.50005792,20.9729048],[-98.50004078,20.97297405],[-98.5000272,20.97310338],[-98.50003735,20.97320448],[-98.50005598,20.97327454],[-98.5001056,20.97333329],[-98.50018411,20.97336151],[-98.50040203,20.97333769],[-98.50052605,20.97338615],[-98.50057851,20.97343298],[-98.50062612,20.97356854],[-98.50057271,20.97385305],[-98.50058069,20.97393968],[-98.50060574,20.97405791],[-98.50059663,20.97411292],[-98.50055912,20.97417929],[-98.50050989,20.97420458],[-98.50043795,20.9742088],[-98.50039692,20.97420322],[-98.50034992,20.97416249],[-98.50030705,20.97404145],[-98.50030057,20.97389723],[-98.50026823,20.97386288],[-98.50017494,20.97381271]]]]},"properties":{"locality":"Tetlicuil","municipality":null,"official_key":"130260036","CVE_ENT":"13","CVE_MUN":"026","CVE_LOC":"0036","ambito":"RURAL","geometry_kind":"locality","source":"INEGI Gaia — Servicio vectorial del Marco Geoestadístico"}},{"type":"Feature","geometry":{"type":"MultiPolygon","crs":{"type":"name","properties":{"name":"EPSG:6365"}},"coordinates":[[[[-98.5416264,20.97054691],[-98.54150809,20.97045391],[-98.54138337,20.97053372],[-98.54129463,20.97056437],[-98.5412314,20.97054349],[-98.54115478,20.97051509],[-98.54090703,20.97036734],[-98.54074997,20.97027157],[-98.54059871,20.97016874],[-98.54057212,20.97020895],[-98.54054851,20.97023243],[-98.54046078,20.97030343],[-98.54038354,20.97036508],[-98.54021965,20.97045548],[-98.54015622,20.97049314],[-98.54007629,20.97067558],[-98.54001109,20.97077758],[-98.54000688,20.97078449],[-98.539979,20.97085003],[-98.53994402,20.97067591],[-98.53998594,20.97047708],[-98.540028,20.9704096],[-98.54008851,20.97030118],[-98.54012628,20.97024975],[-98.54005892,20.97009162],[-98.54004309,20.96967802],[-98.54004095,20.96957886],[-98.5399954,20.96950182],[-98.53993731,20.96940491],[-98.53988502,20.96925863],[-98.53989998,20.96910486],[-98.53979883,20.96903097],[-98.53980066,20.96890568],[-98.53986512,20.96877031],[-98.53989797,20.96868582],[-98.53985592,20.96835082],[-98.5397146,20.96796151],[-98.53964868,20.96774103],[-98.5396248,20.96755609],[-98.53962702,20.967534],[-98.53963305,20.96747368],[-98.53965414,20.96744918],[-98.53972671,20.96741049],[-98.53979342,20.96744082],[-98.53985418,20.96752483],[-98.53999862,20.96805055],[-98.54003263,20.96808014],[-98.54007745,20.96808691],[-98.54013557,20.96805366],[-98.54018186,20.96800285],[-98.54024351,20.96791203],[-98.5403738,20.96785543],[-98.54048257,20.96784062],[-98.54057908,20.96782551],[-98.54066538,20.96781269],[-98.54073869,20.96782145],[-98.54085762,20.96786928],[-98.54099635,20.96794206],[-98.5413492,20.96803889],[-98.5416256,20.96817602],[-98.541635081,20.968137917],[-98.541765951,20.967961836],[-98.541868268,20.967949939],[-98.541980102,20.967954698],[-98.542084799,20.967976113],[-98.542215669,20.968014185],[-98.542296571,20.968021323],[-98.542398888,20.968021323],[-98.542536896,20.968009426],[-98.542620177,20.968004667],[-98.543010409,20.968009426],[-98.54287478,20.968204541],[-98.54288137,20.96825252],[-98.54277052,20.96846538],[-98.54280154,20.96847518],[-98.54298918,20.96853442],[-98.54324689,20.96860646],[-98.54321438,20.96867491],[-98.54316643,20.96873243],[-98.54299491,20.96894105],[-98.54291909,20.96900657],[-98.54281032,20.96901131],[-98.54272455,20.96901657],[-98.54269148,20.96906025],[-98.54261411,20.96913652],[-98.54270451,20.96911377],[-98.54283843,20.96916134],[-98.54294091,20.96923257],[-98.543087,20.96951682],[-98.54323665,20.96968655],[-98.54335305,20.96974854],[-98.54354262,20.969773],[-98.54369066,20.96974178],[-98.54384637,20.96965166],[-98.54421234,20.96943665],[-98.54435189,20.96937785],[-98.544450906,20.969380091],[-98.544453638,20.969380153],[-98.54451006,20.96943042],[-98.54449888,20.96951491],[-98.54449485,20.96954532],[-98.54441971,20.96960414],[-98.544360215,20.969627284],[-98.54421675,20.96968309],[-98.544092,20.96973342],[-98.54387957,20.96991174],[-98.54360223,20.97013982],[-98.54351549,20.97019608],[-98.54345475,20.97023398],[-98.54344369,20.97037094],[-98.54341283,20.97075289],[-98.54342451,20.97079652],[-98.54356035,20.9708614],[-98.54341029,20.97097629],[-98.54270777,20.97103242],[-98.54261803,20.97100277],[-98.54241855,20.97088368],[-98.54230857,20.97084094],[-98.54189871,20.97078118],[-98.54177737,20.97072802],[-98.5416264,20.97054691]]]]},"properties":{"locality":"Tlamamala","municipality":null,"official_key":"130260039","CVE_ENT":"13","CVE_MUN":"026","CVE_LOC":"0039","ambito":"RURAL","geometry_kind":"locality","source":"INEGI Gaia — Servicio vectorial del Marco Geoestadístico"}},{"type":"Feature","geometry":{"type":"MultiPolygon","crs":{"type":"name","properties":{"name":"EPSG:6365"}},"coordinates":[[[[-98.472525919,20.96727494],[-98.472252579,20.96717017],[-98.472164049,20.96713451],[-98.472012079,20.967080571],[-98.47173495,20.96711978],[-98.47164248,20.96713686],[-98.47125312,20.96697178],[-98.470921479,20.96645748],[-98.47081325,20.966335751],[-98.470355429,20.96599111],[-98.47003926,20.96575309],[-98.469783509,20.96562932],[-98.46930274,20.965396681],[-98.46900146,20.96524368],[-98.46896317,20.96509977],[-98.46901603,20.964862721],[-98.46904015,20.9647858],[-98.46927478,20.96452503],[-98.46965618,20.964230311],[-98.469115799,20.96400778],[-98.46899005,20.96414251],[-98.468785539,20.96406272],[-98.468519569,20.96395894],[-98.468683479,20.96357694],[-98.468528909,20.96356477],[-98.468371399,20.96355738],[-98.46847275,20.96329975],[-98.468678059,20.96307398],[-98.468732909,20.96299723],[-98.468855479,20.96291963],[-98.469250509,20.96288554],[-98.469391859,20.962759141],[-98.469999679,20.962391421],[-98.470450429,20.962164121],[-98.470579999,20.96210395],[-98.470988569,20.962153831],[-98.47142115,20.96237632],[-98.471803429,20.96261568],[-98.47210322,20.962881921],[-98.47241272,20.963167621],[-98.472469429,20.96324823],[-98.47250046,20.963292341],[-98.472539679,20.963333881],[-98.472659769,20.963554141],[-98.47276409,20.96371863],[-98.47286111,20.96391897],[-98.472894399,20.96411183],[-98.47294889,20.964227141],[-98.472942856,20.964478967],[-98.472417116,20.965027804],[-98.47280869,20.96543137],[-98.472675549,20.966394151],[-98.47279222,20.96664597],[-98.47289077,20.96678751],[-98.47292763,20.96694203],[-98.472867049,20.966939451],[-98.472649379,20.96695363],[-98.47248862,20.96694271],[-98.47238658,20.96690865],[-98.472411379,20.96693818],[-98.472421939,20.96695077],[-98.472536629,20.967061481],[-98.472654919,20.967229891],[-98.472525919,20.96727494]]]]},"properties":{"locality":"Tlatzonco","municipality":null,"official_key":"130260040","CVE_ENT":"13","CVE_MUN":"026","CVE_LOC":"0040","ambito":"RURAL","geometry_kind":"locality","source":"INEGI Gaia — Servicio vectorial del Marco Geoestadístico"}},{"type":"Feature","geometry":{"type":"MultiPolygon","crs":{"type":"name","properties":{"name":"EPSG:6365"}},"coordinates":[[[[-98.423718564,21.045154892],[-98.423599418,21.045053559],[-98.423790147,21.045092277],[-98.423785004,21.045041011],[-98.424026509,21.04463925],[-98.42404118,21.04458002],[-98.42431672,21.04412542],[-98.424589229,21.04426628],[-98.42508089,21.04453472],[-98.425285579,21.044652261],[-98.42530206,21.04465852],[-98.42556212,21.044810121],[-98.425606859,21.044763141],[-98.425737429,21.04485505],[-98.42597032,21.04494694],[-98.426097885,21.04499511],[-98.426075779,21.045121837],[-98.426075245,21.045124893],[-98.426001003,21.045262606],[-98.425917028,21.04543631],[-98.425821548,21.04560848],[-98.425698095,21.045844949],[-98.42533257,21.046146684],[-98.424853546,21.046122416],[-98.42470143,21.045990958],[-98.424487886,21.045813156],[-98.424342266,21.045688453],[-98.424264166,21.045621815],[-98.424195031,21.045563185],[-98.424033098,21.045429336],[-98.423939345,21.045350876],[-98.42386705,21.045281177],[-98.42371862,21.045154939],[-98.423718564,21.045154892]]]]},"properties":{"locality":"La Ceiba","municipality":null,"official_key":"130260041","CVE_ENT":"13","CVE_MUN":"026","CVE_LOC":"0041","ambito":"RURAL","geometry_kind":"locality","source":"INEGI Gaia — Servicio vectorial del Marco Geoestadístico"}},{"type":"Feature","geometry":{"type":"MultiPolygon","crs":{"type":"name","properties":{"name":"EPSG:6365"}},"coordinates":[[[[-98.482438149,20.9812722],[-98.482298169,20.981276821],[-98.482026179,20.981197121],[-98.48179411,20.981020541],[-98.48157937,20.98075872],[-98.48151418,20.98044666],[-98.48157092,20.98023186],[-98.48158111,20.980211001],[-98.481668179,20.98003242],[-98.48173452,20.979841851],[-98.48156352,20.979658091],[-98.481559779,20.979654061],[-98.481429969,20.97948538],[-98.48130783,20.979342171],[-98.48119326,20.979174571],[-98.480925749,20.978896351],[-98.48087212,20.978843431],[-98.48080612,20.978778341],[-98.48063577,20.978644751],[-98.480456199,20.978472521],[-98.48030754,20.97829142],[-98.48026183,20.978083861],[-98.480336249,20.97797512],[-98.48040669,20.97782308],[-98.48050294,20.97766202],[-98.48059571,20.97743845],[-98.480621169,20.977246941],[-98.4806344,20.977131981],[-98.480671219,20.97710505],[-98.48070303,20.977081771],[-98.48073871,20.977055661],[-98.48138288,20.976912031],[-98.481533709,20.977156831],[-98.481525059,20.977213771],[-98.4815106,20.977278281],[-98.48165769,20.97750005],[-98.481775659,20.97748595],[-98.48183474,20.97747532],[-98.482109649,20.977325571],[-98.482284554,20.97730325],[-98.482380859,20.97731742],[-98.4824334,20.977361251],[-98.48266226,20.978436251],[-98.48274028,20.978679351],[-98.48311226,20.97912014],[-98.48342095,20.979635091],[-98.483600109,20.979970581],[-98.483757339,20.98025569],[-98.483783179,20.980302551],[-98.483813769,20.98033226],[-98.48381528,20.980442051],[-98.483596549,20.980398601],[-98.48335302,20.98032575],[-98.483119689,20.98025314],[-98.483022859,20.98024131],[-98.48289197,20.980358351],[-98.48278734,20.98043585],[-98.482833034,20.980545819],[-98.48289839,20.980817813],[-98.482975339,20.9810963],[-98.483124598,20.98165327],[-98.483402256,20.981570317],[-98.483564992,20.982125557],[-98.483377465,20.982193234],[-98.483157484,20.982260911],[-98.483061925,20.98226175],[-98.482659006,20.981247559],[-98.48254711,20.98127897],[-98.48248311,20.981282311],[-98.482453939,20.98127574],[-98.482438149,20.9812722]]]]},"properties":{"locality":"Tzapotitla","municipality":null,"official_key":"130260043","CVE_ENT":"13","CVE_MUN":"026","CVE_LOC":"0043","ambito":"RURAL","geometry_kind":"locality","source":"INEGI Gaia — Servicio vectorial del Marco Geoestadístico"}},{"type":"Feature","geometry":{"type":"MultiPolygon","crs":{"type":"name","properties":{"name":"EPSG:6365"}},"coordinates":[[[[-98.467309271,20.993196824],[-98.46676912,20.992886921],[-98.46635463,20.992618151],[-98.466229169,20.9925154],[-98.466150679,20.992418461],[-98.466135949,20.992296151],[-98.46607594,20.992236821],[-98.46592563,20.992181121],[-98.465756199,20.992138431],[-98.465688569,20.992147981],[-98.465611819,20.99214065],[-98.46550848,20.99213168],[-98.465412849,20.99209252],[-98.465352339,20.992053711],[-98.46527045,20.9919792],[-98.46518606,20.991878121],[-98.465151679,20.99176072],[-98.465162379,20.99170095],[-98.46515526,20.99162328],[-98.465159319,20.99150334],[-98.46521434,20.991469541],[-98.465658903,20.991239288],[-98.465830543,20.991428354],[-98.465927083,20.9914271],[-98.466232814,20.991309399],[-98.466486073,20.991443485],[-98.466757714,20.991528416],[-98.467021965,20.991579118],[-98.467232619,20.99171591],[-98.467041367,20.991934813],[-98.467145158,20.992043532],[-98.467103573,20.992182343],[-98.467150501,20.992238517],[-98.467673509,20.992125488],[-98.467790446,20.992161545],[-98.467586452,20.992422414],[-98.467584351,20.992611552],[-98.467551423,20.992891022],[-98.467309271,20.993196824]]]]},"properties":{"locality":"Zoquicualoya","municipality":null,"official_key":"130260046","CVE_ENT":"13","CVE_MUN":"026","CVE_LOC":"0046","ambito":"RURAL","geometry_kind":"locality","source":"INEGI Gaia — Servicio vectorial del Marco Geoestadístico"}},{"type":"Feature","geometry":{"type":"MultiPolygon","crs":{"type":"name","properties":{"name":"EPSG:6365"}},"coordinates":[[[[-98.506242184,21.038255433],[-98.505988648,21.038454816],[-98.505753076,21.038616699],[-98.505667708,21.038638391],[-98.505625268,21.038632501],[-98.505376318,21.038641045],[-98.505054688,21.038665499],[-98.504819738,21.038669369],[-98.504611612,21.038845976],[-98.505067075,21.039421991],[-98.504586274,21.03970831],[-98.504221199,21.039114795],[-98.503933202,21.038678099],[-98.504146778,21.038306493],[-98.504338731,21.038509948],[-98.504757568,21.038233381],[-98.504866549,21.038134061],[-98.505014138,21.038045231],[-98.505199838,21.038024861],[-98.505258198,21.037993781],[-98.505613659,21.037897461],[-98.505930868,21.037796661],[-98.506216578,21.037727561],[-98.506486839,21.037661701],[-98.506719423,21.037620129],[-98.506828718,21.03803766],[-98.506242184,21.038255433]]]]},"properties":{"locality":"Ahuatitla","municipality":null,"official_key":"130260049","CVE_ENT":"13","CVE_MUN":"026","CVE_LOC":"0049","ambito":"RURAL","geometry_kind":"locality","source":"INEGI Gaia — Servicio vectorial del Marco Geoestadístico"}},{"type":"Feature","geometry":{"type":"MultiPolygon","crs":{"type":"name","properties":{"name":"EPSG:6365"}},"coordinates":[[[[-98.500951819,21.031625631],[-98.501139779,21.03138022],[-98.50117258,21.03129932],[-98.5012286,21.031202751],[-98.501254229,21.031177941],[-98.501297019,21.03113649],[-98.50140986,21.031124661],[-98.501488109,21.031164881],[-98.501521199,21.03126889],[-98.50149583,21.031458],[-98.501513419,21.031568861],[-98.501524849,21.031620981],[-98.501562489,21.03174672],[-98.501568799,21.03179969],[-98.501418969,21.031783051],[-98.501313219,21.03179263],[-98.50124183,21.03183302],[-98.501419133,21.032005511],[-98.50084945,21.032422499],[-98.500628821,21.032204534],[-98.500472276,21.032294155],[-98.500499137,21.032352066],[-98.500570555,21.032508322],[-98.500674593,21.032804253],[-98.500710779,21.03292878],[-98.500715769,21.03303215],[-98.500677979,21.03310814],[-98.50060485,21.03316649],[-98.500527049,21.03320792],[-98.50040885,21.033229231],[-98.500347579,21.03322446],[-98.50029855,21.03319212],[-98.50006602,21.032913661],[-98.49996166,21.03274618],[-98.499869519,21.032654745],[-98.499754199,21.032593599],[-98.499503335,21.032497013],[-98.499421813,21.032436406],[-98.499393858,21.032257792],[-98.499393719,21.032087831],[-98.499407303,21.03199702],[-98.4994406,21.03190797],[-98.499669149,21.031675481],[-98.499804898,21.031610272],[-98.499781785,21.031324603],[-98.500089841,21.031056097],[-98.500426884,21.031214114],[-98.500511809,21.031326537],[-98.500631602,21.031479015],[-98.500845355,21.03164245],[-98.500951819,21.031625631]]]]},"properties":{"locality":"Congreso","municipality":null,"official_key":"130260050","CVE_ENT":"13","CVE_MUN":"026","CVE_LOC":"0050","ambito":"RURAL","geometry_kind":"locality","source":"INEGI Gaia — Servicio vectorial del Marco Geoestadístico"}},{"type":"Feature","geometry":{"type":"MultiPolygon","crs":{"type":"name","properties":{"name":"EPSG:6365"}},"coordinates":[[[[-98.51903135,20.943383141],[-98.51904958,20.943666891],[-98.51910915,20.943735481],[-98.51922068,20.94377163],[-98.51935228,20.94382266],[-98.519417449,20.943872171],[-98.519413719,20.944016151],[-98.519317679,20.944172431],[-98.51916991,20.944351541],[-98.51884572,20.944632281],[-98.51857137,20.94496218],[-98.51839583,20.94522709],[-98.518262399,20.94544495],[-98.518161119,20.945605921],[-98.51804612,20.945704141],[-98.5180922,20.945503511],[-98.51814265,20.94533177],[-98.5182296,20.94513206],[-98.51834309,20.94489454],[-98.518425919,20.94465632],[-98.518444969,20.94451269],[-98.51843823,20.94437808],[-98.5184548,20.944330431],[-98.518532539,20.94428898],[-98.518585249,20.94422775],[-98.51849602,20.94412008],[-98.5183714,20.943997181],[-98.51810664,20.94369514],[-98.51781051,20.943744281],[-98.51767266,20.94334255],[-98.517488682,20.9425982],[-98.51745348,20.94230762],[-98.517622124,20.942372753],[-98.517894587,20.94194165],[-98.518047703,20.941940404],[-98.518225939,20.942099064],[-98.518337119,20.942255216],[-98.518951356,20.942123894],[-98.519085253,20.942369282],[-98.519077581,20.94280479],[-98.518992719,20.94329583],[-98.51903135,20.943383141]]]]},"properties":{"locality":"Nuevo Hidalgo","municipality":null,"official_key":"130260052","CVE_ENT":"13","CVE_MUN":"026","CVE_LOC":"0052","ambito":"RURAL","geometry_kind":"locality","source":"INEGI Gaia — Servicio vectorial del Marco Geoestadístico"}},{"type":"Feature","geometry":{"type":"MultiPolygon","crs":{"type":"name","properties":{"name":"EPSG:6365"}},"coordinates":[[[[-98.49833068,21.055500993],[-98.498562689,21.055731281],[-98.498165723,21.056022895],[-98.497799602,21.056319513],[-98.497511264,21.056105498],[-98.497269866,21.055937787],[-98.497568933,21.055526027],[-98.497519311,21.055460944],[-98.497742607,21.055191858],[-98.49799004,21.054917764],[-98.498081234,21.055158064],[-98.498193887,21.055380844],[-98.49833068,21.055500993]]]]},"properties":{"locality":"Huilotitla II","municipality":null,"official_key":"130260056","CVE_ENT":"13","CVE_MUN":"026","CVE_LOC":"0056","ambito":"RURAL","geometry_kind":"locality","source":"INEGI Gaia — Servicio vectorial del Marco Geoestadístico"}},{"type":"Feature","geometry":{"type":"Polygon","coordinates":[[[-98.5090394,20.9818778],[-98.5086315,20.9818436],[-98.5086117,20.9818477],[-98.5083728,20.9818347],[-98.5083805,20.981804],[-98.508424,20.9816438],[-98.5084922,20.9814058],[-98.5082176,20.9813289],[-98.5079747,20.9813074],[-98.5079836,20.980924],[-98.5080392,20.9804089],[-98.5081199,20.9801469],[-98.5081522,20.9800057],[-98.509006,20.9802427],[-98.5096734,20.9803924],[-98.5096445,20.9805018],[-98.5096408,20.9805516],[-98.5094783,20.9810255],[-98.509442,20.9811082],[-98.5094128,20.9811611],[-98.5091973,20.9815517],[-98.5093065,20.9815576],[-98.5091617,20.9819169],[-98.5090394,20.9818778]]]},"properties":{"locality":"BARRIO ARRIBA","official_key":"1302600010001","CVE_ENT":"13","CVE_MUN":"026","CVE_LOC":"0001","CVE_ASEN":"0001","settlement_type":"BARRIO","source":"INEGI DCAH 2025"}},{"type":"Feature","geometry":{"type":"Polygon","coordinates":[[[-98.5065284,20.9780409],[-98.5063723,20.9778794],[-98.5063419,20.977855],[-98.5062358,20.9777854],[-98.5061778,20.9777524],[-98.5060099,20.977667],[-98.50588,20.9776283],[-98.5059184,20.9775759],[-98.5063168,20.9773184],[-98.5066285,20.977326],[-98.5065788,20.977537],[-98.5065779,20.9776672],[-98.5066091,20.9777096],[-98.5066091,20.9777095],[-98.5066363,20.9776996],[-98.5074509,20.9774021],[-98.5077265,20.9773034],[-98.507763,20.9780126],[-98.5077712,20.9782866],[-98.5076014,20.9789443],[-98.5076017,20.9789634],[-98.5076019,20.978979],[-98.5075997,20.9790142],[-98.5077843,20.9791618],[-98.5074276,20.9791641],[-98.5074376,20.9792016],[-98.5074609,20.979289],[-98.5074651,20.9793699],[-98.5073532,20.9792542],[-98.5071918,20.9790976],[-98.5071121,20.9790182],[-98.5066722,20.9784111],[-98.5066109,20.9784078],[-98.5065869,20.978388],[-98.506588,20.9783458],[-98.5065932,20.9783017],[-98.5066188,20.978262],[-98.5066322,20.9782181],[-98.506621,20.9781756],[-98.5065284,20.9780409]]]},"properties":{"locality":"LAS FLORES","official_key":"1302600010002","CVE_ENT":"13","CVE_MUN":"026","CVE_LOC":"0001","CVE_ASEN":"0002","settlement_type":"BARRIO","source":"INEGI DCAH 2025"}},{"type":"Feature","geometry":{"type":"Polygon","coordinates":[[[-98.50588,20.9776283],[-98.5060099,20.977667],[-98.5061778,20.9777524],[-98.5062358,20.9777854],[-98.5063419,20.977855],[-98.5063723,20.9778794],[-98.5065284,20.9780409],[-98.506621,20.9781756],[-98.5066322,20.9782181],[-98.5066188,20.978262],[-98.5065932,20.9783017],[-98.506588,20.9783458],[-98.5065869,20.978388],[-98.5066109,20.9784078],[-98.5066722,20.9784111],[-98.5071121,20.9790182],[-98.5071918,20.9790976],[-98.5073532,20.9792542],[-98.5074651,20.9793699],[-98.5072658,20.9793832],[-98.5069396,20.9793941],[-98.5068389,20.9799072],[-98.5065708,20.9799555],[-98.5061554,20.9800305],[-98.5056581,20.9801624],[-98.5055221,20.9801985],[-98.50501,20.98023],[-98.5034574,20.9795653],[-98.5036723,20.9791668],[-98.5043059,20.9785954],[-98.5046644,20.9783732],[-98.5047876,20.9783568],[-98.5049859,20.9782028],[-98.5051303,20.9779564],[-98.5056195,20.9776266],[-98.50588,20.9776283]]]},"properties":{"locality":"GUILLERMO ROSSELL","official_key":"1302600010003","CVE_ENT":"13","CVE_MUN":"026","CVE_LOC":"0001","CVE_ASEN":"0003","settlement_type":"COLONIA","source":"INEGI DCAH 2025"}},{"type":"Feature","geometry":{"type":"Polygon","coordinates":[[[-98.5082024,20.9795117],[-98.5077843,20.9791618],[-98.5079873,20.9791943],[-98.5086431,20.9792809],[-98.5089645,20.9793186],[-98.5098054,20.9793268],[-98.5098042,20.9795392],[-98.5096315,20.980112],[-98.5096368,20.9802188],[-98.5096734,20.9803924],[-98.509006,20.9802427],[-98.5081522,20.9800057],[-98.5081847,20.9798237],[-98.5082024,20.9795117]]]},"properties":{"locality":"IGNACIO ALLENDE","official_key":"1302600010004","CVE_ENT":"13","CVE_MUN":"026","CVE_LOC":"0001","CVE_ASEN":"0004","settlement_type":"BARRIO","source":"INEGI DCAH 2025"}},{"type":"Feature","geometry":{"type":"Polygon","coordinates":[[[-98.5079763,20.9772139],[-98.5080175,20.9772093],[-98.5088054,20.9772698],[-98.5089486,20.9772806],[-98.5079873,20.9791943],[-98.5077843,20.9791618],[-98.5075997,20.9790142],[-98.5076019,20.978979],[-98.5076017,20.9789634],[-98.5076014,20.9789443],[-98.5077712,20.9782866],[-98.507763,20.9780126],[-98.5077265,20.9773034],[-98.5079763,20.9772139]]]},"properties":{"locality":"EL PANTEÓN","official_key":"1302600010005","CVE_ENT":"13","CVE_MUN":"026","CVE_LOC":"0001","CVE_ASEN":"0005","settlement_type":"BARRIO","source":"INEGI DCAH 2025"}},{"type":"Feature","geometry":{"type":"Polygon","coordinates":[[[-98.5079275,20.982305],[-98.5079454,20.9822597],[-98.5077509,20.9823702],[-98.5074403,20.9822277],[-98.5081388,20.9818791],[-98.5080126,20.9815633],[-98.5079756,20.9813493],[-98.5079747,20.9813074],[-98.5082176,20.9813289],[-98.5084922,20.9814058],[-98.508424,20.9816438],[-98.5083805,20.981804],[-98.5083728,20.9818347],[-98.5086117,20.9818477],[-98.5086315,20.9818436],[-98.5090394,20.9818778],[-98.5091617,20.9819169],[-98.5091359,20.9820244],[-98.5090378,20.9821566],[-98.5089564,20.9821403],[-98.5089008,20.9821604],[-98.508853,20.982186],[-98.508818,20.9822811],[-98.5083531,20.9835384],[-98.5083203,20.9834248],[-98.5082969,20.9826251],[-98.5080873,20.9825199],[-98.50784,20.9824249],[-98.5079275,20.982305]]]},"properties":{"locality":"LA PAZ","official_key":"1302600010006","CVE_ENT":"13","CVE_MUN":"026","CVE_LOC":"0001","CVE_ASEN":"0006","settlement_type":"BARRIO","source":"INEGI DCAH 2025"}},{"type":"Feature","geometry":{"type":"Polygon","coordinates":[[[-98.5089486,20.9772806],[-98.509134,20.9772945],[-98.5091814,20.9772978],[-98.5092171,20.97736],[-98.5093434,20.977909],[-98.509434,20.9782466],[-98.5096458,20.9787412],[-98.5098069,20.9790905],[-98.5098054,20.9793268],[-98.5089645,20.9793186],[-98.5086431,20.9792809],[-98.5079873,20.9791943],[-98.5089486,20.9772806]]]},"properties":{"locality":"EL SABINO","official_key":"1302600010007","CVE_ENT":"13","CVE_MUN":"026","CVE_LOC":"0001","CVE_ASEN":"0007","settlement_type":"BARRIO","source":"INEGI DCAH 2025"}},{"type":"Feature","geometry":{"type":"Polygon","coordinates":[[[-98.5065708,20.9799555],[-98.5068389,20.9799072],[-98.5068145,20.9801729],[-98.507259,20.9802296],[-98.5073916,20.9802446],[-98.5073428,20.9803887],[-98.5073821,20.9812668],[-98.5079747,20.9813074],[-98.5079756,20.9813493],[-98.5080126,20.9815633],[-98.5081388,20.9818791],[-98.5074403,20.9822277],[-98.5073036,20.9821649],[-98.506789,20.9818218],[-98.5066064,20.981371],[-98.5065808,20.9809766],[-98.5067166,20.9803025],[-98.5067425,20.9801637],[-98.5061554,20.9800305],[-98.5065708,20.9799555]]]},"properties":{"locality":"SAN JOSÉ","official_key":"1302600010008","CVE_ENT":"13","CVE_MUN":"026","CVE_LOC":"0001","CVE_ASEN":"0008","settlement_type":"BARRIO","source":"INEGI DCAH 2025"}},{"type":"Feature","geometry":{"type":"Polygon","coordinates":[[[-98.5074276,20.9791641],[-98.5077843,20.9791618],[-98.5082024,20.9795117],[-98.5081847,20.9798237],[-98.5081522,20.9800057],[-98.5081199,20.9801469],[-98.5080392,20.9804089],[-98.5079836,20.980924],[-98.5079747,20.9813074],[-98.5073821,20.9812668],[-98.5073428,20.9803887],[-98.5073916,20.9802446],[-98.507259,20.9802296],[-98.5068145,20.9801729],[-98.5068389,20.9799072],[-98.5069396,20.9793941],[-98.5072658,20.9793832],[-98.5074651,20.9793699],[-98.5074609,20.979289],[-98.5074376,20.9792016],[-98.5074276,20.9791641]]]},"properties":{"locality":"ZONA CENTRO","official_key":"1302600010009","CVE_ENT":"13","CVE_MUN":"026","CVE_LOC":"0001","CVE_ASEN":"0009","settlement_type":"BARRIO","source":"INEGI DCAH 2025"}}]}