{"type":"FeatureCollection","name":"inegi-hidalgo-032","metadata":{"state":"Hidalgo","CVE_ENT":"13","CVE_MUN":"032","municipality":"Jaltocán","sources":["INEGI Gaia — Servicio vectorial del Marco Geoestadístico","INEGI DCAH 2025"],"source_urls":["https://gaia.inegi.org.mx/wscatgeo/v2/geo/mgem/13","https://gaia.inegi.org.mx/wscatgeo/v2/geo/localidades/pol/13/032","https://www.inegi.org.mx/contenidos/productos/prod_serv/contenidos/espanol/bvinegi/productos/geografia/delimitaciones/794551163078/13_hidalgo.zip"],"geometry_policy":"Solo se publican polígonos de INEGI; no se generan puntos ni geometrías sintéticas.","locality_polygon_count":17,"settlement_polygon_count":7},"municipality":{"type":"Feature","geometry":{"type":"MultiPolygon","crs":{"type":"name","properties":{"name":"EPSG:6365"}},"coordinates":[[[[-98.52503583,21.19760091],[-98.52311794,21.19520971],[-98.52298054,21.19504815],[-98.52304703,21.19500775],[-98.52284088,21.19470871],[-98.5224686,21.19424534],[-98.52239885,21.19427154],[-98.52169866,21.19342965],[-98.52157366,21.19351435],[-98.52043315,21.192089492],[-98.52033552,21.19196752],[-98.520183019,21.192086563],[-98.52017075,21.19209614],[-98.520164781,21.19208635],[-98.52014485,21.19205366],[-98.520093025,21.192019612],[-98.52007818,21.19200986],[-98.519733,21.19236322],[-98.51914829,21.19163075],[-98.51897903,21.19181646],[-98.51857005,21.19132585],[-98.51905084,21.190808122],[-98.51909174,21.19076408],[-98.51905795,21.19070142],[-98.51897138,21.19060097],[-98.51888823,21.19049606],[-98.51871626,21.19029215],[-98.51868851,21.19027308],[-98.51862454,21.19019492],[-98.51854829,21.19008882],[-98.51845997,21.190121251],[-98.51777125,21.19037415],[-98.517798005,21.189351725],[-98.51780298,21.1891616],[-98.51758894,21.18905291],[-98.51773502,21.18855563],[-98.5179372,21.18792205],[-98.51819322,21.187374],[-98.518238106,21.187308783],[-98.51842354,21.18703935],[-98.518496749,21.186981135],[-98.51873902,21.18678848],[-98.51880865,21.18674951],[-98.518803858,21.186741484],[-98.518744217,21.186641583],[-98.51874385,21.18664097],[-98.51726529,21.18561417],[-98.51743302,21.18532372],[-98.51735255,21.18527086],[-98.51707188,21.18507706],[-98.51711582,21.18500548],[-98.51720243,21.18478395],[-98.51721022,21.18477054],[-98.51730815,21.18450474],[-98.51700542,21.18427826],[-98.51673212,21.18406474],[-98.51699775,21.18345095],[-98.51712369,21.18313558],[-98.5172566,21.18281652],[-98.51663365,21.18245157],[-98.51688734,21.18181222],[-98.516544,21.18166242],[-98.51677043,21.18098448],[-98.51609735,21.18068992],[-98.51610602,21.18066111],[-98.51635542,21.18000497],[-98.51568649,21.1797024],[-98.51614405,21.17915325],[-98.51543348,21.17893363],[-98.51586912,21.17838014],[-98.51611998,21.17805437],[-98.51555074,21.17765202],[-98.51562332,21.17758346],[-98.5147498,21.17673835],[-98.51467492,21.17663937],[-98.5150712,21.17653014],[-98.51535754,21.1762794],[-98.51539843,21.17570198],[-98.51576138,21.17509311],[-98.515835905,21.175019462],[-98.5161872,21.17467229],[-98.516565918,21.17454341],[-98.51676274,21.17447643],[-98.51750735,21.17480046],[-98.51821237,21.17508095],[-98.51874774,21.1752008],[-98.51897052,21.17519242],[-98.51910669,21.17520225],[-98.51930165,21.17515958],[-98.51958374,21.17507854],[-98.51974928,21.17492148],[-98.51996018,21.17439891],[-98.52004308,21.17397018],[-98.52005763,21.17381563],[-98.52015202,21.17365315],[-98.52037529,21.17280171],[-98.520296979,21.172790873],[-98.52024623,21.17278385],[-98.52000722,21.1729072],[-98.52003274,21.17270992],[-98.5201092,21.17240465],[-98.52016952,21.17230858],[-98.51948674,21.17230262],[-98.51924442,21.17233651],[-98.51911268,21.17234074],[-98.51788888,21.17250722],[-98.517757183,21.172509371],[-98.51762558,21.17251152],[-98.51709183,21.17246957],[-98.516339994,21.17232452],[-98.51606306,21.17227109],[-98.515375471,21.172077142],[-98.51416051,21.17173443],[-98.51363429,21.17163462],[-98.51328188,21.17159158],[-98.51254546,21.17169608],[-98.51250836,21.171694679],[-98.51219502,21.17168285],[-98.512179725,21.171680045],[-98.51209051,21.17166369],[-98.51112095,21.17134366],[-98.51137757,21.1705288],[-98.51096065,21.17059575],[-98.51027446,21.17035148],[-98.51015485,21.17058989],[-98.50946077,21.17051562],[-98.508771278,21.170203067],[-98.50874102,21.17018935],[-98.508556358,21.170132783],[-98.50776166,21.16988934],[-98.50704677,21.16979385],[-98.50680608,21.16975792],[-98.506785717,21.169620863],[-98.506782657,21.16960026],[-98.506779736,21.1695806],[-98.506777541,21.169565828],[-98.5067668,21.169493526],[-98.506766741,21.169493131],[-98.50676272,21.16946606],[-98.506752514,21.169404431],[-98.506735097,21.169299245],[-98.506729508,21.169265491],[-98.506661366,21.16885398],[-98.506639784,21.168723645],[-98.50663954,21.16872217],[-98.50661492,21.16857345],[-98.506501369,21.168351001],[-98.506500304,21.168348913],[-98.506441237,21.168233191],[-98.506329039,21.168013378],[-98.506326998,21.168009381],[-98.50627057,21.16789883],[-98.506240448,21.167897649],[-98.506240081,21.167897635],[-98.50608834,21.16789168],[-98.50545923,21.16792255],[-98.50501905,21.16808608],[-98.50443195,21.16835903],[-98.504296163,21.168372766],[-98.5042958,21.168372803],[-98.504247939,21.168377644],[-98.504175851,21.168384937],[-98.504175519,21.168384971],[-98.50413809,21.16838875],[-98.50342009,21.16812037],[-98.50294703,21.16803305],[-98.50267329,21.16764235],[-98.50279275,21.16670423],[-98.50250432,21.16576369],[-98.50228498,21.16515123],[-98.50197451,21.16499974],[-98.50136098,21.16493077],[-98.50075278,21.1649422],[-98.50014486,21.16494777],[-98.49950958,21.16498237],[-98.49951008,21.16491306],[-98.49910305,21.16483162],[-98.49914929,21.16470849],[-98.49905945,21.16447032],[-98.49884795,21.16407605],[-98.49909194,21.16404952],[-98.49889631,21.16369028],[-98.49864905,21.16371228],[-98.49850378,21.16379115],[-98.49825872,21.16393691],[-98.49796092,21.16395323],[-98.4978722,21.16396885],[-98.49680249,21.16438705],[-98.49659188,21.16449369],[-98.49658035,21.16406058],[-98.49657872,21.16404409],[-98.49637271,21.16370615],[-98.49631594,21.16365649],[-98.49630254,21.16355768],[-98.49607531,21.16327092],[-98.49599577,21.16306843],[-98.49589534,21.16283263],[-98.49573529,21.16253818],[-98.49568248,21.16241803],[-98.49554314,21.16200957],[-98.49553423,21.16197118],[-98.49540818,21.16152805],[-98.49587168,21.16157557],[-98.49594277,21.16061648],[-98.49555914,21.16055775],[-98.49453097,21.16045242],[-98.49473528,21.15949177],[-98.49383637,21.15941515],[-98.49391122,21.15843086],[-98.49289568,21.15824038],[-98.49222305,21.15807123],[-98.49220026,21.15805123],[-98.49247908,21.15772422],[-98.49266428,21.1574828],[-98.49307589,21.15731488],[-98.49310231,21.15725042],[-98.4931598,21.15701994],[-98.4932844,21.15679989],[-98.49378429,21.15619972],[-98.49415005,21.15573729],[-98.4932204,21.15544752],[-98.49378822,21.15453498],[-98.49386203,21.15415325],[-98.49290977,21.15410482],[-98.49308617,21.15349488],[-98.4931438,21.15328706],[-98.49323518,21.15233708],[-98.49333529,21.15182948],[-98.49326482,21.15152769],[-98.49329782,21.1507082],[-98.49313249,21.15066111],[-98.49317132,21.14969189],[-98.49316697,21.14966469],[-98.49312434,21.14871745],[-98.49317212,21.14780891],[-98.49305106,21.14776563],[-98.49304222,21.14745205],[-98.49346018,21.14639872],[-98.49281768,21.14538542],[-98.49262242,21.14533135],[-98.49233471,21.14524183],[-98.49214177,21.14522115],[-98.49189697,21.14524263],[-98.49171846,21.14524065],[-98.49143166,21.14523646],[-98.49173778,21.14390974],[-98.4918236,21.14382783],[-98.49292029,21.14330482],[-98.49387692,21.1428972],[-98.49397952,21.14286751],[-98.49423515,21.14251815],[-98.49485034,21.14163003],[-98.49512205,21.14119143],[-98.49605162,21.14041611],[-98.49704931,21.13978209],[-98.49799685,21.13903046],[-98.49859909,21.13847315],[-98.49840515,21.13775858],[-98.49897472,21.1367494],[-98.49909169,21.13568223],[-98.49952983,21.13471382],[-98.50026708,21.13344785],[-98.500675,21.1326986],[-98.50091628,21.13225635],[-98.50138809,21.13158994],[-98.50193282,21.13085155],[-98.50235903,21.13028772],[-98.50316806,21.12907325],[-98.50331611,21.12887034],[-98.50361191,21.12844077],[-98.50372037,21.1282884],[-98.50409217,21.12782269],[-98.5042018,21.12768051],[-98.50435343,21.12747008],[-98.50447415,21.1273244],[-98.50464775,21.1271326],[-98.50472618,21.12703302],[-98.50492698,21.12675505],[-98.50508511,21.1265156],[-98.50534418,21.12618865],[-98.50547131,21.12601083],[-98.50618911,21.12506665],[-98.50620852,21.12503971],[-98.50627498,21.12494242],[-98.50643917,21.12471617],[-98.50661571,21.12448637],[-98.5067482,21.12455435],[-98.50681685,21.12458091],[-98.50700435,21.12464383],[-98.50709265,21.12452868],[-98.50724437,21.12459785],[-98.50730831,21.12465174],[-98.50763171,21.1247968],[-98.50770426,21.12459917],[-98.50817363,21.12460054],[-98.50908971,21.12482162],[-98.50932251,21.12487649],[-98.50966543,21.12507149],[-98.51026052,21.12575762],[-98.51015729,21.12687725],[-98.50985668,21.12746746],[-98.50905591,21.12877172],[-98.508937034,21.12915723],[-98.50878755,21.129642],[-98.508652319,21.130449385],[-98.50865214,21.13045045],[-98.508642064,21.130840968],[-98.508640128,21.130916049],[-98.50863995,21.13092294],[-98.508650721,21.13091359],[-98.50906023,21.13055809],[-98.50907577,21.130551579],[-98.50963406,21.13031768],[-98.5102046,21.13015625],[-98.51046489,21.13003062],[-98.51072489,21.12995672],[-98.51048795,21.12955365],[-98.51053706,21.12953234],[-98.51063915,21.12950417],[-98.5107288,21.12947763],[-98.510772507,21.129464156],[-98.51082777,21.12944712],[-98.51092534,21.12942297],[-98.511008,21.12940497],[-98.5111202,21.12939026],[-98.51123702,21.12935288],[-98.51132048,21.12933325],[-98.51141977,21.12930505],[-98.51110711,21.12895857],[-98.51119095,21.12891648],[-98.51116823,21.12888597],[-98.51158203,21.12857928],[-98.51164005,21.12850546],[-98.5119016,21.12821965],[-98.51198745,21.12814094],[-98.51227291,21.12791043],[-98.51243669,21.12780577],[-98.51270898,21.12766714],[-98.51289606,21.12759855],[-98.51317494,21.12752106],[-98.51325655,21.12750134],[-98.51365203,21.12741715],[-98.5136786,21.12741689],[-98.51406002,21.12712986],[-98.51424286,21.12694862],[-98.51442795,21.12674348],[-98.51453854,21.12659172],[-98.51473374,21.12628969],[-98.51478043,21.12618615],[-98.51483654,21.12594429],[-98.51529477,21.12627202],[-98.51541008,21.12642172],[-98.51543682,21.12638942],[-98.51551722,21.12626008],[-98.51488143,21.12576911],[-98.51489583,21.12572566],[-98.51497531,21.12578409],[-98.51512685,21.12570966],[-98.51547855,21.12558469],[-98.51575706,21.12571446],[-98.51583682,21.12585963],[-98.51596246,21.12572572],[-98.51617298,21.12545529],[-98.51622492,21.12539998],[-98.51642248,21.12511102],[-98.51644537,21.12541935],[-98.51671245,21.12544057],[-98.5167914,21.12527162],[-98.51696149,21.1246018],[-98.51791257,21.12497902],[-98.51813782,21.12507525],[-98.51861875,21.12532326],[-98.51879468,21.12540762],[-98.5191626,21.125539],[-98.51952158,21.12564929],[-98.52039714,21.12577017],[-98.52136375,21.12539689],[-98.52136369,21.12537548],[-98.52129905,21.12431042],[-98.52170892,21.12290182],[-98.52200955,21.12212005],[-98.52229057,21.12128223],[-98.52253132,21.12061198],[-98.52275266,21.119774],[-98.52309318,21.11893643],[-98.52332631,21.11795026],[-98.52376234,21.11743322],[-98.52396263,21.11654528],[-98.52424082,21.11599077],[-98.52448071,21.11506592],[-98.52467885,21.11484435],[-98.52519314,21.11454963],[-98.52602575,21.11392845],[-98.52648791,21.11394545],[-98.52701885,21.1142586],[-98.5273866,21.11493657],[-98.52781422,21.1150504],[-98.52828037,21.11482314],[-98.52841448,21.11447028],[-98.52868188,21.11401391],[-98.52903158,21.11371912],[-98.53005903,21.11347877],[-98.53084195,21.11329495],[-98.5319264,21.11252995],[-98.53215911,21.11238131],[-98.53274452,21.11185678],[-98.53301405,21.11153388],[-98.53320708,21.11113883],[-98.53328535,21.11063558],[-98.53455826,21.11041403],[-98.53461703,21.11041418],[-98.53473425,21.11052472],[-98.53483169,21.11069031],[-98.53492863,21.1110212],[-98.53522202,21.11118734],[-98.53527935,21.11164671],[-98.53537606,21.11205108],[-98.53537452,21.11254703],[-98.53550968,21.11319031],[-98.53576302,21.11363185],[-98.53607571,21.11388986],[-98.53667425,21.11461854],[-98.53696974,21.114937],[-98.53764678,21.11513738],[-98.53836583,21.115457],[-98.53853646,21.11529371],[-98.53871895,21.11501042],[-98.53881091,21.11464175],[-98.5388732,21.11407435],[-98.5388754,21.11336491],[-98.53890715,21.11288257],[-98.53902972,21.11240048],[-98.53921354,21.11169151],[-98.53949538,21.11085491],[-98.54161174,21.11067174],[-98.54349272,21.11058235],[-98.54631923,21.11014328],[-98.54869269,21.10931706],[-98.54883394,21.10936595],[-98.54902515,21.10955983],[-98.54924574,21.10958002],[-98.55002652,21.10967206],[-98.54999611,21.10984657],[-98.55010811,21.1098748],[-98.55037115,21.10990455],[-98.55066428,21.11020386],[-98.55099988,21.11010392],[-98.55127332,21.11021406],[-98.55144228,21.11046798],[-98.5515252,21.1104762],[-98.55185885,21.11047791],[-98.55289674,21.11065915],[-98.55307248,21.11082709],[-98.55328286,21.11064831],[-98.55354595,21.11055282],[-98.55355705,21.11044237],[-98.55364506,21.11018698],[-98.55366058,21.11061625],[-98.5537818,21.11076151],[-98.55387198,21.11091171],[-98.55385978,21.11112646],[-98.5540906,21.11125289],[-98.55406034,21.11140492],[-98.55382478,21.11183245],[-98.55364498,21.11195026],[-98.55363977,21.11214352],[-98.55365235,21.1123884],[-98.55360171,21.11247568],[-98.55348114,21.11270925],[-98.55332362,21.11300435],[-98.55323558,21.11311606],[-98.553125,21.11336269],[-98.55314782,21.11364591],[-98.55352314,21.11365549],[-98.55360711,21.11379168],[-98.55344571,21.11386614],[-98.55343314,21.11393677],[-98.55464475,21.11403048],[-98.55533275,21.11437086],[-98.55505835,21.11492965],[-98.5550188,21.11510343],[-98.55495963,21.1152396],[-98.55484275,21.11553485],[-98.55487465,21.1156114],[-98.55464248,21.11629708],[-98.55447255,21.11658618],[-98.55431657,21.11710734],[-98.55414086,21.11730775],[-98.55384871,21.11768438],[-98.55367128,21.11789831],[-98.55314035,21.11839997],[-98.55301785,21.11861658],[-98.55294572,21.11878917],[-98.55272911,21.11963558],[-98.55238898,21.12008231],[-98.55227078,21.12027169],[-98.55188626,21.120883],[-98.55174306,21.12125692],[-98.55165235,21.12137892],[-98.55169782,21.12139038],[-98.55144372,21.12172909],[-98.55140488,21.12178132],[-98.55187174,21.12153443],[-98.55210629,21.12141245],[-98.55247554,21.12125823],[-98.55288588,21.12107109],[-98.55316502,21.12094346],[-98.55323711,21.12095242],[-98.5533754,21.12100408],[-98.55367975,21.12115163],[-98.55380377,21.12118463],[-98.55418425,21.12110637],[-98.55453752,21.12098975],[-98.55470645,21.12099734],[-98.55530637,21.12110392],[-98.55523582,21.12114345],[-98.55460955,21.12195183],[-98.55322835,21.12380592],[-98.55320958,21.12393577],[-98.55320995,21.124113509],[-98.55321018,21.124223851],[-98.553210181,21.124224263],[-98.553210294,21.124277156],[-98.5532114,21.12479505],[-98.55258049,21.12559162],[-98.55232088,21.12576514],[-98.552304832,21.12580439],[-98.552215363,21.126023214],[-98.552214691,21.126024856],[-98.55215306,21.12617562],[-98.552121928,21.126267612],[-98.55199989,21.12662823],[-98.55190411,21.126927689],[-98.551903504,21.126929586],[-98.55173348,21.12746117],[-98.5507472,21.12859374],[-98.55073705,21.12863866],[-98.55065066,21.12900942],[-98.550430961,21.129416351],[-98.55026017,21.12973269],[-98.55032966,21.12983366],[-98.55003228,21.13054572],[-98.54997715,21.13127878],[-98.549953,21.13136078],[-98.549942266,21.131400061],[-98.549886181,21.131605295],[-98.5497874,21.13196677],[-98.549792345,21.131984086],[-98.549832727,21.132125495],[-98.55019386,21.13339011],[-98.550200064,21.133409023],[-98.55021358,21.13345023],[-98.550225232,21.133475897],[-98.55101303,21.13521114],[-98.55111602,21.13511352],[-98.5511842,21.13517198],[-98.55119108,21.13517789],[-98.551224097,21.135268062],[-98.551224278,21.135268557],[-98.55123532,21.13529871],[-98.55114805,21.13550846],[-98.55140311,21.13593538],[-98.5515198,21.13598977],[-98.55164645,21.13613315],[-98.551790578,21.136619065],[-98.55180332,21.13666202],[-98.55179558,21.136700491],[-98.551795566,21.136700561],[-98.55172403,21.13705683],[-98.55180908,21.13741565],[-98.55178522,21.137554],[-98.55239888,21.13794792],[-98.553182211,21.138593504],[-98.553182427,21.138593682],[-98.55325291,21.13865177],[-98.55324983,21.13872029],[-98.55360771,21.13925248],[-98.55383766,21.13949149],[-98.55411031,21.14012746],[-98.55415063,21.14031222],[-98.55437028,21.14082391],[-98.55447749,21.14091863],[-98.55447166,21.14108458],[-98.55439571,21.14136975],[-98.55443389,21.14158538],[-98.554413749,21.141594571],[-98.554413447,21.141594709],[-98.55439063,21.14160512],[-98.55435657,21.14184138],[-98.55435185,21.14205586],[-98.55435366,21.14207382],[-98.55437163,21.14228666],[-98.55447917,21.1430678],[-98.55469166,21.14236034],[-98.55487817,21.14297874],[-98.55535606,21.14394428],[-98.55568972,21.14436371],[-98.55577791,21.14474065],[-98.55570918,21.14532645],[-98.555708,21.14572406],[-98.55545863,21.14565889],[-98.55535574,21.14629625],[-98.55536088,21.14649185],[-98.55567466,21.14690568],[-98.55582729,21.14709649],[-98.55601914,21.14747243],[-98.55601714,21.14757385],[-98.55606868,21.14845811],[-98.55602038,21.14864317],[-98.55594429,21.14878506],[-98.55616838,21.1494744],[-98.55637986,21.15018385],[-98.55762583,21.15158122],[-98.55767474,21.15172317],[-98.55835137,21.15220698],[-98.55916775,21.15318851],[-98.55921749,21.15329325],[-98.55989322,21.15410762],[-98.56142525,21.15448812],[-98.56142698,21.15451854],[-98.56146335,21.15512222],[-98.56107626,21.15639658],[-98.56084255,21.15635609],[-98.56077077,21.15641778],[-98.56051165,21.15659708],[-98.55948763,21.15636502],[-98.55938986,21.15635806],[-98.55862431,21.15640345],[-98.55861138,21.15646589],[-98.5585956,21.15688988],[-98.55845329,21.15740794],[-98.55740451,21.15737689],[-98.55739469,21.15761682],[-98.55665975,21.15753926],[-98.55661392,21.15723803],[-98.55595223,21.15748428],[-98.5561454,21.15778828],[-98.556063,21.15782203],[-98.55603737,21.15797283],[-98.55551218,21.15851163],[-98.55524811,21.15876052],[-98.55509026,21.15904763],[-98.55505965,21.15915238],[-98.55506015,21.15949617],[-98.55473177,21.15958462],[-98.55433851,21.15969723],[-98.55411902,21.15976666],[-98.55387866,21.15984485],[-98.55361815,21.15994434],[-98.55343408,21.16002008],[-98.55180422,21.16055425],[-98.55181505,21.16063142],[-98.55193189,21.16132582],[-98.55128342,21.16150095],[-98.55086431,21.16164743],[-98.55073623,21.16168758],[-98.55012369,21.16182894],[-98.54960837,21.16198338],[-98.54971249,21.16263926],[-98.54913348,21.16281545],[-98.5491384,21.16283617],[-98.54855406,21.16301962],[-98.54867202,21.16368728],[-98.54834065,21.16377574],[-98.5480126,21.16386657],[-98.5480084,21.16402442],[-98.54814308,21.16530558],[-98.54819506,21.16555112],[-98.54874668,21.16620454],[-98.54919288,21.16674966],[-98.54918158,21.16676772],[-98.549253,21.1668588],[-98.54926934,21.16688237],[-98.54938169,21.16699378],[-98.5494732,21.16711088],[-98.54957051,21.16723971],[-98.54988835,21.16762006],[-98.54990935,21.16762286],[-98.55022732,21.16799212],[-98.55109269,21.16899069],[-98.55121351,21.16914023],[-98.5515534,21.16953091],[-98.55003182,21.1710696],[-98.54993082,21.17098486],[-98.54954831,21.17139551],[-98.54946978,21.17148717],[-98.54944868,21.17147211],[-98.54878277,21.17171312],[-98.54875291,21.17185682],[-98.54827609,21.17250249],[-98.54812843,21.1727092],[-98.54799995,21.17287814],[-98.54727238,21.17238135],[-98.54710274,21.17227931],[-98.54693252,21.17217426],[-98.54630845,21.17375614],[-98.54594928,21.17354458],[-98.54567391,21.17431757],[-98.545420563,21.174196318],[-98.54485749,21.17392683],[-98.54396806,21.17364228],[-98.54390549,21.17397538],[-98.544164,21.17433011],[-98.54424989,21.17499494],[-98.544031202,21.175289306],[-98.54400857,21.17531977],[-98.54285175,21.17564271],[-98.54281226,21.17559134],[-98.54255954,21.17580518],[-98.54217295,21.17623358],[-98.54184815,21.17618289],[-98.54165722,21.17627835],[-98.54118703,21.1765832],[-98.54115892,21.17684843],[-98.54126515,21.17712998],[-98.54145645,21.17741348],[-98.54163809,21.17779645],[-98.54155068,21.1784432],[-98.54149517,21.17894708],[-98.54127278,21.17932091],[-98.54105432,21.17951126],[-98.54058608,21.17979311],[-98.54020862,21.1801302],[-98.53997428,21.18065283],[-98.54004908,21.18105332],[-98.54014463,21.18147423],[-98.53991369,21.18218018],[-98.53952432,21.18289269],[-98.53916051,21.18325003],[-98.53872522,21.18335317],[-98.53827915,21.18332312],[-98.53789792,21.18325468],[-98.53723128,21.18325288],[-98.5368364,21.18331737],[-98.536815541,21.183321154],[-98.53638035,21.18340008],[-98.536018492,21.183441971],[-98.53599622,21.18344455],[-98.535905856,21.183424131],[-98.5356366,21.18336329],[-98.535317785,21.183239479],[-98.53522648,21.18320402],[-98.535205897,21.183196028],[-98.53501863,21.18312331],[-98.534722213,21.182993446],[-98.534650885,21.182962198],[-98.534650848,21.182962185],[-98.53450666,21.182899],[-98.53419942,21.182765063],[-98.534176284,21.182754977],[-98.534150392,21.182743689],[-98.534056333,21.182702685],[-98.533802236,21.182591914],[-98.53366611,21.18253257],[-98.53349597,21.182495706],[-98.53318649,21.18242865],[-98.5327892,21.18243292],[-98.532723591,21.182443677],[-98.53225502,21.18252051],[-98.532253694,21.182520639],[-98.53175729,21.18256905],[-98.53096505,21.18264494],[-98.53050431,21.18263449],[-98.52997678,21.182463],[-98.52937131,21.18228974],[-98.52872028,21.18250758],[-98.52788382,21.182923],[-98.52772169,21.1831586],[-98.52769186,21.18349025],[-98.52772072,21.18429515],[-98.527733599,21.184614613],[-98.527740036,21.184774257],[-98.52776831,21.18547555],[-98.52765963,21.18583865],[-98.52739632,21.18587255],[-98.52691129,21.18586155],[-98.52636514,21.18586243],[-98.52571575,21.18574132],[-98.5252574,21.18563786],[-98.52478951,21.18535471],[-98.5245512,21.18497043],[-98.52440628,21.18447902],[-98.5242464,21.18380408],[-98.52411254,21.18349528],[-98.52393511,21.18322538],[-98.52368788,21.18318652],[-98.52334557,21.18325851],[-98.52315132,21.18363958],[-98.52296368,21.18431329],[-98.52281698,21.1850248],[-98.52268812,21.18562008],[-98.52257458,21.18646518],[-98.52253957,21.18699612],[-98.5224824,21.18757625],[-98.52266817,21.18807232],[-98.52286663,21.18837702],[-98.52316135,21.18850203],[-98.52361831,21.18867503],[-98.52506937,21.19081035],[-98.52530845,21.19108228],[-98.52725672,21.19344055],[-98.52892298,21.19545055],[-98.52851892,21.19574934],[-98.52812931,21.1960062],[-98.52773054,21.19628751],[-98.52732248,21.19656729],[-98.52716385,21.19666606],[-98.52671623,21.19700708],[-98.52649552,21.19717523],[-98.52633225,21.19728652],[-98.52618255,21.19742543],[-98.52581109,21.19748428],[-98.52555205,21.1974016],[-98.52511251,21.19772002],[-98.52503583,21.19760091]]]]},"properties":{"municipality":"Jaltocán","official_key":"13032","CVE_ENT":"13","CVE_MUN":"032","geometry_kind":"municipality","source":"INEGI Gaia — Servicio vectorial del Marco Geoestadístico"}},"features":[{"type":"Feature","geometry":{"type":"MultiPolygon","crs":{"type":"name","properties":{"name":"EPSG:6365"}},"coordinates":[[[[-98.533698871,21.14207887],[-98.532094422,21.141624771],[-98.532043784,21.141696062],[-98.531997937,21.141727815],[-98.531961582,21.1417343],[-98.531914723,21.141719877],[-98.531906645,21.141675908],[-98.531901122,21.141567092],[-98.531879431,21.141338908],[-98.531700308,21.140833431],[-98.531613737,21.140700615],[-98.531443246,21.140468738],[-98.531423646,21.1403588],[-98.531464785,21.140221308],[-98.531799943,21.140078827],[-98.531982091,21.139935923],[-98.532088369,21.139813277],[-98.532285538,21.139455292],[-98.532544957,21.139070596],[-98.532852881,21.138724505],[-98.533250785,21.138389477],[-98.533529138,21.138063092],[-98.53390863,21.137779785],[-98.534249818,21.137233965],[-98.5344282,21.137066462],[-98.534677692,21.136789292],[-98.534932399,21.136377692],[-98.535164554,21.135780169],[-98.535457265,21.135444859],[-98.535789277,21.135058477],[-98.536005325,21.134776731],[-98.536257231,21.134013615],[-98.536602789,21.133602259],[-98.537090858,21.133161327],[-98.537187172,21.133051581],[-98.537481662,21.132711323],[-98.537759231,21.132386292],[-98.537983831,21.1322748],[-98.537964338,21.132240132],[-98.537964308,21.132240077],[-98.537903495,21.132189865],[-98.537792502,21.13211292],[-98.537571507,21.131908431],[-98.537317476,21.131735631],[-98.53729726,21.131716523],[-98.536868122,21.131611863],[-98.536738891,21.131569263],[-98.536650567,21.131521308],[-98.536643302,21.131510361],[-98.536597877,21.131441893],[-98.536509125,21.131239439],[-98.536304109,21.130890654],[-98.536549118,21.130496156],[-98.536776838,21.129921412],[-98.5367796,21.129914446],[-98.536888361,21.129319877],[-98.537721799,21.127964615],[-98.538435431,21.12821407],[-98.538433814,21.128194432],[-98.538676071,21.127841468],[-98.538664876,21.127231369],[-98.538672045,21.12719644],[-98.539909222,21.126789687],[-98.539740085,21.12673159],[-98.539559661,21.126669623],[-98.539912461,21.126336324],[-98.540016275,21.126190663],[-98.540046752,21.126138431],[-98.540064645,21.126105138],[-98.540165338,21.12594617],[-98.540195,21.125864923],[-98.540215276,21.125808446],[-98.540279844,21.125628569],[-98.540390568,21.125488278],[-98.540587076,21.125091508],[-98.540619414,21.125026232],[-98.541546671,21.124064702],[-98.54159003,21.124051662],[-98.54164498,21.123973376],[-98.541453906,21.123844063],[-98.541462629,21.123619324],[-98.541571461,21.123380293],[-98.541693739,21.123154501],[-98.541759522,21.123033032],[-98.541883953,21.122856878],[-98.542053816,21.122662509],[-98.54208607,21.122625603],[-98.542112165,21.122595743],[-98.542179877,21.122558216],[-98.54242498,21.122389927],[-98.542707784,21.122168024],[-98.542882292,21.122033862],[-98.542944754,21.122001015],[-98.542982676,21.121991093],[-98.5431716,21.121748138],[-98.543202262,21.121708709],[-98.543479322,21.121495738],[-98.543755337,21.121193816],[-98.543774765,21.121112443],[-98.543850199,21.120905877],[-98.544003598,21.120814938],[-98.544311445,21.120871877],[-98.544348516,21.120887977],[-98.5444846,21.120947077],[-98.544599584,21.121004323],[-98.544604376,21.121090938],[-98.544574622,21.121192109],[-98.544546729,21.121286954],[-98.544468923,21.121469815],[-98.544439431,21.121594293],[-98.544441001,21.121609447],[-98.544443123,21.121629893],[-98.544562122,21.121642277],[-98.544711061,21.121685923],[-98.544753414,21.121690493],[-98.544792769,21.121771471],[-98.544798983,21.121819279],[-98.544810769,21.121909969],[-98.544787546,21.122107431],[-98.544775507,21.122287016],[-98.544746723,21.122452647],[-98.544727269,21.122665436],[-98.544606952,21.122892723],[-98.544569073,21.122986869],[-98.544491645,21.123178063],[-98.544363575,21.123607836],[-98.544340248,21.12364578],[-98.544661123,21.123810663],[-98.544670337,21.124185901],[-98.544876337,21.124189133],[-98.544868414,21.124569462],[-98.54485726,21.124636677],[-98.544895675,21.124684109],[-98.544930398,21.124723785],[-98.544963369,21.124748832],[-98.544999987,21.124777327],[-98.545040784,21.124817877],[-98.545103461,21.12486057],[-98.545192969,21.124883738],[-98.545284767,21.124913432],[-98.545319567,21.124942986],[-98.545339185,21.124997577],[-98.545341322,21.125057585],[-98.545331845,21.125114277],[-98.545314252,21.125161138],[-98.545284031,21.125208739],[-98.545229399,21.125234877],[-98.545176827,21.125256673],[-98.545111128,21.125272006],[-98.545025171,21.125298773],[-98.544950632,21.125308864],[-98.54484686,21.125313882],[-98.544765074,21.125331951],[-98.544667428,21.12536686],[-98.544565065,21.125407194],[-98.544468738,21.125459029],[-98.544514271,21.125554997],[-98.544596129,21.125645094],[-98.544738337,21.125725183],[-98.544846972,21.125783767],[-98.544969897,21.125833709],[-98.545076569,21.125871226],[-98.545234815,21.125923778],[-98.545427067,21.125977907],[-98.545710392,21.126001647],[-98.546022461,21.125992732],[-98.546166306,21.126002877],[-98.545913907,21.126227046],[-98.545637434,21.126502536],[-98.545437045,21.126708969],[-98.545275078,21.126932103],[-98.545253,21.127020113],[-98.545229452,21.127113986],[-98.545145261,21.127654046],[-98.545018277,21.128133201],[-98.544920922,21.128312108],[-98.544886091,21.128371047],[-98.544784871,21.128528235],[-98.544291329,21.128931387],[-98.544533508,21.129430608],[-98.544772658,21.129923579],[-98.545254014,21.130915754],[-98.54476476,21.132094106],[-98.544275498,21.133272455],[-98.543709796,21.134251412],[-98.543144076,21.135230386],[-98.543107444,21.135238386],[-98.542029508,21.135479892],[-98.540951554,21.135721394],[-98.540316845,21.136110277],[-98.540139768,21.137151123],[-98.539962699,21.138191975],[-98.539926339,21.138208534],[-98.540013154,21.138853546],[-98.539696092,21.138788169],[-98.538970138,21.139386292],[-98.537766246,21.140371477],[-98.537704153,21.140396615],[-98.537616815,21.140426062],[-98.537456845,21.140462631],[-98.536668153,21.1407598],[-98.535691262,21.141379262],[-98.534697877,21.1420106],[-98.534656646,21.142020162],[-98.534087011,21.142055076],[-98.533698871,21.14207887]]]]},"properties":{"locality":"Jaltocán","municipality":null,"official_key":"130320001","CVE_ENT":"13","CVE_MUN":"032","CVE_LOC":"0001","ambito":"URBANO","geometry_kind":"locality","source":"INEGI Gaia — Servicio vectorial del Marco Geoestadístico"}},{"type":"Feature","geometry":{"type":"MultiPolygon","crs":{"type":"name","properties":{"name":"EPSG:6365"}},"coordinates":[[[[-98.505216892,21.137339269],[-98.505233993,21.137275927],[-98.504987817,21.137066009],[-98.50477919,21.13689612],[-98.50503735,21.136602716],[-98.505069715,21.136606833],[-98.505653184,21.13599596],[-98.506043535,21.135552702],[-98.506203912,21.135718174],[-98.506360429,21.135840163],[-98.506457714,21.135912675],[-98.506501593,21.135837648],[-98.506539665,21.135777205],[-98.506746304,21.13545969],[-98.506869338,21.135259605],[-98.506942721,21.135249683],[-98.50696246,21.135204735],[-98.506999766,21.135123676],[-98.507092303,21.13499231],[-98.507156554,21.135165032],[-98.507261036,21.135365276],[-98.507413922,21.135545404],[-98.507538173,21.135647563],[-98.507519785,21.135723106],[-98.507514809,21.135748614],[-98.507426296,21.135891686],[-98.507452069,21.135916804],[-98.507352303,21.136191424],[-98.507227055,21.136483556],[-98.507139359,21.136596185],[-98.50702216,21.136682547],[-98.506881636,21.136751447],[-98.506711107,21.136749884],[-98.506667983,21.136733311],[-98.506624651,21.137050413],[-98.506517272,21.137211561],[-98.506412576,21.137340189],[-98.506339736,21.137451958],[-98.505963803,21.137318555],[-98.505846797,21.137537539],[-98.505761863,21.137595387],[-98.50566506,21.137580934],[-98.505514852,21.137506744],[-98.505216892,21.137339269]]]]},"properties":{"locality":"Amáxac I","municipality":null,"official_key":"130320002","CVE_ENT":"13","CVE_MUN":"032","CVE_LOC":"0002","ambito":"RURAL","geometry_kind":"locality","source":"INEGI Gaia — Servicio vectorial del Marco Geoestadístico"}},{"type":"Feature","geometry":{"type":"MultiPolygon","crs":{"type":"name","properties":{"name":"EPSG:6365"}},"coordinates":[[[[-98.525325922,21.153090857],[-98.524803295,21.153077575],[-98.524635044,21.153021594],[-98.5241559,21.153113044],[-98.524084127,21.153134787],[-98.524009348,21.153372043],[-98.523962731,21.153510489],[-98.523907732,21.153673986],[-98.523716142,21.154129804],[-98.523610263,21.154347543],[-98.523525921,21.15457443],[-98.523283181,21.154554418],[-98.523259047,21.154314459],[-98.523214003,21.154077514],[-98.523200927,21.153773576],[-98.523183126,21.153641931],[-98.523168893,21.153543278],[-98.523172506,21.153456428],[-98.523225275,21.153418005],[-98.523153089,21.153397545],[-98.523167956,21.153310394],[-98.523343699,21.153188646],[-98.523601891,21.153058982],[-98.523339385,21.153001655],[-98.522977636,21.153119431],[-98.52261728,21.153228674],[-98.522613703,21.153092835],[-98.522607428,21.152502712],[-98.522590422,21.151962616],[-98.522530185,21.151677184],[-98.522511303,21.15136119],[-98.522466722,21.151035007],[-98.522648636,21.150744069],[-98.522839022,21.150619547],[-98.522983816,21.150529157],[-98.523081698,21.150392376],[-98.523179584,21.150250593],[-98.523381605,21.150036153],[-98.523583628,21.149845474],[-98.523652307,21.149677444],[-98.523712994,21.149520136],[-98.523791417,21.14932134],[-98.523952988,21.149552812],[-98.524035749,21.149651678],[-98.524118659,21.149737738],[-98.524225708,21.149801284],[-98.524311059,21.149863338],[-98.524487669,21.149964269],[-98.524621794,21.150054506],[-98.524731772,21.150178424],[-98.52476933,21.150199779],[-98.524883896,21.149956489],[-98.525008031,21.14972509],[-98.525128777,21.149491794],[-98.525160406,21.149317382],[-98.525187249,21.149185356],[-98.525226664,21.149086115],[-98.525283839,21.14896395],[-98.525357106,21.148910578],[-98.525444147,21.148868771],[-98.525522185,21.148759484],[-98.525659231,21.148822803],[-98.525666897,21.148804636],[-98.525795264,21.148840253],[-98.525869605,21.148886472],[-98.525980739,21.148938884],[-98.526063529,21.148966161],[-98.526086955,21.149043227],[-98.52610153,21.149155989],[-98.52611342,21.149313779],[-98.526107699,21.14945425],[-98.526031882,21.149962833],[-98.525868257,21.149915702],[-98.525860201,21.149973636],[-98.52581995,21.150059487],[-98.525818912,21.150355514],[-98.525797758,21.150491442],[-98.525661269,21.150498543],[-98.525554131,21.150485834],[-98.525465772,21.15046812],[-98.52545894,21.150539048],[-98.525461368,21.150613362],[-98.525476958,21.15068194],[-98.525502768,21.150766567],[-98.52556512,21.150850766],[-98.525601309,21.150939118],[-98.525628462,21.151045398],[-98.525622088,21.151096644],[-98.525672039,21.151267963],[-98.525692487,21.151344223],[-98.525637481,21.151384108],[-98.525688403,21.15143886],[-98.525720435,21.151499028],[-98.525782641,21.151632364],[-98.525767062,21.151775706],[-98.52556772,21.15212605],[-98.525517711,21.152212751],[-98.525467701,21.152245668],[-98.525501792,21.152309005],[-98.52552706,21.152370636],[-98.525550769,21.152428862],[-98.525564997,21.152484181],[-98.525516191,21.152618296],[-98.525469542,21.152721428],[-98.525325922,21.153090857]]]]},"properties":{"locality":"La Capilla","municipality":null,"official_key":"130320003","CVE_ENT":"13","CVE_MUN":"032","CVE_LOC":"0003","ambito":"RURAL","geometry_kind":"locality","source":"INEGI Gaia — Servicio vectorial del Marco Geoestadístico"}},{"type":"Feature","geometry":{"type":"MultiPolygon","crs":{"type":"name","properties":{"name":"EPSG:6365"}},"coordinates":[[[[-98.543482082,21.158281642],[-98.544088608,21.15775042],[-98.544381141,21.157634269],[-98.544402643,21.157675583],[-98.544759507,21.157469338],[-98.544843219,21.157645088],[-98.544881051,21.157664798],[-98.545019326,21.157604615],[-98.545174595,21.157527973],[-98.54532718,21.157423814],[-98.545586383,21.158034431],[-98.545452459,21.158153385],[-98.545431095,21.158158456],[-98.545415048,21.158166934],[-98.545336267,21.158225178],[-98.545248103,21.158277793],[-98.544730113,21.158079958],[-98.544715199,21.158083596],[-98.544363077,21.15843436],[-98.544028392,21.158767614],[-98.544043054,21.159241464],[-98.544052019,21.159525478],[-98.544152024,21.159599553],[-98.543889932,21.159955031],[-98.543232558,21.160427455],[-98.543030219,21.160727333],[-98.542689093,21.160614841],[-98.542271244,21.160482402],[-98.542300024,21.160143075],[-98.542052898,21.160127245],[-98.542025714,21.160455352],[-98.541987131,21.160639003],[-98.541946381,21.16080587],[-98.541845281,21.160926462],[-98.54145667,21.161392141],[-98.541152393,21.161755675],[-98.541096143,21.161896169],[-98.54106802,21.162023322],[-98.541062003,21.162198832],[-98.540982554,21.162394144],[-98.540793965,21.162773198],[-98.540678214,21.163005248],[-98.540591965,21.163178516],[-98.539949968,21.162708452],[-98.540168702,21.162368257],[-98.540481918,21.161762928],[-98.540838049,21.161083806],[-98.541232603,21.160349629],[-98.541403179,21.160069144],[-98.541434825,21.160061473],[-98.541511668,21.159965713],[-98.541670315,21.159848693],[-98.541942147,21.159847736],[-98.542138413,21.159898535],[-98.542192288,21.159816376],[-98.542307854,21.159710453],[-98.542381072,21.159622348],[-98.542393781,21.15956765],[-98.542459877,21.159443852],[-98.542593988,21.159214936],[-98.542607207,21.159199264],[-98.542625791,21.159187344],[-98.542729199,21.159063925],[-98.542898321,21.158795425],[-98.543024594,21.158685605],[-98.543171472,21.158576398],[-98.543351878,21.158405908],[-98.543482082,21.158281642]]]]},"properties":{"locality":"Cuatecomaco","municipality":null,"official_key":"130320004","CVE_ENT":"13","CVE_MUN":"032","CVE_LOC":"0004","ambito":"RURAL","geometry_kind":"locality","source":"INEGI Gaia — Servicio vectorial del Marco Geoestadístico"}},{"type":"Feature","geometry":{"type":"MultiPolygon","crs":{"type":"name","properties":{"name":"EPSG:6365"}},"coordinates":[[[[-98.509140384,21.153280337],[-98.509098079,21.153437267],[-98.509027612,21.153587944],[-98.50880708,21.153763368],[-98.508558682,21.153926124],[-98.508251274,21.154111392],[-98.508458996,21.154404637],[-98.507931794,21.154712892],[-98.507857939,21.15484739],[-98.507761798,21.154904138],[-98.507300669,21.154882482],[-98.507252598,21.154280489],[-98.5072333,21.153867307],[-98.507051993,21.153900914],[-98.507044909,21.153832931],[-98.506883116,21.153801442],[-98.506693162,21.153657385],[-98.506483093,21.153175865],[-98.506824054,21.153167333],[-98.506830141,21.153012741],[-98.50723964,21.15301965],[-98.507322585,21.152993026],[-98.507361376,21.15294094],[-98.507387476,21.152802329],[-98.507416619,21.152554168],[-98.507423815,21.15249325],[-98.507419595,21.152388594],[-98.507467291,21.152379988],[-98.507439394,21.152330332],[-98.507464336,21.152227958],[-98.507495985,21.152168108],[-98.507520435,21.152095996],[-98.507524614,21.152033672],[-98.507528793,21.151940081],[-98.507668359,21.151935893],[-98.507775297,21.151938507],[-98.507870759,21.151987114],[-98.50804309,21.152174347],[-98.508174273,21.15215202],[-98.508313501,21.152129692],[-98.508512278,21.152133841],[-98.508791965,21.152115179],[-98.508996547,21.152106522],[-98.509183091,21.152092962],[-98.509261213,21.152278218],[-98.509439748,21.152627875],[-98.509493561,21.152746144],[-98.509515865,21.152824567],[-98.509556945,21.152926754],[-98.509380182,21.153015993],[-98.509236812,21.153096885],[-98.509140384,21.153280337]]]]},"properties":{"locality":"El Chote","municipality":null,"official_key":"130320005","CVE_ENT":"13","CVE_MUN":"032","CVE_LOC":"0005","ambito":"RURAL","geometry_kind":"locality","source":"INEGI Gaia — Servicio vectorial del Marco Geoestadístico"}},{"type":"Feature","geometry":{"type":"MultiPolygon","crs":{"type":"name","properties":{"name":"EPSG:6365"}},"coordinates":[[[[-98.503662221,21.15787629],[-98.503673224,21.157616921],[-98.503755305,21.157236235],[-98.503680732,21.157229731],[-98.503806464,21.156600091],[-98.504032317,21.156616704],[-98.504197235,21.156618615],[-98.504392875,21.156567704],[-98.504467997,21.156526547],[-98.504440161,21.156470232],[-98.504535532,21.156262058],[-98.5047204,21.155884684],[-98.504824934,21.155621426],[-98.504921969,21.155486385],[-98.505097264,21.155470518],[-98.505279653,21.155547183],[-98.505473339,21.155742494],[-98.505659823,21.155774563],[-98.505800263,21.155835509],[-98.505948749,21.155916467],[-98.506158055,21.156065292],[-98.506243053,21.15617931],[-98.506312956,21.156463683],[-98.506270161,21.156703977],[-98.506281667,21.156745757],[-98.506124195,21.157395378],[-98.50602108,21.157644086],[-98.505781431,21.157762092],[-98.50584036,21.157856153],[-98.505455463,21.157985315],[-98.505438027,21.158023176],[-98.505227683,21.158057357],[-98.504997788,21.158088831],[-98.504857748,21.158091539],[-98.504636649,21.158063916],[-98.504318319,21.158087148],[-98.504069863,21.158094526],[-98.503833465,21.158095348],[-98.503750525,21.158008332],[-98.503662221,21.15787629]]]]},"properties":{"locality":"Matachilillo","municipality":null,"official_key":"130320008","CVE_ENT":"13","CVE_MUN":"032","CVE_LOC":"0008","ambito":"RURAL","geometry_kind":"locality","source":"INEGI Gaia — Servicio vectorial del Marco Geoestadístico"}},{"type":"Feature","geometry":{"type":"MultiPolygon","crs":{"type":"name","properties":{"name":"EPSG:6365"}},"coordinates":[[[[-98.523665051,21.17102039],[-98.523596379,21.171048711],[-98.522769315,21.170978019],[-98.522733626,21.170869496],[-98.522727382,21.170780143],[-98.522892339,21.170755132],[-98.523023276,21.170791115],[-98.523150458,21.170806217],[-98.523278821,21.170860127],[-98.523360102,21.170829497],[-98.523233864,21.170792953],[-98.52323334,21.170591544],[-98.523122598,21.170440436],[-98.523022584,21.170369366],[-98.522612472,21.170251451],[-98.522520743,21.170095064],[-98.522327092,21.169738581],[-98.522308052,21.169642582],[-98.522245584,21.169496516],[-98.522212621,21.169390468],[-98.522249404,21.169314513],[-98.522168552,21.169284039],[-98.522015284,21.169030957],[-98.521881278,21.168778817],[-98.521718792,21.168509728],[-98.521558989,21.168295665],[-98.521451433,21.168136304],[-98.521406344,21.168040166],[-98.521331129,21.167803424],[-98.521320284,21.167711754],[-98.521324518,21.167439388],[-98.521310543,21.167300704],[-98.521327694,21.167081287],[-98.521588927,21.167091984],[-98.522075183,21.167165906],[-98.522038021,21.167519272],[-98.522016951,21.167722564],[-98.522490647,21.167752386],[-98.522726218,21.167740273],[-98.522860521,21.167764069],[-98.523037646,21.167878516],[-98.52331401,21.16804549],[-98.523640419,21.168242834],[-98.523751002,21.168227316],[-98.523990014,21.168266489],[-98.524138463,21.168376378],[-98.524125036,21.168454368],[-98.524057289,21.168558278],[-98.524108014,21.168543223],[-98.524329177,21.168503178],[-98.52438941,21.168865831],[-98.524263189,21.169283951],[-98.524166363,21.169785421],[-98.52416073,21.170111807],[-98.524130886,21.170253713],[-98.52403818,21.170332168],[-98.524112527,21.170421421],[-98.524127864,21.170635732],[-98.524015535,21.170774018],[-98.523892477,21.17109489],[-98.523665051,21.17102039]]]]},"properties":{"locality":"Octatitla","municipality":null,"official_key":"130320009","CVE_ENT":"13","CVE_MUN":"032","CVE_LOC":"0009","ambito":"RURAL","geometry_kind":"locality","source":"INEGI Gaia — Servicio vectorial del Marco Geoestadístico"}},{"type":"Feature","geometry":{"type":"MultiPolygon","crs":{"type":"name","properties":{"name":"EPSG:6365"}},"coordinates":[[[[-98.521485951,21.158241038],[-98.521214417,21.158331198],[-98.520936922,21.158424321],[-98.520571661,21.158497595],[-98.520402923,21.158506853],[-98.519828101,21.158532189],[-98.519635777,21.158645503],[-98.519230282,21.158657355],[-98.518792171,21.15873582],[-98.518593234,21.158844466],[-98.517660937,21.159210836],[-98.517116335,21.159347121],[-98.516362577,21.1594828],[-98.515743631,21.159673832],[-98.515945116,21.159391641],[-98.516058185,21.159173824],[-98.516118742,21.159039903],[-98.516238876,21.158724054],[-98.516401924,21.158369433],[-98.516530414,21.158065316],[-98.516618194,21.157792615],[-98.516700608,21.157512408],[-98.516845439,21.157180028],[-98.516948699,21.156996952],[-98.517043917,21.156891031],[-98.517126394,21.156833069],[-98.517274584,21.1567676],[-98.517443547,21.156765712],[-98.517595747,21.156786337],[-98.518470801,21.157008325],[-98.518651147,21.157051451],[-98.518778872,21.157088022],[-98.519445721,21.157264671],[-98.519838668,21.157368531],[-98.520054592,21.157454881],[-98.520340894,21.157598388],[-98.520517571,21.157680145],[-98.520566846,21.157665601],[-98.520708957,21.157521122],[-98.520941392,21.157277004],[-98.521018262,21.157130441],[-98.521064283,21.156920279],[-98.521236158,21.156848969],[-98.521075437,21.156712621],[-98.52114329,21.156582264],[-98.521354639,21.156263051],[-98.521466606,21.156116459],[-98.521632216,21.156016144],[-98.521781703,21.156053251],[-98.521725228,21.155917118],[-98.522167718,21.155738369],[-98.522323162,21.155655262],[-98.522468884,21.155561847],[-98.522599854,21.155498447],[-98.522693733,21.155442636],[-98.522774202,21.15538057],[-98.522881136,21.155259448],[-98.523022937,21.155119566],[-98.523275405,21.155151502],[-98.523193352,21.155353738],[-98.523059511,21.155639684],[-98.522948571,21.155840522],[-98.522950413,21.15586485],[-98.523079393,21.155943666],[-98.523151909,21.155984136],[-98.523363827,21.156077976],[-98.523475139,21.156136836],[-98.523585376,21.156176997],[-98.523817495,21.156187044],[-98.523895436,21.156184524],[-98.523916018,21.156207423],[-98.523961417,21.156261973],[-98.523971519,21.156205677],[-98.524075498,21.156199406],[-98.524310252,21.156155575],[-98.524420998,21.156134502],[-98.524542474,21.156119683],[-98.524718859,21.156007437],[-98.524818515,21.156005367],[-98.524876683,21.156423543],[-98.524910712,21.156646608],[-98.524727621,21.157293342],[-98.524587235,21.157791019],[-98.524471112,21.158205358],[-98.524523074,21.158234877],[-98.524424832,21.158361951],[-98.523910903,21.159054146],[-98.523375515,21.159721321],[-98.522781283,21.159945094],[-98.522617167,21.15973298],[-98.522628988,21.159643806],[-98.522579912,21.159661127],[-98.522246523,21.159198187],[-98.522120376,21.159027909],[-98.521940648,21.158803364],[-98.521768977,21.158571024],[-98.521626808,21.158376206],[-98.521485951,21.158241038]]]]},"properties":{"locality":"Vinazco","municipality":null,"official_key":"130320013","CVE_ENT":"13","CVE_MUN":"032","CVE_LOC":"0013","ambito":"RURAL","geometry_kind":"locality","source":"INEGI Gaia — Servicio vectorial del Marco Geoestadístico"}},{"type":"Feature","geometry":{"type":"MultiPolygon","crs":{"type":"name","properties":{"name":"EPSG:6365"}},"coordinates":[[[[-98.532927456,21.1762018],[-98.532859342,21.176105428],[-98.532808522,21.176236695],[-98.532729538,21.176245409],[-98.532718021,21.176385246],[-98.532647918,21.176550609],[-98.532564996,21.176547107],[-98.532527849,21.176468399],[-98.532532091,21.176394278],[-98.532571999,21.176247427],[-98.532632693,21.176145281],[-98.532659096,21.175998515],[-98.532674094,21.175843088],[-98.53269149,21.175649718],[-98.532907256,21.175701013],[-98.532994278,21.175308362],[-98.533021147,21.175178663],[-98.533066524,21.174944326],[-98.533094315,21.17480838],[-98.533149826,21.17460733],[-98.533167785,21.174528461],[-98.533131613,21.174399861],[-98.533096129,21.174344227],[-98.533047233,21.1741948],[-98.533011814,21.174111247],[-98.532985374,21.174022469],[-98.532971006,21.173898675],[-98.533143827,21.173963296],[-98.533654573,21.17416444],[-98.533447402,21.174466766],[-98.533397053,21.174609102],[-98.533330586,21.175008593],[-98.533314702,21.175191299],[-98.533281751,21.175393834],[-98.533272428,21.175519711],[-98.533267912,21.175694766],[-98.533302853,21.175970906],[-98.533240251,21.176279068],[-98.53309282,21.176259021],[-98.532987375,21.176232959],[-98.532927456,21.1762018]]]]},"properties":{"locality":"Ahuayo","municipality":null,"official_key":"130320014","CVE_ENT":"13","CVE_MUN":"032","CVE_LOC":"0014","ambito":"RURAL","geometry_kind":"locality","source":"INEGI Gaia — Servicio vectorial del Marco Geoestadístico"}},{"type":"Feature","geometry":{"type":"MultiPolygon","crs":{"type":"name","properties":{"name":"EPSG:6365"}},"coordinates":[[[[-98.519329687,21.187537735],[-98.519464959,21.187258067],[-98.519540476,21.187300474],[-98.519828039,21.187408959],[-98.520013923,21.18759355],[-98.520261669,21.187693598],[-98.520463552,21.187682218],[-98.521018056,21.187725693],[-98.52125592,21.187926171],[-98.52144923,21.188146031],[-98.521450758,21.188374056],[-98.521418954,21.188576233],[-98.521410317,21.188693345],[-98.52137002,21.188935512],[-98.521368549,21.189249694],[-98.521547683,21.189305013],[-98.521613427,21.189352161],[-98.521644301,21.189403061],[-98.52153099,21.189740182],[-98.521444162,21.189918745],[-98.521290277,21.190348643],[-98.521153513,21.190759041],[-98.521043876,21.19070337],[-98.520953016,21.190630192],[-98.520860646,21.190523269],[-98.520756208,21.190380081],[-98.520706921,21.190278771],[-98.520619903,21.190257209],[-98.520510008,21.190093252],[-98.520372585,21.190017524],[-98.52018822,21.189938047],[-98.519941552,21.189686475],[-98.519782056,21.189502424],[-98.519622067,21.189288578],[-98.519433911,21.189060974],[-98.51912329,21.188782873],[-98.518881478,21.188490642],[-98.518850218,21.188430994],[-98.519121031,21.1879169],[-98.519135728,21.187880295],[-98.519329687,21.187537735]]]]},"properties":{"locality":"La Ilusión","municipality":null,"official_key":"130320016","CVE_ENT":"13","CVE_MUN":"032","CVE_LOC":"0016","ambito":"RURAL","geometry_kind":"locality","source":"INEGI Gaia — Servicio vectorial del Marco Geoestadístico"}},{"type":"Feature","geometry":{"type":"MultiPolygon","crs":{"type":"name","properties":{"name":"EPSG:6365"}},"coordinates":[[[[-98.508334695,21.134542987],[-98.508042333,21.134566754],[-98.508130846,21.134220254],[-98.508289098,21.134038875],[-98.508577434,21.133872504],[-98.508715568,21.133875006],[-98.508455394,21.13415896],[-98.508416502,21.134277797],[-98.508372245,21.134394129],[-98.508358834,21.134452922],[-98.508334695,21.134542987]]],[[[-98.508147853,21.135894897],[-98.508105183,21.135897414],[-98.508056227,21.135921867],[-98.507713848,21.135771776],[-98.507664187,21.135652238],[-98.507650748,21.13563411],[-98.507627461,21.135630993],[-98.5075603,21.135633174],[-98.507456308,21.135523695],[-98.507385927,21.135438991],[-98.507299578,21.135321226],[-98.507242014,21.135241342],[-98.507090727,21.134947348],[-98.507130951,21.134859192],[-98.507152311,21.134673045],[-98.50716026,21.134640757],[-98.507202583,21.134597404],[-98.507287418,21.134544745],[-98.507382844,21.134517972],[-98.5073888,21.134487845],[-98.507381344,21.134442708],[-98.507537017,21.13421605],[-98.507880261,21.134333576],[-98.50789963,21.134415017],[-98.507903281,21.134552684],[-98.507842559,21.134685347],[-98.507821399,21.134720249],[-98.507866372,21.134768888],[-98.507984642,21.134841989],[-98.508020283,21.134852654],[-98.508244978,21.134923423],[-98.50822272,21.135093112],[-98.508235903,21.135110212],[-98.508271015,21.135123792],[-98.508742408,21.135208587],[-98.508587468,21.135993327],[-98.508147853,21.135894897]]]]},"properties":{"locality":"Amáxac II","municipality":null,"official_key":"130320020","CVE_ENT":"13","CVE_MUN":"032","CVE_LOC":"0020","ambito":"RURAL","geometry_kind":"locality","source":"INEGI Gaia — Servicio vectorial del Marco Geoestadístico"}},{"type":"Feature","geometry":{"type":"MultiPolygon","crs":{"type":"name","properties":{"name":"EPSG:6365"}},"coordinates":[[[[-98.508967553,21.133384408],[-98.508997661,21.1332565],[-98.508984319,21.133261939],[-98.508926017,21.133285697],[-98.508812522,21.133189517],[-98.508810329,21.133190616],[-98.508787888,21.133201868],[-98.508779031,21.133186022],[-98.508712291,21.133066613],[-98.508600429,21.132978577],[-98.508577826,21.132960789],[-98.508347248,21.132779322],[-98.508340309,21.132773859],[-98.508373496,21.13274431],[-98.50853084,21.132611836],[-98.508575533,21.132604451],[-98.50864346,21.132569667],[-98.508731035,21.132495096],[-98.508755979,21.132416005],[-98.508843418,21.132372909],[-98.508953377,21.132261798],[-98.509116131,21.132467011],[-98.509299508,21.132743886],[-98.509387836,21.132863019],[-98.509448611,21.132930701],[-98.50947796,21.132999224],[-98.509500602,21.133097769],[-98.509488219,21.133193533],[-98.509427907,21.13330318],[-98.509260308,21.133470369],[-98.509175526,21.133560404],[-98.508956221,21.13346353],[-98.508967553,21.133384408]]]]},"properties":{"locality":"Tepexicuicuil","municipality":null,"official_key":"130320021","CVE_ENT":"13","CVE_MUN":"032","CVE_LOC":"0021","ambito":"RURAL","geometry_kind":"locality","source":"INEGI Gaia — Servicio vectorial del Marco Geoestadístico"}},{"type":"Feature","geometry":{"type":"MultiPolygon","crs":{"type":"name","properties":{"name":"EPSG:6365"}},"coordinates":[[[[-98.523295939,21.172011954],[-98.522952693,21.172162594],[-98.522507529,21.172061606],[-98.521869914,21.171864949],[-98.521901334,21.171785903],[-98.522408437,21.171892007],[-98.522428938,21.171639826],[-98.522285774,21.171569987],[-98.522291345,21.171477412],[-98.5223398,21.171351069],[-98.522405386,21.171242672],[-98.522468964,21.171130117],[-98.522567823,21.170937008],[-98.522600968,21.170853951],[-98.52268519,21.170855907],[-98.522714427,21.170957909],[-98.52276911,21.171082728],[-98.522827173,21.171170823],[-98.522918669,21.171341714],[-98.523016801,21.171487228],[-98.523220747,21.171461949],[-98.523413836,21.171461986],[-98.523527187,21.171470194],[-98.523628219,21.171517988],[-98.523697974,21.171595846],[-98.523734159,21.171655737],[-98.523804672,21.171816406],[-98.523966899,21.171820312],[-98.52395137,21.171901263],[-98.523935841,21.171972208],[-98.523958509,21.172048294],[-98.523967338,21.172159549],[-98.524012484,21.172270137],[-98.523967905,21.1724472],[-98.523899954,21.172637586],[-98.523659969,21.17248176],[-98.523502648,21.1724158],[-98.523364145,21.172351403],[-98.52329404,21.172289508],[-98.523329467,21.172182033],[-98.523329467,21.172123255],[-98.523295939,21.172011954]]]]},"properties":{"locality":"Potrero Zactipán","municipality":null,"official_key":"130320024","CVE_ENT":"13","CVE_MUN":"032","CVE_LOC":"0024","ambito":"RURAL","geometry_kind":"locality","source":"INEGI Gaia — Servicio vectorial del Marco Geoestadístico"}},{"type":"Feature","geometry":{"type":"MultiPolygon","crs":{"type":"name","properties":{"name":"EPSG:6365"}},"coordinates":[[[[-98.522194143,21.173183539],[-98.522034394,21.173128047],[-98.521819739,21.172986211],[-98.521692503,21.172860864],[-98.521550598,21.172689442],[-98.521502327,21.172588381],[-98.521455861,21.172492829],[-98.521400268,21.172350035],[-98.521524149,21.172277319],[-98.521523552,21.172230214],[-98.521640014,21.172082332],[-98.521796816,21.171882809],[-98.52205877,21.171973811],[-98.522495635,21.172081674],[-98.522722617,21.172134511],[-98.522672661,21.172301464],[-98.522642821,21.172373372],[-98.522699148,21.172397131],[-98.522828565,21.17230709],[-98.523051188,21.172181096],[-98.523190662,21.172096994],[-98.523263753,21.172100745],[-98.523267105,21.172140763],[-98.52326107,21.17219704],[-98.523228575,21.172292675],[-98.523196189,21.172376259],[-98.523118191,21.172625263],[-98.523074806,21.17276177],[-98.523019089,21.173027117],[-98.522951946,21.173242502],[-98.522908275,21.173415367],[-98.522698455,21.173350724],[-98.522709847,21.173316862],[-98.522493991,21.173244927],[-98.522470181,21.17328924],[-98.522194143,21.173183539]]]]},"properties":{"locality":"Anacleto Ramos","municipality":null,"official_key":"130320025","CVE_ENT":"13","CVE_MUN":"032","CVE_LOC":"0025","ambito":"RURAL","geometry_kind":"locality","source":"INEGI Gaia — Servicio vectorial del Marco Geoestadístico"}},{"type":"Feature","geometry":{"type":"MultiPolygon","crs":{"type":"name","properties":{"name":"EPSG:6365"}},"coordinates":[[[[-98.545360258,21.170886168],[-98.54546438,21.170925886],[-98.54548277,21.170915679],[-98.545565258,21.170933165],[-98.545695051,21.170981078],[-98.545517439,21.171254965],[-98.545461719,21.171354232],[-98.545168447,21.171247211],[-98.545230363,21.171131704],[-98.545360258,21.170886168]]]]},"properties":{"locality":"Cuatzatzas","municipality":null,"official_key":"130320028","CVE_ENT":"13","CVE_MUN":"032","CVE_LOC":"0028","ambito":"RURAL","geometry_kind":"locality","source":"INEGI Gaia — Servicio vectorial del Marco Geoestadístico"}},{"type":"Feature","geometry":{"type":"MultiPolygon","crs":{"type":"name","properties":{"name":"EPSG:6365"}},"coordinates":[[[[-98.542219331,21.174591156],[-98.542201054,21.174507748],[-98.542343425,21.174348855],[-98.542523961,21.174159442],[-98.542640062,21.174215104],[-98.542745432,21.174283272],[-98.542952966,21.174417411],[-98.543144631,21.174147226],[-98.543397678,21.174230887],[-98.54323135,21.174747272],[-98.54304694,21.175033715],[-98.543107025,21.175095298],[-98.542993523,21.175229822],[-98.542841922,21.175074537],[-98.542764243,21.175023104],[-98.542666048,21.175026387],[-98.542567853,21.174972145],[-98.542429282,21.174837975],[-98.54231887,21.174725064],[-98.542219331,21.174591156]]]]},"properties":{"locality":"Tzinancatitla","municipality":null,"official_key":"130320029","CVE_ENT":"13","CVE_MUN":"032","CVE_LOC":"0029","ambito":"RURAL","geometry_kind":"locality","source":"INEGI Gaia — Servicio vectorial del Marco Geoestadístico"}},{"type":"Feature","geometry":{"type":"MultiPolygon","crs":{"type":"name","properties":{"name":"EPSG:6365"}},"coordinates":[[[[-98.508953377,21.132261798],[-98.508843418,21.132372909],[-98.508755979,21.132416005],[-98.508731035,21.132495096],[-98.50864346,21.132569667],[-98.508575533,21.132604451],[-98.50853084,21.132611836],[-98.508373496,21.13274431],[-98.508178617,21.132580879],[-98.508076692,21.13200796],[-98.508130338,21.131862854],[-98.508119609,21.131577643],[-98.508602406,21.131415023],[-98.508656049,21.131802809],[-98.50868019,21.13188537],[-98.508790161,21.132055496],[-98.508953377,21.132261798]]]]},"properties":{"locality":"Emiliano Zapata","municipality":null,"official_key":"130320040","CVE_ENT":"13","CVE_MUN":"032","CVE_LOC":"0040","ambito":"RURAL","geometry_kind":"locality","source":"INEGI Gaia — Servicio vectorial del Marco Geoestadístico"}},{"type":"Feature","geometry":{"type":"Polygon","coordinates":[[[-98.5372764,21.1331181],[-98.5371872,21.1330516],[-98.5374817,21.1327113],[-98.5377592,21.1323863],[-98.5379838,21.1322748],[-98.5379643,21.1322401],[-98.5379035,21.1321899],[-98.5379704,21.1320901],[-98.5380868,21.1319626],[-98.5382182,21.1318339],[-98.5387887,21.1313891],[-98.5391869,21.1311613],[-98.5395143,21.1309638],[-98.5397842,21.1307493],[-98.5398935,21.1305852],[-98.5399672,21.1304397],[-98.5400548,21.130193],[-98.5401092,21.1298623],[-98.5401659,21.1296427],[-98.5403756,21.1293124],[-98.5404804,21.1291815],[-98.5408653,21.1287682],[-98.5409755,21.1285876],[-98.5410141,21.1284125],[-98.5410764,21.1277967],[-98.5411747,21.1276052],[-98.5413884,21.1273372],[-98.5417396,21.1277853],[-98.541902,21.1274456],[-98.5419616,21.1273351],[-98.5425398,21.1275341],[-98.5428412,21.1275888],[-98.5431486,21.127635],[-98.5431918,21.127643],[-98.5433328,21.1276204],[-98.543491,21.1275946],[-98.5435793,21.1275808],[-98.5437507,21.1275487],[-98.5438687,21.1275283],[-98.5440099,21.1278085],[-98.544151,21.1277834],[-98.5441785,21.1278014],[-98.544219,21.1278363],[-98.5443336,21.1279275],[-98.5444256,21.1279988],[-98.5444738,21.1280357],[-98.5445808,21.1281209],[-98.5446516,21.1281786],[-98.5447428,21.1282552],[-98.5447837,21.1282865],[-98.544813,21.12831],[-98.5448461,21.1283359],[-98.5448861,21.128371],[-98.5447849,21.1285282],[-98.5442913,21.1289314],[-98.5445335,21.1294306],[-98.5441562,21.1297253],[-98.5438441,21.1300047],[-98.5436379,21.1302668],[-98.5433565,21.1306747],[-98.5430812,21.1310943],[-98.542739,21.1316498],[-98.5424037,21.1315493],[-98.5423108,21.1315286],[-98.5421878,21.1315105],[-98.542115,21.131503],[-98.542024,21.1315003],[-98.5418063,21.1314878],[-98.5417036,21.1314856],[-98.541247,21.1315062],[-98.541163,21.131549],[-98.5410288,21.1316265],[-98.5407774,21.131746],[-98.5406484,21.1318055],[-98.540438,21.1319271],[-98.540352,21.1319485],[-98.540216,21.1319402],[-98.5401366,21.1319242],[-98.5397368,21.1317063],[-98.5393675,21.1321649],[-98.5392395,21.1323552],[-98.5390471,21.1325757],[-98.5390076,21.1326012],[-98.5387173,21.1328663],[-98.5385786,21.1329868],[-98.5383072,21.1332775],[-98.5382434,21.133224],[-98.5381685,21.1331578],[-98.5380857,21.1330934],[-98.5380605,21.1330871],[-98.5379664,21.1331926],[-98.5378827,21.1332818],[-98.53779,21.1333847],[-98.5377324,21.1334465],[-98.5375255,21.133301],[-98.5374618,21.1332468],[-98.5373887,21.1331945],[-98.5372764,21.1331181]]]},"properties":{"locality":"CHALAHUITZINTLA","official_key":"1303200010001","CVE_ENT":"13","CVE_MUN":"032","CVE_LOC":"0001","CVE_ASEN":"0001","settlement_type":"BARRIO","source":"INEGI DCAH 2025"}},{"type":"Feature","geometry":{"type":"Polygon","coordinates":[[[-98.5365979,21.1314419],[-98.5365091,21.1312394],[-98.5363041,21.1308907],[-98.5365491,21.1304962],[-98.5367768,21.1299214],[-98.5367796,21.1299144],[-98.5368884,21.1293199],[-98.5377218,21.1279646],[-98.5384354,21.1282141],[-98.5384338,21.1281944],[-98.5386761,21.1278415],[-98.5386649,21.1272314],[-98.538672,21.1271964],[-98.5399092,21.1267897],[-98.5410473,21.1271818],[-98.5412384,21.1272477],[-98.5413884,21.1273372],[-98.5411747,21.1276052],[-98.5410764,21.1277967],[-98.5410141,21.1284125],[-98.5409755,21.1285876],[-98.5408653,21.1287682],[-98.5404804,21.1291815],[-98.5403756,21.1293124],[-98.5401659,21.1296427],[-98.5401092,21.1298623],[-98.5400548,21.130193],[-98.5399672,21.1304397],[-98.5398935,21.1305852],[-98.5397842,21.1307493],[-98.5395143,21.1309638],[-98.5391869,21.1311613],[-98.5387887,21.1313891],[-98.5382182,21.1318339],[-98.5380868,21.1319626],[-98.5379704,21.1320901],[-98.5379035,21.1321899],[-98.5377925,21.1321129],[-98.5375715,21.1319084],[-98.5373175,21.1317356],[-98.5372973,21.1317165],[-98.5368681,21.1316119],[-98.5367389,21.1315693],[-98.5366506,21.1315213],[-98.5365979,21.1314419]]]},"properties":{"locality":"MIRADOR","official_key":"1303200010002","CVE_ENT":"13","CVE_MUN":"032","CVE_LOC":"0001","CVE_ASEN":"0002","settlement_type":"BARRIO","source":"INEGI DCAH 2025"}},{"type":"Feature","geometry":{"type":"Polygon","coordinates":[[[-98.5369327,21.1400234],[-98.5368847,21.1399465],[-98.536805,21.1398325],[-98.5367417,21.1396717],[-98.5367004,21.1396766],[-98.5365584,21.1396521],[-98.5363748,21.139601],[-98.5362402,21.1395708],[-98.5361018,21.1395486],[-98.5359953,21.1395379],[-98.5358891,21.1395289],[-98.5358101,21.1395252],[-98.5357496,21.1395201],[-98.5356938,21.1395145],[-98.5363391,21.1390961],[-98.5365211,21.1390099],[-98.5373197,21.1386408],[-98.5373549,21.138622],[-98.5375213,21.1387174],[-98.5376595,21.1388033],[-98.5378097,21.1388978],[-98.5380937,21.139026],[-98.5385383,21.139212],[-98.5389701,21.1393863],[-98.5377662,21.1403715],[-98.5377042,21.1403966],[-98.5376168,21.1404261],[-98.5374568,21.1404626],[-98.5373845,21.1404402],[-98.5373155,21.1404241],[-98.5372731,21.1403995],[-98.5372542,21.1403848],[-98.5372076,21.1403241],[-98.5371115,21.1402511],[-98.5369907,21.1401124],[-98.5369327,21.1400234]]]},"properties":{"locality":"EL PALMAR","official_key":"1303200010003","CVE_ENT":"13","CVE_MUN":"032","CVE_LOC":"0001","CVE_ASEN":"0003","settlement_type":"BARRIO","source":"INEGI DCAH 2025"}},{"type":"Feature","geometry":{"type":"Polygon","coordinates":[[[-98.5376595,21.1388033],[-98.5375213,21.1387174],[-98.5373549,21.138622],[-98.5373197,21.1386408],[-98.5373324,21.1385667],[-98.537359,21.1384109],[-98.5373915,21.1382965],[-98.5373827,21.1381575],[-98.5373182,21.1379586],[-98.5372911,21.137906],[-98.5372066,21.1377907],[-98.5371417,21.1377323],[-98.5371042,21.1377104],[-98.5370465,21.1376767],[-98.5368753,21.1375239],[-98.5365685,21.1373373],[-98.536174,21.1371064],[-98.5362415,21.1370389],[-98.536435,21.1367972],[-98.5359798,21.1364328],[-98.5354986,21.1360476],[-98.5351646,21.1357802],[-98.5354573,21.1354449],[-98.5357893,21.1350585],[-98.5360053,21.1347767],[-98.5362572,21.1340136],[-98.5366028,21.1336023],[-98.5370909,21.1331613],[-98.5371872,21.1330516],[-98.5372764,21.1331181],[-98.5373887,21.1331945],[-98.5374618,21.1332468],[-98.5375255,21.133301],[-98.5377324,21.1334465],[-98.53779,21.1333847],[-98.5378827,21.1332818],[-98.5379664,21.1331926],[-98.5380605,21.1330871],[-98.5380857,21.1330934],[-98.5381685,21.1331578],[-98.5382434,21.133224],[-98.5383072,21.1332775],[-98.5385786,21.1329868],[-98.5387173,21.1328663],[-98.5390076,21.1326012],[-98.5390471,21.1325757],[-98.5392395,21.1323552],[-98.5393675,21.1321649],[-98.5397368,21.1317063],[-98.5401366,21.1319242],[-98.540216,21.1319402],[-98.540352,21.1319485],[-98.540438,21.1319271],[-98.5406484,21.1318055],[-98.5407774,21.131746],[-98.5410288,21.1316265],[-98.541163,21.131549],[-98.541247,21.1315062],[-98.5417036,21.1314856],[-98.5418063,21.1314878],[-98.542024,21.1315003],[-98.542115,21.131503],[-98.5421878,21.1315105],[-98.5423108,21.1315286],[-98.5424037,21.1315493],[-98.542739,21.1316498],[-98.5426269,21.1319713],[-98.5425739,21.1322218],[-98.542544,21.1324995],[-98.5425235,21.1326554],[-98.5425272,21.1327476],[-98.5425418,21.1328257],[-98.5425367,21.1330456],[-98.5425071,21.1330649],[-98.5424748,21.1331573],[-98.54245,21.1331954],[-98.542413,21.1332143],[-98.542365,21.1332443],[-98.5422681,21.1332937],[-98.5422079,21.1333419],[-98.542161,21.1334014],[-98.5421239,21.1334451],[-98.5420346,21.1335143],[-98.5418402,21.1335761],[-98.5416938,21.1335961],[-98.5415101,21.1336134],[-98.5414329,21.1336212],[-98.5413815,21.1336488],[-98.5413271,21.1336852],[-98.5412775,21.1337064],[-98.5412363,21.1337197],[-98.5410731,21.1337153],[-98.5409965,21.1337204],[-98.540882,21.1337449],[-98.5407824,21.1337794],[-98.5407304,21.133818],[-98.5406889,21.1338776],[-98.5406572,21.1339501],[-98.5406508,21.1339903],[-98.5407023,21.1340119],[-98.540747,21.1340254],[-98.5408975,21.1340618],[-98.54097,21.1340856],[-98.5410191,21.1341156],[-98.5410814,21.1341786],[-98.5411155,21.1342364],[-98.5411748,21.1343357],[-98.5412435,21.1344475],[-98.5412643,21.1344824],[-98.5411475,21.1346601],[-98.5410075,21.1348119],[-98.5409565,21.1348674],[-98.5409138,21.1349053],[-98.5408599,21.1349537],[-98.5408012,21.1350014],[-98.54074,21.1350419],[-98.5406505,21.135093],[-98.5405853,21.135126],[-98.540536,21.1351586],[-98.5409324,21.1356974],[-98.5409516,21.1357214],[-98.5403168,21.1361103],[-98.5401398,21.1371511],[-98.5399627,21.138192],[-98.5399263,21.1382085],[-98.5400132,21.1388535],[-98.5396961,21.1387882],[-98.5389701,21.1393863],[-98.5385383,21.139212],[-98.5380937,21.139026],[-98.5378097,21.1388978],[-98.5376595,21.1388033]]]},"properties":{"locality":"PAHUATITLA","official_key":"1303200010004","CVE_ENT":"13","CVE_MUN":"032","CVE_LOC":"0001","CVE_ASEN":"0004","settlement_type":"BARRIO","source":"INEGI DCAH 2025"}},{"type":"Feature","geometry":{"type":"Polygon","coordinates":[[[-98.5441785,21.1278014],[-98.544151,21.1277834],[-98.5440099,21.1278085],[-98.5438687,21.1275283],[-98.5437507,21.1275487],[-98.5435793,21.1275808],[-98.543491,21.1275946],[-98.5433328,21.1276204],[-98.5431918,21.127643],[-98.5431486,21.127635],[-98.5428412,21.1275888],[-98.5425398,21.1275341],[-98.5419616,21.1273351],[-98.541902,21.1274456],[-98.5417396,21.1277853],[-98.5413884,21.1273372],[-98.5412384,21.1272477],[-98.5410473,21.1271818],[-98.5399092,21.1267897],[-98.5397401,21.1267316],[-98.5395597,21.1266696],[-98.5399125,21.1263363],[-98.5400163,21.1261907],[-98.5400468,21.1261384],[-98.5400646,21.1261051],[-98.5401653,21.1259462],[-98.540195,21.1258649],[-98.5402153,21.1258084],[-98.5402798,21.1256286],[-98.5403906,21.1254883],[-98.5405871,21.1250915],[-98.5406194,21.1250262],[-98.5415467,21.1240647],[-98.54159,21.1240517],[-98.541645,21.1239734],[-98.5414539,21.1238441],[-98.5414626,21.1236193],[-98.5415715,21.1233803],[-98.5416937,21.1231545],[-98.5417595,21.123033],[-98.541884,21.1228569],[-98.5421122,21.1225957],[-98.5421799,21.1225582],[-98.542425,21.1223899],[-98.5427078,21.122168],[-98.5428823,21.1220339],[-98.5429448,21.122001],[-98.5429827,21.1219911],[-98.5432023,21.1217087],[-98.5434793,21.1214957],[-98.5437553,21.1211938],[-98.5437748,21.1211124],[-98.5438502,21.1209059],[-98.5440036,21.1208149],[-98.5443114,21.1208719],[-98.5443485,21.120888],[-98.5444846,21.1209471],[-98.5445996,21.1210043],[-98.5446044,21.1210909],[-98.5445746,21.1211921],[-98.5445467,21.121287],[-98.5444689,21.1214698],[-98.5444394,21.1215943],[-98.544441,21.1216094],[-98.5444431,21.1216299],[-98.5445621,21.1216423],[-98.5447111,21.1216859],[-98.5447534,21.1216905],[-98.5447928,21.1217715],[-98.544799,21.1218193],[-98.5448108,21.12191],[-98.5447875,21.1221074],[-98.5447755,21.122287],[-98.5447467,21.1224526],[-98.5447273,21.1226654],[-98.544607,21.1228927],[-98.5445691,21.1229869],[-98.5444916,21.1231781],[-98.5443636,21.1236078],[-98.5443402,21.1236458],[-98.5446611,21.1238107],[-98.5446703,21.1241859],[-98.5448763,21.1241891],[-98.5448684,21.1245695],[-98.5448573,21.1246367],[-98.5448957,21.1246841],[-98.5449304,21.1247238],[-98.5449634,21.1247488],[-98.545,21.1247773],[-98.5450408,21.1248179],[-98.5451035,21.1248606],[-98.545193,21.1248837],[-98.5452848,21.1249134],[-98.5453196,21.124943],[-98.5453392,21.1249976],[-98.5453413,21.1250576],[-98.5453318,21.1251143],[-98.5453143,21.1251611],[-98.545284,21.1252087],[-98.5452294,21.1252349],[-98.5451822,21.1252417],[-98.5451084,21.125247],[-98.545048,21.1252537],[-98.5449801,21.1252563],[-98.5448858,21.1252588],[-98.5447973,21.1252669],[-98.5446527,21.1252956],[-98.5445624,21.1253209],[-98.5444848,21.1253514],[-98.5444375,21.1253858],[-98.5444187,21.1254162],[-98.5444071,21.125435],[-98.5444017,21.1254879],[-98.5443198,21.1254862],[-98.5444048,21.1255562],[-98.5444606,21.1255767],[-98.5447853,21.1256576],[-98.5448295,21.1256687],[-98.5450061,21.1257536],[-98.5451155,21.1258325],[-98.5452348,21.1259238],[-98.5453869,21.1259666],[-98.5454271,21.1259779],[-98.5455687,21.1259898],[-98.5457104,21.1260016],[-98.5460225,21.1259927],[-98.5461663,21.1260029],[-98.5459139,21.126227],[-98.5456374,21.1265025],[-98.545437,21.126709],[-98.5452751,21.1269321],[-98.545253,21.1270201],[-98.5452295,21.127114],[-98.5451453,21.127654],[-98.5450183,21.1281332],[-98.5449209,21.1283121],[-98.5448861,21.128371],[-98.5448461,21.1283359],[-98.544813,21.12831],[-98.5447837,21.1282865],[-98.5447428,21.1282552],[-98.5446516,21.1281786],[-98.5445808,21.1281209],[-98.5444738,21.1280357],[-98.5444256,21.1279988],[-98.5443336,21.1279275],[-98.544219,21.1278363],[-98.5441785,21.1278014]]]},"properties":{"locality":"TLALNEPANTLA","official_key":"1303200010005","CVE_ENT":"13","CVE_MUN":"032","CVE_LOC":"0001","CVE_ASEN":"0005","settlement_type":"BARRIO","source":"INEGI DCAH 2025"}},{"type":"Feature","geometry":{"type":"Polygon","coordinates":[[[-98.5351646,21.1357802],[-98.5354986,21.1360476],[-98.5359798,21.1364328],[-98.536435,21.1367972],[-98.5362415,21.1370389],[-98.536174,21.1371064],[-98.5365685,21.1373373],[-98.5368753,21.1375239],[-98.5370465,21.1376767],[-98.5371042,21.1377104],[-98.5371417,21.1377323],[-98.5372066,21.1377907],[-98.5372911,21.137906],[-98.5373182,21.1379586],[-98.5373827,21.1381575],[-98.5373915,21.1382965],[-98.537359,21.1384109],[-98.5373324,21.1385667],[-98.5373197,21.1386408],[-98.5365211,21.1390099],[-98.5363391,21.1390961],[-98.5356938,21.1395145],[-98.5357496,21.1395201],[-98.5358101,21.1395252],[-98.5358891,21.1395289],[-98.5359953,21.1395379],[-98.5361018,21.1395486],[-98.5362402,21.1395708],[-98.5363748,21.139601],[-98.5365584,21.1396521],[-98.5367004,21.1396766],[-98.5367417,21.1396717],[-98.536805,21.1398325],[-98.5368847,21.1399465],[-98.5369327,21.1400234],[-98.5369907,21.1401124],[-98.5371115,21.1402511],[-98.5372076,21.1403241],[-98.5372542,21.1403848],[-98.5372731,21.1403995],[-98.5373155,21.1404241],[-98.5373845,21.1404402],[-98.5374568,21.1404626],[-98.5366682,21.1407598],[-98.5356913,21.1413793],[-98.5346979,21.1420106],[-98.5346566,21.1420202],[-98.534087,21.1420551],[-98.5336989,21.1420789],[-98.5320944,21.1416248],[-98.5320438,21.1416961],[-98.5319979,21.1417278],[-98.5319616,21.1417343],[-98.5319147,21.1417199],[-98.5319067,21.1416759],[-98.5319011,21.1415671],[-98.5318794,21.1413389],[-98.5317003,21.1408334],[-98.5316137,21.1407006],[-98.5314432,21.1404687],[-98.5314237,21.1403588],[-98.5314648,21.1402213],[-98.5318,21.1400788],[-98.5319821,21.1399359],[-98.5320884,21.1398133],[-98.5322855,21.1394553],[-98.532545,21.1390706],[-98.5328529,21.1387245],[-98.5332508,21.1383895],[-98.5335291,21.1380631],[-98.5339086,21.1377798],[-98.5342498,21.137234],[-98.5344282,21.1370665],[-98.5346777,21.1367893],[-98.5349324,21.1363777],[-98.5351646,21.1357802]]]},"properties":{"locality":"TOLTITLA","official_key":"1303200010006","CVE_ENT":"13","CVE_MUN":"032","CVE_LOC":"0001","CVE_ASEN":"0006","settlement_type":"BARRIO","source":"INEGI DCAH 2025"}},{"type":"Feature","geometry":{"type":"Polygon","coordinates":[[[-98.540536,21.1351586],[-98.5405853,21.135126],[-98.5406505,21.135093],[-98.54074,21.1350419],[-98.5408012,21.1350014],[-98.5408599,21.1349537],[-98.5409138,21.1349053],[-98.5409565,21.1348674],[-98.5410075,21.1348119],[-98.5411475,21.1346601],[-98.5412643,21.1344824],[-98.5412435,21.1344475],[-98.5411748,21.1343357],[-98.5411155,21.1342364],[-98.5410814,21.1341786],[-98.5410191,21.1341156],[-98.54097,21.1340856],[-98.5408975,21.1340618],[-98.540747,21.1340254],[-98.5407023,21.1340119],[-98.5406508,21.1339903],[-98.5406572,21.1339501],[-98.5406889,21.1338776],[-98.5407304,21.133818],[-98.5407824,21.1337794],[-98.540882,21.1337449],[-98.5409965,21.1337204],[-98.5410731,21.1337153],[-98.5412363,21.1337197],[-98.5412775,21.1337064],[-98.5413271,21.1336852],[-98.5413815,21.1336488],[-98.5414329,21.1336212],[-98.5415101,21.1336134],[-98.5416938,21.1335961],[-98.5418402,21.1335761],[-98.5420346,21.1335143],[-98.5421239,21.1334451],[-98.542161,21.1334014],[-98.5422079,21.1333419],[-98.5422681,21.1332937],[-98.542365,21.1332443],[-98.542413,21.1332143],[-98.54245,21.1331954],[-98.5424748,21.1331573],[-98.5425071,21.1330649],[-98.5425367,21.1330456],[-98.5425418,21.1328257],[-98.5425272,21.1327476],[-98.5425235,21.1326554],[-98.542544,21.1324995],[-98.5425739,21.1322218],[-98.5426269,21.1319713],[-98.542739,21.1316498],[-98.5430812,21.1310943],[-98.5433565,21.1306747],[-98.5436379,21.1302668],[-98.5438441,21.1300047],[-98.5441562,21.1297253],[-98.5445335,21.1294306],[-98.5447727,21.1299236],[-98.545254,21.1309158],[-98.5447648,21.1320941],[-98.5442755,21.1332724],[-98.5437098,21.1342514],[-98.5431441,21.1352304],[-98.5431074,21.1352384],[-98.5420295,21.1354799],[-98.5409516,21.1357214],[-98.5409324,21.1356974],[-98.540536,21.1351586]]]},"properties":{"locality":"EL ROSARIO","official_key":"1303200010007","CVE_ENT":"13","CVE_MUN":"032","CVE_LOC":"0001","CVE_ASEN":"0007","settlement_type":"BARRIO","source":"INEGI DCAH 2025"}}]}