{"type":"FeatureCollection","name":"inegi-hidalgo-033","metadata":{"state":"Hidalgo","CVE_ENT":"13","CVE_MUN":"033","municipality":"Juárez Hidalgo","sources":["INEGI Gaia — Servicio vectorial del Marco Geoestadístico","INEGI DCAH 2025"],"source_urls":["https://gaia.inegi.org.mx/wscatgeo/v2/geo/mgem/13","https://gaia.inegi.org.mx/wscatgeo/v2/geo/localidades/pol/13/033","https://www.inegi.org.mx/contenidos/productos/prod_serv/contenidos/espanol/bvinegi/productos/geografia/delimitaciones/794551163078/13_hidalgo.zip"],"geometry_policy":"Solo se publican polígonos de INEGI; no se generan puntos ni geometrías sintéticas.","locality_polygon_count":4,"settlement_polygon_count":8},"municipality":{"type":"Feature","geometry":{"type":"MultiPolygon","crs":{"type":"name","properties":{"name":"EPSG:6365"}},"coordinates":[[[[-98.862384779,20.902013881],[-98.861987029,20.901109351],[-98.861559349,20.899413181],[-98.860647999,20.897320751],[-98.859861549,20.896390431],[-98.858887539,20.895758661],[-98.858941309,20.895553001],[-98.857940049,20.893734621],[-98.858494309,20.890581151],[-98.857302569,20.889446001],[-98.857141399,20.889252631],[-98.856924999,20.888972481],[-98.856831719,20.888542911],[-98.856825566,20.888543842],[-98.856702919,20.8885624],[-98.856700605,20.888561653],[-98.855437689,20.888153711],[-98.855415379,20.888146181],[-98.855152279,20.887936881],[-98.854768909,20.886854111],[-98.853176979,20.885584971],[-98.851805249,20.883499631],[-98.850541259,20.8793302],[-98.850121441,20.87675965],[-98.850074078,20.87646965],[-98.849859179,20.876447971],[-98.849858984,20.876448463],[-98.849722689,20.876793251],[-98.849476399,20.877140021],[-98.849425619,20.877566941],[-98.849415489,20.877942141],[-98.849448219,20.878315201],[-98.849135109,20.878622221],[-98.849106119,20.879169951],[-98.848906879,20.87935014],[-98.848572579,20.879503481],[-98.848132549,20.879925921],[-98.848209149,20.880358201],[-98.848343999,20.880592121],[-98.848314719,20.880908801],[-98.848229109,20.88120265],[-98.848122109,20.881563281],[-98.847929949,20.881756831],[-98.847673859,20.881916921],[-98.847524179,20.88229086],[-98.847388769,20.882618081],[-98.847527889,20.883051371],[-98.847776379,20.883378911],[-98.847875419,20.883874661],[-98.847884779,20.884391541],[-98.847884279,20.884887201],[-98.847794309,20.885270551],[-98.847714429,20.885522981],[-98.847633049,20.885588821],[-98.847534879,20.885712381],[-98.847264749,20.885792511],[-98.847022109,20.885844461],[-98.846691079,20.885969251],[-98.846520539,20.886062221],[-98.846406949,20.886265951],[-98.846314849,20.886377201],[-98.845982749,20.886534371],[-98.845915379,20.886596141],[-98.845849479,20.886657291],[-98.845808799,20.886807801],[-98.845775489,20.886928221],[-98.845612849,20.887095421],[-98.845340379,20.887142111],[-98.845303029,20.887194061],[-98.845260109,20.887492851],[-98.845266849,20.887713151],[-98.845138199,20.888052751],[-98.845131963,20.888052228],[-98.844470859,20.887996821],[-98.844470235,20.887997172],[-98.844182109,20.888159281],[-98.844179423,20.888157067],[-98.844020739,20.888026281],[-98.844012079,20.888009121],[-98.84400652,20.888010624],[-98.843796289,20.888067461],[-98.843795776,20.888065741],[-98.843740219,20.887879711],[-98.843877029,20.887785401],[-98.842729709,20.886920351],[-98.842141879,20.886487801],[-98.840603539,20.885114941],[-98.840743229,20.884736121],[-98.840709539,20.884646551],[-98.84070378,20.884648078],[-98.840461079,20.884712431],[-98.840382799,20.884846631],[-98.840379246,20.884841646],[-98.839934979,20.884218461],[-98.839911769,20.884202421],[-98.839835419,20.884179431],[-98.839845539,20.884043051],[-98.839428479,20.88328838],[-98.839325019,20.882994461],[-98.839054089,20.882806111],[-98.838220149,20.882017551],[-98.837418379,20.881272861],[-98.836798739,20.88106112],[-98.836230569,20.880746001],[-98.835816859,20.880202921],[-98.835557199,20.879192681],[-98.835165999,20.878895851],[-98.834158279,20.877008981],[-98.832965859,20.875894601],[-98.832758569,20.875682541],[-98.832465629,20.875596571],[-98.831547029,20.874767291],[-98.831455949,20.874209481],[-98.830789919,20.873481721],[-98.830043519,20.873186281],[-98.829884309,20.872608251],[-98.826950479,20.869745741],[-98.826945893,20.869747362],[-98.825713139,20.870183171],[-98.825576619,20.870322051],[-98.825572071,20.870320051],[-98.823433289,20.869379571],[-98.822727249,20.868645981],[-98.822277779,20.868575121],[-98.822273358,20.868575297],[-98.821746279,20.868596321],[-98.820379799,20.868932311],[-98.820378368,20.86893096],[-98.820032109,20.868604121],[-98.820026221,20.868604455],[-98.818944019,20.868665781],[-98.817475829,20.869281091],[-98.817471156,20.869280241],[-98.815805679,20.868977601],[-98.815804667,20.868978444],[-98.815492689,20.869238171],[-98.81550725,20.869220601],[-98.815629059,20.869073621],[-98.815083939,20.868966781],[-98.815083405,20.868967794],[-98.814217629,20.870609051],[-98.813009379,20.872020831],[-98.810227229,20.873479091],[-98.809043219,20.873899311],[-98.807800679,20.874570351],[-98.806894479,20.875033721],[-98.806548709,20.875575691],[-98.806016859,20.876012341],[-98.805076489,20.876136311],[-98.804378949,20.876647881],[-98.804401419,20.877531741],[-98.803868879,20.877996341],[-98.802244049,20.878498521],[-98.800869739,20.879224691],[-98.800128339,20.879565651],[-98.799202019,20.879794541],[-98.799121509,20.879827261],[-98.799118536,20.879825742],[-98.798660319,20.879591581],[-98.798222659,20.879311851],[-98.798218843,20.879313359],[-98.797876109,20.879448771],[-98.797872394,20.879447582],[-98.797419149,20.879302631],[-98.797280139,20.879034221],[-98.797629719,20.878265781],[-98.798751109,20.877308711],[-98.799484349,20.875961351],[-98.799833659,20.874306751],[-98.799389949,20.873407971],[-98.799361919,20.872412651],[-98.799194119,20.871863231],[-98.798167909,20.871562691],[-98.797179089,20.871208381],[-98.796310979,20.870777711],[-98.795673309,20.869890891],[-98.795333089,20.868945321],[-98.794874719,20.868122921],[-98.794267229,20.867191741],[-98.793759949,20.866079941],[-98.793459649,20.865428851],[-98.792920379,20.864994781],[-98.792914716,20.864995227],[-98.792376779,20.865037551],[-98.792354509,20.865553311],[-98.792125379,20.865942711],[-98.791733139,20.866047091],[-98.791731023,20.866045822],[-98.791230649,20.865745551],[-98.790941859,20.86539312],[-98.791171139,20.864538861],[-98.791352139,20.863327821],[-98.791064599,20.862591831],[-98.790460219,20.862144401],[-98.789706619,20.86201498],[-98.789704194,20.862015526],[-98.788858769,20.862205571],[-98.788856147,20.862204591],[-98.788096519,20.861920741],[-98.787522199,20.861371521],[-98.786828019,20.860445891],[-98.786427169,20.859483551],[-98.785812919,20.85847663],[-98.785246249,20.85781283],[-98.784139139,20.856713621],[-98.783468449,20.856078721],[-98.781718659,20.855352771],[-98.781502819,20.854695801],[-98.781513479,20.854249651],[-98.781572019,20.853838851],[-98.781793829,20.853433221],[-98.782131819,20.852993831],[-98.783022937,20.853012616],[-98.783029319,20.85301275],[-98.783951259,20.852893281],[-98.784427889,20.852434261],[-98.784592279,20.851743151],[-98.784362909,20.851172741],[-98.783995629,20.850674511],[-98.784246859,20.849886001],[-98.784711369,20.849012691],[-98.784753569,20.847699051],[-98.784452229,20.846161021],[-98.784337919,20.845196121],[-98.783903599,20.844369321],[-98.784134169,20.843560551],[-98.784360059,20.842509141],[-98.784504739,20.841758081],[-98.784602679,20.841190181],[-98.784365849,20.840490621],[-98.784390688,20.840270434],[-98.784392649,20.840253051],[-98.784540079,20.839829491],[-98.784684479,20.839541951],[-98.784576139,20.839212231],[-98.784534969,20.838823431],[-98.784537649,20.83819209],[-98.784615709,20.837773711],[-98.784751879,20.837337201],[-98.784714219,20.836591151],[-98.784462999,20.836226941],[-98.784541309,20.835528691],[-98.784546429,20.834782021],[-98.784662149,20.834057321],[-98.784166339,20.833162431],[-98.784350339,20.832119941],[-98.784814259,20.831039601],[-98.785172919,20.829901141],[-98.785983739,20.82956385],[-98.786889509,20.829137151],[-98.787279889,20.828335691],[-98.787286819,20.827488781],[-98.787218279,20.82702643],[-98.786762689,20.826730631],[-98.786583749,20.826589921],[-98.786264349,20.826564511],[-98.786161709,20.826275281],[-98.785968249,20.826046981],[-98.785844319,20.825683121],[-98.785895369,20.825210851],[-98.785930479,20.824850341],[-98.785936419,20.824601321],[-98.785767379,20.824460741],[-98.785548089,20.824228201],[-98.785409139,20.823938751],[-98.785311119,20.823600371],[-98.785267619,20.823200831],[-98.785368399,20.822866621],[-98.785533659,20.822608511],[-98.785404709,20.822456311],[-98.785206509,20.822427231],[-98.785028679,20.822334111],[-98.784846349,20.822112141],[-98.784482199,20.822083171],[-98.784342619,20.821321001],[-98.784262169,20.820506111],[-98.784232019,20.819676631],[-98.784332349,20.818959371],[-98.784185119,20.818152571],[-98.783967109,20.817522431],[-98.783843709,20.81711323],[-98.783839369,20.816597081],[-98.783852489,20.816470151],[-98.784012619,20.816266251],[-98.784440509,20.815856151],[-98.784696319,20.815408601],[-98.784596179,20.815153151],[-98.784276079,20.814870031],[-98.783915599,20.814522421],[-98.783669919,20.814202481],[-98.783392849,20.813828141],[-98.783108139,20.813404401],[-98.782968089,20.813109721],[-98.782851449,20.812861601],[-98.782948779,20.812548891],[-98.783072649,20.812152291],[-98.783137509,20.811831231],[-98.783228249,20.811461461],[-98.783146459,20.811121941],[-98.782991369,20.810773201],[-98.782867089,20.810501881],[-98.782691599,20.810192121],[-98.782536319,20.809793171],[-98.782398119,20.809446181],[-98.782214149,20.809098231],[-98.781982399,20.808835281],[-98.781630449,20.808621421],[-98.781241509,20.808486491],[-98.781126919,20.808167451],[-98.780998279,20.807803451],[-98.780636149,20.80763237],[-98.780504229,20.807405941],[-98.780573619,20.807183751],[-98.780716629,20.806945921],[-98.780713549,20.806657911],[-98.780517779,20.806421541],[-98.780357379,20.806237511],[-98.780224429,20.806054061],[-98.780112459,20.805759251],[-98.780011479,20.805387231],[-98.780019079,20.805069121],[-98.780175419,20.804736741],[-98.780307739,20.804485201],[-98.780439879,20.804242141],[-98.780589829,20.804007941],[-98.780730769,20.803773541],[-98.780835429,20.803546851],[-98.781067969,20.803255031],[-98.781345799,20.802955711],[-98.781262419,20.802654721],[-98.781052049,20.802395951],[-98.780814419,20.802145081],[-98.780591349,20.802004371],[-98.780463709,20.801702351],[-98.780484459,20.801211091],[-98.780594579,20.800755621],[-98.780667029,20.800367171],[-98.780533739,20.800042511],[-98.780289569,20.79975142],[-98.780034089,20.799629911],[-98.779533119,20.799449771],[-98.77909468,20.79929638],[-98.778973279,20.79918085],[-98.778590549,20.799027621],[-98.77878502,20.798959371],[-98.77912522,20.798891311],[-98.77970823,20.798914891],[-98.78048562,20.79891589],[-98.78104472,20.79866545],[-98.781628229,20.798346521],[-98.782041849,20.79791322],[-98.782504109,20.79743431],[-98.782650379,20.797069171],[-98.783058419,20.79668958],[-98.78357026,20.79631082],[-98.78416289,20.79590686],[-98.784486479,20.795451981],[-98.785105829,20.795174521],[-98.78596738,20.79489737],[-98.786640549,20.794619971],[-98.786829139,20.79446845],[-98.787045029,20.794038711],[-98.78712637,20.79360882],[-98.78723465,20.79315366],[-98.78775534,20.79282469],[-98.788386489,20.79275358],[-98.788692539,20.792682061],[-98.78884577,20.79250251],[-98.789152079,20.792251261],[-98.78945832,20.79205392],[-98.78986011,20.79189266],[-98.790472089,20.79183949],[-98.790930779,20.792019781],[-98.79140878,20.792056311],[-98.79195505,20.7922348],[-98.792830219,20.79203734],[-98.79284352,20.79159275],[-98.793037109,20.79094643],[-98.793560399,20.790766021],[-98.79371794,20.78957152],[-98.794197819,20.788198421],[-98.794924279,20.78758198],[-98.79584483,20.787366941],[-98.796052369,20.787021351],[-98.79708702,20.78714197],[-98.797618019,20.78684386],[-98.798261259,20.78607935],[-98.798929549,20.785609681],[-98.799500619,20.78494388],[-98.799598819,20.784408181],[-98.799465999,20.78424554],[-98.79986531,20.783989261],[-98.80013768,20.783871491],[-98.800717029,20.78365538],[-98.80113085,20.78344038],[-98.80179392,20.78298397],[-98.802075399,20.782839741],[-98.802364309,20.782728831],[-98.802936849,20.78246057],[-98.803413799,20.78234908],[-98.803795429,20.78221505],[-98.80424855,20.78210351],[-98.80486852,20.78201457],[-98.805488599,20.781858421],[-98.805655399,20.781925831],[-98.806005259,20.781994091],[-98.80649171,20.782034401],[-98.806766889,20.78187566],[-98.80709708,20.78150538],[-98.80740552,20.781505741],[-98.808382399,20.781410181],[-98.809565219,20.781073231],[-98.81115982,20.780301821],[-98.812291319,20.779868151],[-98.8125492,20.779191911],[-98.813629519,20.778564881],[-98.815475549,20.777204151],[-98.81810106,20.775711691],[-98.82127671,20.774233661],[-98.824319029,20.772524861],[-98.8271158,20.77097574],[-98.832336599,20.769296121],[-98.835422019,20.768961221],[-98.84190852,20.7693286],[-98.84362189,20.769050051],[-98.845540019,20.768975381],[-98.846230579,20.7698102],[-98.84902472,20.773578661],[-98.85073342,20.77507563],[-98.85113069,20.775524621],[-98.851288859,20.77645942],[-98.851207969,20.777842651],[-98.85064103,20.778883181],[-98.85006115,20.779789771],[-98.850116969,20.780386091],[-98.85035382,20.78112145],[-98.850488029,20.78161314],[-98.85075531,20.782907521],[-98.85121475,20.783698371],[-98.85163658,20.78432594],[-98.85235029,20.78563822],[-98.852693109,20.785631341],[-98.85307612,20.785686151],[-98.853345749,20.78582212],[-98.853641169,20.78577231],[-98.85388552,20.785897981],[-98.85439429,20.785961451],[-98.854853769,20.78590134],[-98.85525731,20.785827951],[-98.8555854,20.7859544],[-98.856021749,20.785805421],[-98.85628643,20.785829061],[-98.85673154,20.78566405],[-98.85705012,20.78568151],[-98.857317509,20.78590508],[-98.857631519,20.78611871],[-98.85796502,20.786289431],[-98.858326849,20.78619331],[-98.858568659,20.786269171],[-98.85880606,20.78653572],[-98.859062909,20.78646469],[-98.8593414,20.78638575],[-98.85964657,20.78662112],[-98.86038703,20.78700088],[-98.86100465,20.7872284],[-98.861487949,20.787179721],[-98.863121049,20.786936281],[-98.868422319,20.78874874],[-98.86834823,20.78888326],[-98.869324629,20.78906108],[-98.87025792,20.78915017],[-98.87123226,20.78907392],[-98.872038489,20.78868371],[-98.872588259,20.78811745],[-98.873250449,20.787665151],[-98.873906109,20.78744551],[-98.87381545,20.78773729],[-98.874790079,20.78778646],[-98.875610259,20.788197481],[-98.87629382,20.787926831],[-98.87695797,20.787360911],[-98.877396019,20.787023661],[-98.87787877,20.787507221],[-98.878285229,20.78818545],[-98.87815417,20.788873291],[-98.877484549,20.7896136],[-98.877053859,20.7902088],[-98.87658331,20.79087531],[-98.8761782,20.791532581],[-98.875868549,20.792099421],[-98.87555671,20.792768861],[-98.875321079,20.79314034],[-98.875368089,20.793205181],[-98.87533714,20.79323272],[-98.876543599,20.79466314],[-98.875285659,20.794696781],[-98.874850549,20.79537349],[-98.876344079,20.79691592],[-98.87433258,20.7964502],[-98.87398995,20.79713543],[-98.87379254,20.79787517],[-98.873923229,20.798491831],[-98.873397819,20.79923132],[-98.872872229,20.800155781],[-98.872412309,20.801018631],[-98.87233042,20.801828831],[-98.87192454,20.803046141],[-98.872409599,20.80395971],[-98.8730568,20.80464511],[-98.873460629,20.805863021],[-98.87355695,20.806821431],[-98.87353485,20.80684157],[-98.87358949,20.807160911],[-98.873621249,20.807461261],[-98.874026819,20.81016588],[-98.873945819,20.81077112],[-98.87450851,20.811830831],[-98.87442705,20.812965721],[-98.87442586,20.814403321],[-98.87450474,20.81637065],[-98.875013029,20.81699928],[-98.87475569,20.81808362],[-98.87417802,20.81886645],[-98.873792889,20.81940843],[-98.87411306,20.81989068],[-98.874497379,20.820312711],[-98.874368709,20.82085488],[-98.87385465,20.82224028],[-98.873917649,20.823023461],[-98.87453008,20.82331177],[-98.87473369,20.824031581],[-98.875243289,20.825183431],[-98.87687669,20.825664401],[-98.876793629,20.826179691],[-98.87711025,20.82653729],[-98.877426479,20.82737135],[-98.87812329,20.827848341],[-98.8792638,20.82832563],[-98.879326419,20.82927865],[-98.880117289,20.83018935],[-98.88078694,20.830721821],[-98.881080649,20.831133421],[-98.881548799,20.83156331],[-98.881932819,20.832161451],[-98.882813229,20.833025491],[-98.883766029,20.833447371],[-98.884428249,20.834320631],[-98.885472289,20.835567651],[-98.88623528,20.836474551],[-98.885795479,20.83759434],[-98.88548565,20.838618781],[-98.885271119,20.839635141],[-98.885180219,20.84046375],[-98.88533702,20.84193468],[-98.88575602,20.842895581],[-98.886843229,20.843537141],[-98.88844985,20.843648381],[-98.88947614,20.843561401],[-98.890409089,20.843532781],[-98.891497379,20.84370878],[-98.89230592,20.84373852],[-98.893549709,20.84391462],[-98.894762459,20.84400302],[-98.895291119,20.84400334],[-98.896375,20.84281738],[-98.897256969,20.841989971],[-98.8979588,20.84103374],[-98.89804231,20.84238789],[-98.89868548,20.84256129],[-98.89867574,20.84385723],[-98.89893812,20.84462275],[-98.89965869,20.84479648],[-98.89890611,20.84632375],[-98.89893822,20.84642237],[-98.8989578,20.84653298],[-98.89897312,20.84666735],[-98.8989416,20.84688868],[-98.8989878,20.84718802],[-98.89910165,20.84737814],[-98.89958868,20.84780985],[-98.9001512,20.8486362],[-98.90090129,20.8493558],[-98.90116855,20.85031855],[-98.90126258,20.85110351],[-98.89998575,20.85176918],[-98.89934506,20.8519722],[-98.89856745,20.85190163],[-98.89787432,20.85157542],[-98.89738589,20.85148626],[-98.89692115,20.85051018],[-98.8949384,20.85004572],[-98.89294383,20.85072352],[-98.89346357,20.85429212],[-98.89186855,20.85571686],[-98.89172923,20.85640654],[-98.89167625,20.85729169],[-98.89153882,20.85807403],[-98.89137172,20.85859606],[-98.89123251,20.85898757],[-98.89102377,20.85944431],[-98.89085689,20.85964],[-98.89063451,20.85975734],[-98.89030108,20.85973102],[-98.88999548,20.8596264],[-98.88957885,20.85937811],[-98.8890662,20.85898706],[-98.888469,20.8586734],[-98.88770514,20.85825518],[-98.88767614,20.85825014],[-98.88709366,20.85817612],[-98.88656898,20.85831372],[-98.8862872,20.85901486],[-98.88569422,20.85996809],[-98.88543985,20.86068314],[-98.88535457,20.86155723],[-98.8851002,20.86227228],[-98.884423,20.86266917],[-98.88357677,20.86282752],[-98.88289969,20.86306546],[-98.88239171,20.86346246],[-98.88213745,20.86401857],[-98.88216317,20.86477971],[-98.88340506,20.86524457],[-98.88371377,20.86528622],[-98.88402251,20.86528642],[-98.88468406,20.86532829],[-98.88514722,20.86528718],[-98.88541189,20.86522522],[-98.88591952,20.86503703],[-98.88558558,20.86570486],[-98.88553609,20.86614897],[-98.88522622,20.86711683],[-98.88486431,20.86772878],[-98.88451492,20.86837511],[-98.88427618,20.86907806],[-98.88415894,20.86967663],[-98.88401694,20.87024091],[-98.88396178,20.87094245],[-98.88397702,20.87108478],[-98.88371472,20.87212165],[-98.88337109,20.87460357],[-98.8818032,20.87614097],[-98.88143134,20.87807549],[-98.88041114,20.87968828],[-98.87976911,20.88165683],[-98.87972534,20.88325151],[-98.87969715,20.88456062],[-98.87948732,20.885489],[-98.87912006,20.88630397],[-98.87861074,20.88635671],[-98.87794555,20.88679305],[-98.87635497,20.88723702],[-98.87430218,20.88815269],[-98.87349705,20.8897544],[-98.8684028,20.89558688],[-98.86579188,20.89870397],[-98.86273518,20.90235614],[-98.86263057,20.9023778],[-98.862384779,20.902013881]]]]},"properties":{"municipality":"Juárez Hidalgo","official_key":"13033","CVE_ENT":"13","CVE_MUN":"033","geometry_kind":"municipality","source":"INEGI Gaia — Servicio vectorial del Marco Geoestadístico"}},"features":[{"type":"Feature","geometry":{"type":"MultiPolygon","crs":{"type":"name","properties":{"name":"EPSG:6365"}},"coordinates":[[[[-98.83162663,20.79081774],[-98.82434912,20.79039669],[-98.824216,20.79039814],[-98.82337865,20.7902848],[-98.82338037,20.79019562],[-98.82339772,20.79018417],[-98.82337438,20.79012223],[-98.823314,20.78990917],[-98.82324283,20.78979385],[-98.82321657,20.78970466],[-98.8231192,20.78956834],[-98.82310349,20.78951058],[-98.82309294,20.78947172],[-98.8231432,20.78932071],[-98.82317098,20.78887766],[-98.82325137,20.78855206],[-98.82334358,20.78829226],[-98.82476246,20.78677769],[-98.82475418,20.78674434],[-98.82472535,20.78662814],[-98.82304314,20.78411523],[-98.822610177,20.783493663],[-98.822581769,20.783452881],[-98.822578241,20.783450211],[-98.822523089,20.783408461],[-98.82240611,20.78327746],[-98.82229378,20.78311502],[-98.82211051,20.782967091],[-98.82189349,20.7828508],[-98.821341879,20.782585311],[-98.821184649,20.78258514],[-98.821109859,20.782504151],[-98.82109149,20.782205151],[-98.82120052,20.781818341],[-98.821215709,20.781753691],[-98.821182169,20.781609431],[-98.82092043,20.7813348],[-98.820725139,20.78112232],[-98.820720183,20.781111453],[-98.82067615,20.78101489],[-98.82051975,20.78067186],[-98.82072946,20.78062285],[-98.82104489,20.78057195],[-98.82175272,20.78046769],[-98.82220446,20.78038272],[-98.82231423,20.78036409],[-98.82286632,20.78035842],[-98.82306022,20.78038969],[-98.82314325,20.78009089],[-98.82428952,20.77976342],[-98.824450472,20.779718072],[-98.82456157,20.77968677],[-98.82460632,20.77972851],[-98.824686429,20.779941771],[-98.82551372,20.77986266],[-98.82544311,20.779613891],[-98.82528274,20.77931617],[-98.825207059,20.779221971],[-98.82552242,20.77868285],[-98.825618659,20.778605891],[-98.826934154,20.777714716],[-98.83658914,20.77117331],[-98.83719526,20.7707866],[-98.83756283,20.77068382],[-98.83758657,20.77081388],[-98.83770089,20.77101577],[-98.83776751,20.77119518],[-98.83777595,20.77125488],[-98.83778926,20.77134898],[-98.8375932,20.7717386],[-98.83758337,20.77198125],[-98.83768445,20.77224934],[-98.83791606,20.77255386],[-98.83793449,20.77276902],[-98.8379116,20.77732625],[-98.83825382,20.77911305],[-98.83851471,20.78047515],[-98.83860332,20.78093782],[-98.83865,20.78125409],[-98.83937766,20.78223137],[-98.83942694,20.78232749],[-98.839986459,20.786039154],[-98.840116229,20.786899981],[-98.840139829,20.787044541],[-98.84018668,20.78733138],[-98.84019442,20.787378741],[-98.839775931,20.787551546],[-98.83430032,20.78981243],[-98.83419269,20.78985686],[-98.83166268,20.79080425],[-98.83162663,20.79081774]]]]},"properties":{"locality":"Juárez Hidalgo","municipality":null,"official_key":"130330001","CVE_ENT":"13","CVE_MUN":"033","CVE_LOC":"0001","ambito":"URBANO","geometry_kind":"locality","source":"INEGI Gaia — Servicio vectorial del Marco Geoestadístico"}},{"type":"Feature","geometry":{"type":"MultiPolygon","crs":{"type":"name","properties":{"name":"EPSG:6365"}},"coordinates":[[[[-98.822334794,20.823898678],[-98.822396221,20.823821226],[-98.822262197,20.823847769],[-98.822061118,20.823841719],[-98.821939702,20.823782785],[-98.82182365,20.823706303],[-98.821738938,20.823580059],[-98.82139552,20.823048921],[-98.821262641,20.823082253],[-98.820703122,20.823418771],[-98.820345013,20.82360588],[-98.819982222,20.82370901],[-98.81945903,20.82375355],[-98.819339355,20.823738448],[-98.819817239,20.823273978],[-98.820391495,20.822965063],[-98.820583089,20.82289281],[-98.820739162,20.822733375],[-98.821206372,20.822305688],[-98.821446032,20.822220861],[-98.821926547,20.822176181],[-98.822230499,20.82227055],[-98.823120492,20.822875334],[-98.8233687,20.822907626],[-98.823657688,20.822940187],[-98.823874257,20.823007845],[-98.82392589,20.823076239],[-98.82396411,20.823159676],[-98.824078104,20.82321624],[-98.824317688,20.823369072],[-98.824251695,20.823567648],[-98.824040928,20.823516115],[-98.823847814,20.823476521],[-98.823685768,20.823416482],[-98.823480809,20.823406584],[-98.823384725,20.823431061],[-98.823081224,20.823556776],[-98.822836728,20.823629843],[-98.822638395,20.823759065],[-98.822641228,20.823860709],[-98.82256725,20.824002316],[-98.822434266,20.824133896],[-98.822456847,20.824185252],[-98.822508935,20.824314325],[-98.822321037,20.824434368],[-98.822027957,20.824673899],[-98.821942791,20.824417774],[-98.822096341,20.824149113],[-98.822242389,20.824010108],[-98.822334794,20.823898678]]],[[[-98.826730443,20.820282055],[-98.826773358,20.82024445],[-98.82682432,20.820258239],[-98.826844437,20.82030462],[-98.826794146,20.820374191],[-98.826757265,20.820488887],[-98.826865895,20.821012863],[-98.826887353,20.821131947],[-98.826861872,20.821366355],[-98.826891377,20.82159951],[-98.827005369,20.821856481],[-98.827074437,20.82195739],[-98.827198488,20.82210217],[-98.827208547,20.822190544],[-98.827154233,20.822261367],[-98.827046944,20.822320282],[-98.826863214,20.822381704],[-98.826742514,20.822465689],[-98.826682835,20.822654344],[-98.826655342,20.822762772],[-98.826620473,20.822836729],[-98.826627178,20.822950171],[-98.826662046,20.823113753],[-98.826706974,20.823249132],[-98.826726755,20.82339454],[-98.826781404,20.823567523],[-98.826761289,20.823740507],[-98.826727761,20.823877138],[-98.826680822,20.823931664],[-98.826623156,20.823961123],[-98.826384438,20.823984939],[-98.826200708,20.824036332],[-98.826261727,20.824317117],[-98.826384438,20.824513915],[-98.826377733,20.82462861],[-98.826395837,20.824648352],[-98.826434059,20.824817259],[-98.826067938,20.825011551],[-98.825817151,20.824555281],[-98.825889571,20.824274496],[-98.826077283,20.82417925],[-98.826118815,20.824154201],[-98.826121414,20.82413669],[-98.826011276,20.824109193],[-98.82603508,20.824074251],[-98.826007588,20.824031945],[-98.826019658,20.823967389],[-98.82627715,20.823066121],[-98.826255693,20.822815419],[-98.826627179,20.821600764],[-98.826629861,20.821187103],[-98.826718374,20.821014116],[-98.826731783,20.820859932],[-98.826692222,20.820633043],[-98.826678141,20.820458804],[-98.826730443,20.820282055]]],[[[-98.810230831,20.826451048],[-98.810306609,20.8263566],[-98.810432936,20.826197909],[-98.810509667,20.826063149],[-98.810552911,20.825962259],[-98.810581319,20.825797679],[-98.810601457,20.825624834],[-98.810346971,20.82534143],[-98.810236806,20.825162428],[-98.810122561,20.824896912],[-98.810085266,20.824746323],[-98.810008073,20.824527122],[-98.809988256,20.824356865],[-98.809849537,20.824252954],[-98.809220629,20.824789781],[-98.80869178,20.825052721],[-98.80828634,20.82524995],[-98.80789426,20.82540909],[-98.80789051,20.82489228],[-98.808065149,20.82465095],[-98.808315169,20.824453711],[-98.808421029,20.82427525],[-98.80844191,20.82400522],[-98.808405429,20.82379115],[-98.808190399,20.823703371],[-98.807987579,20.823616511],[-98.80792518,20.82349751],[-98.807919339,20.82312348],[-98.808034719,20.822680281],[-98.80817423,20.82251435],[-98.808814579,20.82187232],[-98.809513465,20.821079384],[-98.80964561,20.820715269],[-98.809811392,20.820071896],[-98.809878049,20.819812215],[-98.809949171,20.819872042],[-98.809939789,20.819685891],[-98.809978492,20.819561912],[-98.809970618,20.819482912],[-98.809985278,20.819191653],[-98.809954651,20.818961498],[-98.809788289,20.818690279],[-98.809469456,20.818398595],[-98.809364127,20.818221078],[-98.809354944,20.817943265],[-98.809509905,20.817724355],[-98.80985724,20.817383617],[-98.81027651,20.81706521],[-98.810367456,20.816895351],[-98.810409577,20.816800393],[-98.810414147,20.816661559],[-98.810356828,20.816558758],[-98.810224756,20.816479767],[-98.809127819,20.816318411],[-98.809011229,20.816282413],[-98.808861153,20.816194072],[-98.808626428,20.815834518],[-98.808395827,20.815464242],[-98.808198646,20.814791979],[-98.808049923,20.814368419],[-98.80817041,20.814113179],[-98.808665269,20.813731594],[-98.808994442,20.813463739],[-98.809432946,20.813085636],[-98.809797694,20.812876903],[-98.810383668,20.812526719],[-98.810413587,20.812862464],[-98.810541149,20.813197562],[-98.810670052,20.813755796],[-98.810981241,20.814432858],[-98.811228056,20.814516979],[-98.811559558,20.81483819],[-98.812013939,20.81523258],[-98.812236365,20.81529935],[-98.812651803,20.815217041],[-98.812836109,20.815145898],[-98.813091029,20.815049663],[-98.813233297,20.815019868],[-98.813396011,20.815061877],[-98.813927531,20.815426053],[-98.814008586,20.815866051],[-98.813877127,20.816141245],[-98.81346019,20.816681741],[-98.813157799,20.816933255],[-98.813019783,20.817792482],[-98.81311224,20.818029652],[-98.813185856,20.818099633],[-98.813296685,20.818198659],[-98.81337971,20.818409723],[-98.813341826,20.818675648],[-98.813227121,20.818873152],[-98.812981278,20.819206186],[-98.812694895,20.81946633],[-98.81254385,20.8195462],[-98.812423302,20.819644108],[-98.812346877,20.819734916],[-98.812341454,20.81982931],[-98.812367292,20.819929294],[-98.812418273,20.820177651],[-98.812346192,20.820479512],[-98.811680069,20.821429822],[-98.811655702,20.82152664],[-98.811832747,20.82172768],[-98.812101744,20.821913993],[-98.812196811,20.822132898],[-98.81242973,20.822102094],[-98.812721656,20.822046217],[-98.813010377,20.822021439],[-98.812932767,20.822092743],[-98.813401354,20.822059461],[-98.81359726,20.822066159],[-98.813663691,20.822068431],[-98.813982974,20.822079346],[-98.814016657,20.822080498],[-98.814253812,20.8220249],[-98.814445683,20.821979917],[-98.814525985,20.821944822],[-98.814968414,20.821667027],[-98.814985713,20.821622384],[-98.815142312,20.821542785],[-98.81530077,20.821512021],[-98.815447061,20.821500915],[-98.81564925,20.821507079],[-98.815838856,20.821680142],[-98.815906598,20.821745518],[-98.816153603,20.822066918],[-98.816246201,20.822060775],[-98.816462179,20.822054633],[-98.816637924,20.821564632],[-98.816647372,20.821450688],[-98.816644166,20.821347294],[-98.816661659,20.8212689],[-98.816742728,20.821189398],[-98.816848457,20.821136389],[-98.816956627,20.821061884],[-98.817024569,20.820963561],[-98.817058684,20.820894759],[-98.817081969,20.820732822],[-98.817053875,20.82057104],[-98.817064673,20.820419286],[-98.817049197,20.820294988],[-98.816988516,20.820168692],[-98.816973358,20.820113374],[-98.816626963,20.819668666],[-98.816582594,20.819558417],[-98.816615703,20.819467556],[-98.817065392,20.819261317],[-98.817885465,20.819209628],[-98.818198578,20.819228759],[-98.818392586,20.819296475],[-98.818896469,20.819686098],[-98.81899802,20.819813733],[-98.819019131,20.819941256],[-98.818957927,20.820165884],[-98.819021448,20.820199974],[-98.819094842,20.820092659],[-98.819208218,20.820424364],[-98.819275995,20.820359955],[-98.819416914,20.820386571],[-98.819494906,20.820329493],[-98.819629431,20.820310607],[-98.819788511,20.820368103],[-98.819712385,20.820498137],[-98.819935644,20.820472399],[-98.820038838,20.820493629],[-98.819954661,20.82065614],[-98.819846347,20.820803608],[-98.819670071,20.820918565],[-98.819631671,20.821002726],[-98.81961486,20.821230329],[-98.81956745,20.82132798],[-98.81951503,20.821426402],[-98.819408115,20.821582554],[-98.819303619,20.82174509],[-98.819221821,20.821983936],[-98.81922282,20.82208926],[-98.819238339,20.822214091],[-98.819310979,20.82240975],[-98.81932489,20.822515231],[-98.819270739,20.82267185],[-98.819126919,20.822974821],[-98.81888462,20.823308121],[-98.818727689,20.823497831],[-98.818447321,20.823686337],[-98.818668284,20.823820472],[-98.818611445,20.82406489],[-98.818542021,20.824363422],[-98.818477569,20.824640571],[-98.818362419,20.825107768],[-98.818356917,20.825265661],[-98.818378239,20.825471187],[-98.818387143,20.825689743],[-98.818341385,20.82602677],[-98.818239807,20.826216361],[-98.818098089,20.826337891],[-98.817865329,20.826454504],[-98.817669412,20.826540757],[-98.81750029,20.826615215],[-98.817071434,20.826721284],[-98.816800554,20.826731497],[-98.8162868,20.82690285],[-98.815991809,20.826651783],[-98.815778811,20.82647292],[-98.815562318,20.826376088],[-98.815153492,20.826265371],[-98.814979931,20.826135093],[-98.81484112,20.82604255],[-98.81465142,20.82592606],[-98.8145708,20.825807108],[-98.814415391,20.825770251],[-98.814319493,20.82574376],[-98.814201371,20.825685114],[-98.814111359,20.825604008],[-98.814032951,20.825485692],[-98.813961589,20.825393452],[-98.813876988,20.825342708],[-98.813793,20.82533087],[-98.81371473,20.825336438],[-98.813529058,20.825348404],[-98.813334743,20.825337142],[-98.813236939,20.825326456],[-98.81313842,20.825346004],[-98.812954109,20.8253652],[-98.812821491,20.825401322],[-98.812523755,20.825552112],[-98.812391421,20.825611232],[-98.812222582,20.825718674],[-98.81205457,20.825826079],[-98.811993689,20.825873782],[-98.811671992,20.826130665],[-98.811384938,20.826347937],[-98.811179867,20.82640271],[-98.810989905,20.826401619],[-98.810838399,20.826394129],[-98.810690568,20.82642561],[-98.810346305,20.826664732],[-98.810087175,20.8269875],[-98.81009524,20.826914926],[-98.810140213,20.82665466],[-98.810230831,20.826451048]]]]},"properties":{"locality":"San Lorenzo Itztacoyotla","municipality":null,"official_key":"130330002","CVE_ENT":"13","CVE_MUN":"033","CVE_LOC":"0002","ambito":"RURAL","geometry_kind":"locality","source":"INEGI Gaia — Servicio vectorial del Marco Geoestadístico"}},{"type":"Feature","geometry":{"type":"MultiPolygon","crs":{"type":"name","properties":{"name":"EPSG:6365"}},"coordinates":[[[[-98.851604481,20.867189846],[-98.851534745,20.867173554],[-98.851458972,20.867157892],[-98.851383536,20.867158832],[-98.85132436,20.867198148],[-98.851269207,20.867258769],[-98.851235679,20.867340223],[-98.851157894,20.867575811],[-98.851127048,20.867648493],[-98.851069381,20.867672305],[-98.851013054,20.867656012],[-98.850963434,20.86761466],[-98.850907107,20.867534458],[-98.850870897,20.867475561],[-98.850841394,20.867414158],[-98.850810548,20.867280073],[-98.850754892,20.867036963],[-98.850715331,20.866975561],[-98.850652296,20.86688032],[-98.850586584,20.866824557],[-98.850689849,20.866628439],[-98.850762269,20.866462398],[-98.85094801,20.866350241],[-98.851069714,20.866256568],[-98.851145823,20.86620049],[-98.85123769,20.866428561],[-98.851069379,20.866564528],[-98.851237689,20.866697362],[-98.851312121,20.866635801],[-98.851375154,20.866799806],[-98.851537426,20.867056386],[-98.851604481,20.867189846]]],[[[-98.849395338,20.869049809],[-98.849311085,20.869056267],[-98.849240795,20.869082052],[-98.849180169,20.86909745],[-98.849095403,20.869090294],[-98.849012726,20.869075639],[-98.848596828,20.868896597],[-98.848505248,20.868946258],[-98.848427274,20.868967329],[-98.848270172,20.868983388],[-98.848042792,20.868980242],[-98.84789021,20.86898055],[-98.847858326,20.868936999],[-98.847785757,20.869013173],[-98.847942772,20.869084161],[-98.847806265,20.869384628],[-98.847426253,20.869273379],[-98.847384885,20.869231164],[-98.847367656,20.869186442],[-98.847372761,20.869118174],[-98.847458333,20.86902234],[-98.847573147,20.86891463],[-98.847737787,20.868778242],[-98.847934609,20.868773434],[-98.848131592,20.868740641],[-98.848178371,20.868717874],[-98.848231697,20.868677351],[-98.848316251,20.868638067],[-98.848474631,20.868634683],[-98.848512214,20.868585436],[-98.84855248,20.868552478],[-98.848713478,20.868486565],[-98.848820897,20.868465013],[-98.848957486,20.86844534],[-98.849094074,20.868429427],[-98.84922241,20.868422662],[-98.84928992,20.868400391],[-98.849387978,20.868279635],[-98.849428626,20.868216749],[-98.849451838,20.868142587],[-98.849496509,20.86803271],[-98.849525086,20.867926591],[-98.849557588,20.867857383],[-98.849610206,20.86777815],[-98.849688641,20.867718026],[-98.849769758,20.867674195],[-98.849822021,20.867669236],[-98.849961336,20.867681985],[-98.85001332,20.867687436],[-98.850034139,20.867668258],[-98.850037669,20.867649837],[-98.849992917,20.867564998],[-98.84995974,20.867473015],[-98.849963127,20.867429403],[-98.849996783,20.867401567],[-98.850025206,20.867401032],[-98.850076689,20.867426283],[-98.850215861,20.867553226],[-98.85023403,20.867555223],[-98.850247572,20.867386294],[-98.850357804,20.866964471],[-98.850546082,20.866871452],[-98.850524083,20.867118879],[-98.850484652,20.867412668],[-98.850484912,20.867684456],[-98.850559195,20.867894697],[-98.850644169,20.868004371],[-98.85072723,20.868075791],[-98.850779323,20.868110057],[-98.850862262,20.868156852],[-98.850915485,20.868210344],[-98.850962923,20.868279735],[-98.85099343,20.868373402],[-98.851006885,20.86847995],[-98.850993204,20.868808565],[-98.851054057,20.869007184],[-98.851102839,20.869091768],[-98.851178946,20.869183245],[-98.851272218,20.869306488],[-98.851357444,20.869518703],[-98.851435357,20.869603538],[-98.851840631,20.86997872],[-98.851903387,20.870008177],[-98.85196721,20.870072103],[-98.852022433,20.870187425],[-98.852040516,20.870281649],[-98.852034459,20.870448554],[-98.852040147,20.870500991],[-98.852087411,20.870568466],[-98.852187301,20.870708429],[-98.852117308,20.870769391],[-98.852085003,20.870827127],[-98.852095798,20.871349052],[-98.852100509,20.871528404],[-98.852051574,20.871584951],[-98.852103911,20.871640404],[-98.852205059,20.871709643],[-98.85232753,20.8718102],[-98.852372217,20.871871285],[-98.852423611,20.871953671],[-98.852444828,20.872031046],[-98.852444587,20.872114684],[-98.852559443,20.872313293],[-98.852620319,20.872382261],[-98.852702655,20.872451231],[-98.852621019,20.872741972],[-98.852567287,20.872807558],[-98.852486777,20.87286792],[-98.85241836,20.872895592],[-98.852397561,20.872934492],[-98.8523486,20.873034792],[-98.852146878,20.873086258],[-98.851931743,20.873137723],[-98.851811328,20.872971658],[-98.851907032,20.872884645],[-98.851960783,20.87280124],[-98.851974246,20.872728209],[-98.851980977,20.872632798],[-98.851991944,20.872573574],[-98.851937187,20.872396674],[-98.851907909,20.87230373],[-98.851852039,20.872213075],[-98.851716286,20.872087558],[-98.85164546,20.872063331],[-98.851570487,20.872019845],[-98.851503177,20.871956655],[-98.851449277,20.871867148],[-98.851366487,20.871698246],[-98.851329546,20.871664832],[-98.851263527,20.871567419],[-98.851073629,20.87141058],[-98.850880524,20.871198596],[-98.850790013,20.871019608],[-98.850774518,20.870928714],[-98.850784503,20.87087416],[-98.850778995,20.870656035],[-98.850756531,20.870523092],[-98.850661648,20.870352554],[-98.850535951,20.870194854],[-98.850404705,20.870037058],[-98.850321738,20.869919361],[-98.850255849,20.869802599],[-98.850203426,20.869668473],[-98.850177141,20.869572079],[-98.849960454,20.869327812],[-98.849757986,20.869118542],[-98.849658782,20.869077813],[-98.84956092,20.869059642],[-98.849395338,20.869049809]]]]},"properties":{"locality":"San Nicolás Coatzontla","municipality":null,"official_key":"130330003","CVE_ENT":"13","CVE_MUN":"033","CVE_LOC":"0003","ambito":"RURAL","geometry_kind":"locality","source":"INEGI Gaia — Servicio vectorial del Marco Geoestadístico"}},{"type":"Feature","geometry":{"type":"MultiPolygon","crs":{"type":"name","properties":{"name":"EPSG:6365"}},"coordinates":[[[[-98.874952419,20.85802503],[-98.874962999,20.85762426],[-98.87492137,20.857454771],[-98.874816619,20.85719129],[-98.87472517,20.856996421],[-98.87463585,20.8567928],[-98.874548849,20.85660558],[-98.87448042,20.85653265],[-98.87437523,20.856505941],[-98.87427982,20.856507781],[-98.874156619,20.85653062],[-98.874027079,20.856615571],[-98.87400766,20.85648728],[-98.87406651,20.85631991],[-98.87447703,20.85589009],[-98.874527419,20.855790721],[-98.87457368,20.85548542],[-98.874627459,20.855231521],[-98.87471911,20.8550876],[-98.87475297,20.85498257],[-98.874848059,20.85480054],[-98.87482411,20.85467126],[-98.87475774,20.85450372],[-98.87475194,20.85443922],[-98.874756139,20.854401421],[-98.874815619,20.8540818],[-98.874924349,20.853757121],[-98.8751012,20.85341189],[-98.875295249,20.85313903],[-98.875811656,20.852773253],[-98.875842519,20.852572929],[-98.875804308,20.852322376],[-98.87553006,20.852041744],[-98.875368457,20.852209481],[-98.875254096,20.852259286],[-98.875104009,20.852175221],[-98.875062007,20.852074294],[-98.874818835,20.851983018],[-98.87392485,20.8526234],[-98.87364946,20.852959001],[-98.873386919,20.85301974],[-98.87321006,20.85304728],[-98.87318495,20.853003401],[-98.87319262,20.852913151],[-98.873279749,20.852800851],[-98.87343018,20.852739571],[-98.873490399,20.85253603],[-98.87353948,20.85243863],[-98.873706739,20.852267831],[-98.87386662,20.85216914],[-98.87393102,20.852003281],[-98.87416385,20.851745311],[-98.874342079,20.85161503],[-98.874659279,20.8514498],[-98.874726819,20.851220981],[-98.874796619,20.851145081],[-98.874909779,20.85106148],[-98.874917049,20.85097014],[-98.87526075,20.850427401],[-98.87530843,20.85027754],[-98.87527128,20.850083231],[-98.875120119,20.84987338],[-98.874970059,20.84966228],[-98.875015049,20.849525371],[-98.87508355,20.849415681],[-98.87516395,20.84936042],[-98.875435829,20.84930512],[-98.87544077,20.84930411],[-98.8750786,20.849196681],[-98.874788519,20.84905592],[-98.87442832,20.848811971],[-98.87417972,20.848589721],[-98.873991659,20.84838432],[-98.87390491,20.84820912],[-98.87369757,20.84724446],[-98.873656029,20.84698208],[-98.87359891,20.84691043],[-98.873509719,20.846861491],[-98.873313089,20.846849251],[-98.87313175,20.846817891],[-98.873037649,20.846785681],[-98.872940889,20.846716091],[-98.872834769,20.846581051],[-98.87274705,20.8465226],[-98.87262523,20.84650943],[-98.872488399,20.846515601],[-98.872309199,20.846579691],[-98.871942819,20.84676323],[-98.87152732,20.84707337],[-98.87116891,20.847368831],[-98.871023249,20.84743942],[-98.870940279,20.847459321],[-98.870361599,20.845729771],[-98.870543739,20.84573454],[-98.87099712,20.845725521],[-98.871592249,20.845725851],[-98.87260014,20.84571262],[-98.8727576,20.845730651],[-98.872934199,20.845789061],[-98.873096919,20.84587911],[-98.873263139,20.84601705],[-98.87336491,20.846102691],[-98.87354995,20.84614255],[-98.873670379,20.84616074],[-98.87402471,20.84629289],[-98.874155,20.84644462],[-98.87433674,20.846847951],[-98.874500079,20.84713754],[-98.874599259,20.847370891],[-98.87468332,20.847634551],[-98.874805179,20.848016831],[-98.87486522,20.848151781],[-98.87499938,20.848267451],[-98.87521892,20.848208721],[-98.875551679,20.84807542],[-98.875610149,20.84817208],[-98.87562123,20.8485978],[-98.87572906,20.849009511],[-98.875765859,20.849086291],[-98.875846399,20.849254381],[-98.87606934,20.849531681],[-98.87626069,20.849647771],[-98.876467876,20.849701604],[-98.876685934,20.849697387],[-98.87693147,20.849601596],[-98.877113584,20.849471796],[-98.877347693,20.849395089],[-98.877658309,20.849449001],[-98.87776695,20.84943775],[-98.87788022,20.84942602],[-98.878083679,20.84942615],[-98.878283879,20.84947578],[-98.878405799,20.849546521],[-98.878435599,20.84957591],[-98.87857049,20.849708891],[-98.878691919,20.84991958],[-98.87882672,20.85019731],[-98.878994059,20.85061557],[-98.87913349,20.851136831],[-98.87912048,20.851492781],[-98.879079169,20.851647451],[-98.87902798,20.851705711],[-98.878887089,20.85176985],[-98.87871765,20.85178166],[-98.87847255,20.851794051],[-98.878394949,20.851805311],[-98.878263649,20.8518348],[-98.87820512,20.85187186],[-98.878157289,20.85190217],[-98.87808689,20.85205945],[-98.878059,20.85223475],[-98.878035309,20.85237858],[-98.877973579,20.852485291],[-98.87783965,20.852622061],[-98.877655779,20.852789851],[-98.87759171,20.85285926],[-98.877573279,20.852944001],[-98.87758249,20.85307958],[-98.877644219,20.853258821],[-98.87769063,20.853387421],[-98.877707799,20.853534781],[-98.87770745,20.8537282],[-98.87776386,20.853948891],[-98.87787865,20.854307381],[-98.87791825,20.854511151],[-98.87794637,20.85463374],[-98.877945049,20.854777911],[-98.877946649,20.855034],[-98.87793082,20.855129581],[-98.87786317,20.855185741],[-98.877758279,20.855234751],[-98.87763163,20.855267321],[-98.877491719,20.855285251],[-98.877423319,20.85533038],[-98.87736645,20.85538352],[-98.877273079,20.85543995],[-98.87716391,20.85553226],[-98.87696175,20.85557237],[-98.87671131,20.85563202],[-98.876586979,20.855696941],[-98.876424569,20.855775281],[-98.876248599,20.855867551],[-98.876040939,20.8559938],[-98.87599638,20.8561622],[-98.875929079,20.85643968],[-98.875861309,20.856554081],[-98.87560195,20.856848431],[-98.875549709,20.856923341],[-98.875524429,20.85700426],[-98.875481599,20.857319751],[-98.87545588,20.857563711],[-98.875410719,20.857823831],[-98.87538702,20.858011281],[-98.875389179,20.858158741],[-98.87544046,20.85823423],[-98.87552706,20.85825137],[-98.875615599,20.858220181],[-98.875734599,20.85814292],[-98.876154909,20.85787308],[-98.87628889,20.857872],[-98.876443169,20.85787135],[-98.8765872,20.857962031],[-98.8771946,20.858306351],[-98.877190489,20.858517281],[-98.87718089,20.85856177],[-98.877143569,20.85859105],[-98.877073419,20.858593941],[-98.876986659,20.85855629],[-98.87690988,20.85851015],[-98.876764059,20.85839994],[-98.87656803,20.858240421],[-98.876388369,20.85811342],[-98.87624058,20.85808894],[-98.876091049,20.85813951],[-98.875927739,20.858291661],[-98.87580472,20.85842855],[-98.8756568,20.858656081],[-98.875509719,20.85884611],[-98.87536291,20.8590254],[-98.87519798,20.85924723],[-98.875062829,20.859416051],[-98.87490509,20.859573681],[-98.874770179,20.859731771],[-98.87467669,20.85982637],[-98.87453297,20.859871681],[-98.87440191,20.85986363],[-98.874353309,20.85974468],[-98.874367829,20.85961092],[-98.87443926,20.85948369],[-98.87452842,20.859330031],[-98.87461832,20.859144201],[-98.87470252,20.85895826],[-98.874734769,20.85879806],[-98.874827289,20.85849968],[-98.874917939,20.858281691],[-98.874952419,20.85802503]]]]},"properties":{"locality":"Santa María","municipality":null,"official_key":"130330004","CVE_ENT":"13","CVE_MUN":"033","CVE_LOC":"0004","ambito":"RURAL","geometry_kind":"locality","source":"INEGI Gaia — Servicio vectorial del Marco Geoestadístico"}},{"type":"Feature","geometry":{"type":"Polygon","coordinates":[[[-98.8305746,20.7826351],[-98.8301017,20.7823463],[-98.8300425,20.7823428],[-98.829857,20.7823243],[-98.8297979,20.7823034],[-98.8296668,20.782294],[-98.8294253,20.7823032],[-98.8291763,20.782303],[-98.8291467,20.7823011],[-98.8290964,20.782298],[-98.8290097,20.7823078],[-98.8288779,20.7823228],[-98.828237,20.7820806],[-98.8280344,20.7819231],[-98.8278544,20.7818211],[-98.827854,20.781784],[-98.8278215,20.7816156],[-98.8277327,20.7813349],[-98.8276545,20.7811616],[-98.8275692,20.7810516],[-98.8273129,20.780697],[-98.8271127,20.7804641],[-98.8269257,20.7803122],[-98.826657,20.780399],[-98.8264106,20.7803935],[-98.8262201,20.7804978],[-98.8259378,20.7806461],[-98.8258978,20.7806655],[-98.8258308,20.7807246],[-98.8258143,20.7805812],[-98.8255137,20.7798627],[-98.8254431,20.7796139],[-98.8252827,20.7793162],[-98.8255925,20.7791558],[-98.8260842,20.7791119],[-98.8265945,20.7792501],[-98.8269146,20.7793037],[-98.8271983,20.779224],[-98.8277607,20.7793312],[-98.8280585,20.7792604],[-98.8284064,20.779269],[-98.8285483,20.7792114],[-98.8286241,20.7791004],[-98.8286963,20.7788507],[-98.8287674,20.7787354],[-98.8290795,20.7785935],[-98.8293255,20.7784206],[-98.8296966,20.7782862],[-98.8305247,20.7774255],[-98.8310651,20.7769941],[-98.8312779,20.7768877],[-98.8315356,20.7767358],[-98.8317814,20.7766738],[-98.8319942,20.7765852],[-98.8321833,20.7765899],[-98.8323948,20.776486],[-98.8327918,20.7762337],[-98.8330063,20.776148],[-98.8332739,20.7760511],[-98.8333415,20.7760388],[-98.8335319,20.7760477],[-98.833777,20.7759702],[-98.8340849,20.7759705],[-98.8342537,20.7760297],[-98.8345235,20.7760767],[-98.8349075,20.7761237],[-98.8354159,20.7762771],[-98.8355382,20.7763924],[-98.8359918,20.7764177],[-98.8364335,20.7765897],[-98.8368324,20.7766497],[-98.8370474,20.7768583],[-98.8371863,20.7769425],[-98.8375107,20.7770112],[-98.8376376,20.7772081],[-98.8377898,20.7773202],[-98.8379116,20.7773263],[-98.8382538,20.779113],[-98.8385147,20.7804752],[-98.8384292,20.7804988],[-98.8381466,20.7806165],[-98.8379354,20.7808826],[-98.8377776,20.7811487],[-98.8376917,20.7812978],[-98.8373858,20.7817828],[-98.8370758,20.7820409],[-98.836646,20.7823016],[-98.8365122,20.7823873],[-98.8363416,20.7825256],[-98.8361689,20.78243],[-98.8360224,20.7823472],[-98.8358396,20.7822568],[-98.8355037,20.7821571],[-98.8353163,20.7820303],[-98.8350401,20.7818106],[-98.8349672,20.7818229],[-98.8349037,20.7817998],[-98.8347395,20.7817403],[-98.8345867,20.7817179],[-98.834209,20.7817157],[-98.8340445,20.7817194],[-98.8339551,20.7817332],[-98.8337924,20.7816669],[-98.8336269,20.7816044],[-98.8334748,20.7816243],[-98.8328687,20.7816486],[-98.8322374,20.7816605],[-98.831846,20.7817196],[-98.8318953,20.7817996],[-98.8319246,20.7818801],[-98.8319312,20.7819374],[-98.8319461,20.7820684],[-98.8319096,20.7823657],[-98.8318826,20.782464],[-98.8318029,20.7824412],[-98.8315324,20.7824001],[-98.8315031,20.7824289],[-98.8310791,20.7826174],[-98.8306742,20.7827846],[-98.8306374,20.7826838],[-98.8305746,20.7826351]]]},"properties":{"locality":"EL BAJÍO","official_key":"1303300010001","CVE_ENT":"13","CVE_MUN":"033","CVE_LOC":"0001","CVE_ASEN":"0001","settlement_type":"BARRIO","source":"INEGI DCAH 2025"}},{"type":"Feature","geometry":{"type":"Polygon","coordinates":[[[-98.8230929,20.7894717],[-98.8231432,20.7893207],[-98.823171,20.7888777],[-98.8232514,20.7885521],[-98.8233436,20.7882923],[-98.8247625,20.7867777],[-98.8247542,20.7867443],[-98.8247254,20.7866281],[-98.8230431,20.7841152],[-98.8225818,20.7834529],[-98.8226572,20.7835006],[-98.822724,20.7835264],[-98.8228247,20.7835458],[-98.8229885,20.7835478],[-98.8231558,20.7835326],[-98.8232823,20.7834934],[-98.8233697,20.7834312],[-98.8234361,20.7833717],[-98.8235408,20.7832751],[-98.8236421,20.7831865],[-98.8237788,20.7830887],[-98.823873,20.7830351],[-98.8239598,20.7830044],[-98.8241254,20.7829657],[-98.8242187,20.7829534],[-98.8243218,20.7829548],[-98.8244126,20.782966],[-98.8244809,20.783004],[-98.8248494,20.7832582],[-98.8252422,20.7834267],[-98.8254927,20.7835119],[-98.825639,20.7835168],[-98.8257307,20.7835557],[-98.8258802,20.7836335],[-98.8260385,20.7836906],[-98.8261262,20.7836931],[-98.8262733,20.7836708],[-98.8263273,20.7836556],[-98.8264701,20.783611],[-98.8265255,20.7836133],[-98.8266982,20.7834476],[-98.8268133,20.783361],[-98.8270032,20.7832336],[-98.8271524,20.783151],[-98.8273072,20.7831348],[-98.827387,20.7831389],[-98.8274911,20.7831694],[-98.8275421,20.783184],[-98.8276694,20.7832302],[-98.8277239,20.7832522],[-98.8278017,20.7832862],[-98.8278987,20.7833423],[-98.8279194,20.7833571],[-98.8279525,20.7833982],[-98.8279851,20.7835207],[-98.82801,20.7836707],[-98.828054,20.7839012],[-98.8280977,20.7841118],[-98.8281152,20.7841782],[-98.8281238,20.7842109],[-98.8281785,20.7844445],[-98.8282152,20.784637],[-98.8282535,20.7847747],[-98.8283376,20.7848779],[-98.8284548,20.7849806],[-98.8285971,20.7850697],[-98.8287249,20.7851366],[-98.8287934,20.7851558],[-98.828842,20.7851559],[-98.8288462,20.7852815],[-98.8288547,20.7854004],[-98.8288696,20.7854726],[-98.828649,20.7855513],[-98.8285965,20.7855512],[-98.8284942,20.7858343],[-98.8284201,20.7860525],[-98.8283646,20.7862639],[-98.8283083,20.7865132],[-98.8283029,20.7866316],[-98.8283394,20.7868781],[-98.8283182,20.7870309],[-98.8282959,20.7871117],[-98.828276,20.7871837],[-98.8281965,20.7875603],[-98.828107,20.7877672],[-98.828002,20.7878509],[-98.827897,20.7879198],[-98.8277656,20.7880824],[-98.82765,20.7882696],[-98.8274121,20.788424],[-98.8272232,20.7884928],[-98.8269922,20.7885665],[-98.8268557,20.7886452],[-98.8267063,20.7888084],[-98.8264175,20.78903],[-98.826113,20.7891628],[-98.8259187,20.7892316],[-98.8257088,20.789256],[-98.8255777,20.7892115],[-98.8253913,20.7891134],[-98.825213,20.7889949],[-98.8250084,20.7889947],[-98.8248929,20.7890538],[-98.8247616,20.7891571],[-98.824541,20.7893196],[-98.8243496,20.789425],[-98.8240413,20.7894648],[-98.8239527,20.7894493],[-98.8238216,20.7894152],[-98.8237101,20.7894336],[-98.8236542,20.7895137],[-98.8236443,20.7896123],[-98.8236727,20.7897862],[-98.8236561,20.7899464],[-98.8235576,20.7900787],[-98.8234118,20.7901749],[-98.8233977,20.7901842],[-98.8233744,20.7901222],[-98.823314,20.7899092],[-98.8232428,20.7897939],[-98.8232166,20.7897047],[-98.8231192,20.7895683],[-98.8231035,20.7895106],[-98.8230929,20.7894717]]]},"properties":{"locality":"BARRIO DE BUENA VISTA","official_key":"1303300010002","CVE_ENT":"13","CVE_MUN":"033","CVE_LOC":"0001","CVE_ASEN":"0002","settlement_type":"BARRIO","source":"INEGI DCAH 2025"}},{"type":"Feature","geometry":{"type":"Polygon","coordinates":[[[-98.8372499,20.7862512],[-98.8372001,20.7860337],[-98.8371175,20.7855428],[-98.8370552,20.7851528],[-98.8370101,20.7849966],[-98.8369511,20.7849359],[-98.8368555,20.7849479],[-98.8366344,20.784987],[-98.8365072,20.7849995],[-98.8363978,20.7849758],[-98.8363131,20.7849255],[-98.836196,20.7849018],[-98.8360999,20.7849067],[-98.8360108,20.7848385],[-98.8359551,20.7847965],[-98.8358824,20.7847555],[-98.8357885,20.7847995],[-98.8357394,20.7848305],[-98.8355967,20.7849187],[-98.8354815,20.784989],[-98.835192,20.7851213],[-98.8349205,20.7852364],[-98.8347996,20.7853166],[-98.8345779,20.7855194],[-98.8344285,20.7856359],[-98.8343299,20.7856916],[-98.8342591,20.785655],[-98.8341268,20.7855406],[-98.8338411,20.7854816],[-98.8337201,20.7854586],[-98.8336315,20.7854346],[-98.8335113,20.7853588],[-98.8335015,20.785318],[-98.833464,20.7852515],[-98.833302,20.7851148],[-98.8332422,20.7850594],[-98.833199,20.7849996],[-98.8331057,20.7848898],[-98.8330619,20.784828],[-98.8329877,20.7846921],[-98.8329814,20.7846228],[-98.8330153,20.7845323],[-98.8330656,20.7844519],[-98.8331089,20.7843953],[-98.8331725,20.7843829],[-98.833256,20.7843745],[-98.8333033,20.784331],[-98.8334103,20.7840562],[-98.8334826,20.7838594],[-98.8334281,20.7836488],[-98.8334203,20.7834902],[-98.8334364,20.7834179],[-98.8335147,20.7832705],[-98.8335757,20.783132],[-98.8336439,20.7830082],[-98.833675,20.7828797],[-98.8336737,20.7827468],[-98.8335899,20.7826586],[-98.8335057,20.782587],[-98.8334193,20.7825316],[-98.8333716,20.7825106],[-98.8332993,20.782477],[-98.8329091,20.7824898],[-98.8323483,20.7825232],[-98.8320139,20.7825063],[-98.8319417,20.7824836],[-98.8318826,20.782464],[-98.8319096,20.7823657],[-98.8319461,20.7820684],[-98.8319312,20.7819374],[-98.8319246,20.7818801],[-98.8318953,20.7817996],[-98.831846,20.7817196],[-98.8322374,20.7816605],[-98.8328687,20.7816486],[-98.8334748,20.7816243],[-98.8336269,20.7816044],[-98.8337924,20.7816669],[-98.8339551,20.7817332],[-98.8340445,20.7817194],[-98.834209,20.7817157],[-98.8345867,20.7817179],[-98.8347395,20.7817403],[-98.8349037,20.7817998],[-98.8349672,20.7818229],[-98.8350401,20.7818106],[-98.8353163,20.7820303],[-98.8355037,20.7821571],[-98.8358396,20.7822568],[-98.8360224,20.7823472],[-98.8361689,20.78243],[-98.8363416,20.7825256],[-98.8365122,20.7823873],[-98.836646,20.7823016],[-98.8370758,20.7820409],[-98.8373858,20.7817828],[-98.8376917,20.7812978],[-98.8377776,20.7811487],[-98.8379354,20.7808826],[-98.8381466,20.7806165],[-98.8384292,20.7804988],[-98.8385147,20.7804752],[-98.8386033,20.7809378],[-98.83865,20.7812541],[-98.8393777,20.7822314],[-98.8394269,20.7823275],[-98.8401162,20.7869],[-98.8401398,20.7870445],[-98.8400754,20.7870605],[-98.8399712,20.7870539],[-98.8398224,20.7870657],[-98.8377287,20.7861847],[-98.8375604,20.7862009],[-98.8372794,20.7862377],[-98.8372499,20.7862512]]]},"properties":{"locality":"LAS CARRERAS","official_key":"1303300010003","CVE_ENT":"13","CVE_MUN":"033","CVE_LOC":"0001","CVE_ASEN":"0003","settlement_type":"BARRIO","source":"INEGI DCAH 2025"}},{"type":"Feature","geometry":{"type":"Polygon","coordinates":[[[-98.8279525,20.7833982],[-98.8279448,20.7833387],[-98.827965,20.783208],[-98.8280249,20.783052],[-98.8282248,20.7828026],[-98.8282408,20.7827719],[-98.8282386,20.782578],[-98.8281924,20.7824687],[-98.8281425,20.7823816],[-98.8280941,20.7823218],[-98.8280692,20.7823051],[-98.8278995,20.782191],[-98.8278534,20.7820605],[-98.827803,20.7819259],[-98.8277699,20.7818031],[-98.8277934,20.7817944],[-98.8278544,20.7818211],[-98.8280344,20.7819231],[-98.828237,20.7820806],[-98.8288779,20.7823228],[-98.8290097,20.7823078],[-98.8290964,20.782298],[-98.8291467,20.7823011],[-98.8291763,20.782303],[-98.8294253,20.7823032],[-98.8296668,20.782294],[-98.8297979,20.7823034],[-98.829857,20.7823243],[-98.8300425,20.7823428],[-98.8301017,20.7823463],[-98.8305746,20.7826351],[-98.8306374,20.7826838],[-98.8306742,20.7827846],[-98.8305521,20.7828678],[-98.830556,20.7829114],[-98.8306037,20.7831789],[-98.8306332,20.7832866],[-98.8306479,20.7833874],[-98.8306255,20.7835298],[-98.83057,20.78362],[-98.8305217,20.7837867],[-98.8304919,20.7839604],[-98.8304249,20.7840607],[-98.8303931,20.7841083],[-98.8301896,20.7843208],[-98.8300877,20.7844857],[-98.8300035,20.784608],[-98.8298402,20.7847808],[-98.8296625,20.7849382],[-98.8295498,20.7851314],[-98.82941,20.7852471],[-98.8291982,20.7854302],[-98.8290462,20.7854571],[-98.8288959,20.7854479],[-98.8288696,20.7854726],[-98.8288547,20.7854004],[-98.8288462,20.7852815],[-98.828842,20.7851559],[-98.8287934,20.7851558],[-98.8287249,20.7851366],[-98.8285971,20.7850697],[-98.8284548,20.7849806],[-98.8283376,20.7848779],[-98.8282535,20.7847747],[-98.8282152,20.784637],[-98.8281785,20.7844445],[-98.8281238,20.7842109],[-98.8281152,20.7841782],[-98.8280977,20.7841118],[-98.828054,20.7839012],[-98.82801,20.7836707],[-98.8279851,20.7835207],[-98.8279525,20.7833982]]]},"properties":{"locality":"CENTRO","official_key":"1303300010004","CVE_ENT":"13","CVE_MUN":"033","CVE_LOC":"0001","CVE_ASEN":"0004","settlement_type":"BARRIO","source":"INEGI DCAH 2025"}},{"type":"Feature","geometry":{"type":"Polygon","coordinates":[[[-98.8233977,20.7901842],[-98.8234118,20.7901749],[-98.8235576,20.7900787],[-98.8236561,20.7899464],[-98.8236727,20.7897862],[-98.8236443,20.7896123],[-98.8236542,20.7895137],[-98.8237101,20.7894336],[-98.8238216,20.7894152],[-98.8239527,20.7894493],[-98.8240413,20.7894648],[-98.8243496,20.789425],[-98.824541,20.7893196],[-98.8247616,20.7891571],[-98.8248929,20.7890538],[-98.8250084,20.7889947],[-98.825213,20.7889949],[-98.8253913,20.7891134],[-98.8255777,20.7892115],[-98.8257088,20.789256],[-98.8259187,20.7892316],[-98.826113,20.7891628],[-98.8264175,20.78903],[-98.8267063,20.7888084],[-98.8268557,20.7886452],[-98.8269922,20.7885665],[-98.8272232,20.7884928],[-98.8274121,20.788424],[-98.82765,20.7882696],[-98.8277656,20.7880824],[-98.827897,20.7879198],[-98.828002,20.7878509],[-98.828107,20.7877672],[-98.8281965,20.7875603],[-98.828276,20.7871837],[-98.8282959,20.7871117],[-98.8283182,20.7870309],[-98.8283394,20.7868781],[-98.8283029,20.7866316],[-98.8283083,20.7865132],[-98.8283646,20.7862639],[-98.8284201,20.7860525],[-98.8284942,20.7858343],[-98.8285965,20.7855512],[-98.828649,20.7855513],[-98.8288696,20.7854726],[-98.8288959,20.7854479],[-98.8290462,20.7854571],[-98.8291982,20.7854302],[-98.82941,20.7852471],[-98.8295498,20.7851314],[-98.8296625,20.7849382],[-98.8298402,20.7847808],[-98.8300035,20.784608],[-98.8300877,20.7844857],[-98.8301896,20.7843208],[-98.8303931,20.7841083],[-98.8304249,20.7840607],[-98.8304919,20.7839604],[-98.8305217,20.7837867],[-98.83057,20.78362],[-98.8306255,20.7835298],[-98.8306479,20.7833874],[-98.8306332,20.7832866],[-98.8306037,20.7831789],[-98.830556,20.7829114],[-98.8305521,20.7828678],[-98.8306742,20.7827846],[-98.8310791,20.7826174],[-98.8315031,20.7824289],[-98.8315324,20.7824001],[-98.8318029,20.7824412],[-98.8318826,20.782464],[-98.8319417,20.7824836],[-98.8320139,20.7825063],[-98.8323483,20.7825232],[-98.8329091,20.7824898],[-98.8332993,20.782477],[-98.8333716,20.7825106],[-98.8334193,20.7825316],[-98.8335057,20.782587],[-98.8335899,20.7826586],[-98.8336737,20.7827468],[-98.833675,20.7828797],[-98.8336439,20.7830082],[-98.8335757,20.783132],[-98.8335147,20.7832705],[-98.8334364,20.7834179],[-98.8334203,20.7834902],[-98.8334281,20.7836488],[-98.8334826,20.7838594],[-98.8334103,20.7840562],[-98.8333033,20.784331],[-98.833256,20.7843745],[-98.8331725,20.7843829],[-98.8331089,20.7843953],[-98.8330656,20.7844519],[-98.8330153,20.7845323],[-98.8329814,20.7846228],[-98.8329877,20.7846921],[-98.8330619,20.784828],[-98.8331057,20.7848898],[-98.833199,20.7849996],[-98.8332422,20.7850594],[-98.833302,20.7851148],[-98.833464,20.7852515],[-98.8335015,20.785318],[-98.8335113,20.7853588],[-98.8336315,20.7854346],[-98.8337201,20.7854586],[-98.8338411,20.7854816],[-98.8341268,20.7855406],[-98.8342591,20.785655],[-98.8343299,20.7856916],[-98.8344285,20.7856359],[-98.8345779,20.7855194],[-98.8347996,20.7853166],[-98.8349205,20.7852364],[-98.835192,20.7851213],[-98.8354815,20.784989],[-98.8355967,20.7849187],[-98.8357394,20.7848305],[-98.8357885,20.7847995],[-98.8358824,20.7847555],[-98.8359551,20.7847965],[-98.8360108,20.7848385],[-98.8360999,20.7849067],[-98.836196,20.7849018],[-98.8363131,20.7849255],[-98.8363978,20.7849758],[-98.8365072,20.7849995],[-98.8366344,20.784987],[-98.8368555,20.7849479],[-98.8369511,20.7849359],[-98.8370101,20.7849966],[-98.8370552,20.7851528],[-98.8371175,20.7855428],[-98.8372001,20.7860337],[-98.8372499,20.7862512],[-98.8372683,20.7864003],[-98.8372865,20.786473],[-98.8373205,20.7865708],[-98.8374097,20.7866403],[-98.8375393,20.7867093],[-98.8377661,20.7867849],[-98.8380087,20.7868526],[-98.8381901,20.7868945],[-98.8382874,20.7868898],[-98.8384407,20.7869332],[-98.8388103,20.7870697],[-98.8391214,20.7871631],[-98.8392995,20.7872218],[-98.8393894,20.7872507],[-98.8396876,20.7872846],[-98.8401237,20.7873278],[-98.8401867,20.7873314],[-98.8401944,20.7873787],[-98.8343003,20.7898124],[-98.8341927,20.7898569],[-98.8316627,20.7908042],[-98.8316266,20.7908177],[-98.8243491,20.7903967],[-98.824216,20.7903981],[-98.8233787,20.7902848],[-98.8233804,20.7901956],[-98.8233977,20.7901842]]]},"properties":{"locality":"LA FUENTE","official_key":"1303300010005","CVE_ENT":"13","CVE_MUN":"033","CVE_LOC":"0001","CVE_ASEN":"0005","settlement_type":"BARRIO","source":"INEGI DCAH 2025"}},{"type":"Feature","geometry":{"type":"Polygon","coordinates":[[[-98.8379116,20.7773263],[-98.8377898,20.7773202],[-98.8376376,20.7772081],[-98.8375107,20.7770112],[-98.8371863,20.7769425],[-98.8370474,20.7768583],[-98.8368324,20.7766497],[-98.8364335,20.7765897],[-98.8359918,20.7764177],[-98.8355382,20.7763924],[-98.8354159,20.7762771],[-98.8349075,20.7761237],[-98.8345235,20.7760767],[-98.8342537,20.7760297],[-98.8340849,20.7759705],[-98.833777,20.7759702],[-98.8335319,20.7760477],[-98.8333415,20.7760388],[-98.8332739,20.7760511],[-98.8330063,20.776148],[-98.8327918,20.7762337],[-98.8323948,20.776486],[-98.8321833,20.7765899],[-98.8319942,20.7765852],[-98.8317814,20.7766738],[-98.8315356,20.7767358],[-98.8312779,20.7768877],[-98.8310651,20.7769941],[-98.8305247,20.7774255],[-98.8296966,20.7782862],[-98.8293255,20.7784206],[-98.8290795,20.7785935],[-98.8287674,20.7787354],[-98.8286963,20.7788507],[-98.8286241,20.7791004],[-98.8285483,20.7792114],[-98.8284064,20.779269],[-98.8280585,20.7792604],[-98.8277607,20.7793312],[-98.8271983,20.779224],[-98.8269146,20.7793037],[-98.8265945,20.7792501],[-98.8260842,20.7791119],[-98.8255925,20.7791558],[-98.8252827,20.7793162],[-98.8252071,20.779222],[-98.8255224,20.7786829],[-98.8256187,20.7786059],[-98.8365891,20.7711733],[-98.8371953,20.7707866],[-98.8375628,20.7706838],[-98.8375866,20.7708139],[-98.8377009,20.7710158],[-98.8377675,20.7711952],[-98.837776,20.7712549],[-98.8377893,20.771349],[-98.8375932,20.7717386],[-98.8375834,20.7719813],[-98.8376844,20.7722493],[-98.8379161,20.7725539],[-98.8379345,20.772769],[-98.8379116,20.7773263]]]},"properties":{"locality":"ITZMOLINTLA","official_key":"1303300010006","CVE_ENT":"13","CVE_MUN":"033","CVE_LOC":"0001","CVE_ASEN":"0006","settlement_type":"BARRIO","source":"INEGI DCAH 2025"}},{"type":"Feature","geometry":{"type":"Polygon","coordinates":[[[-98.8258802,20.7836335],[-98.8257307,20.7835557],[-98.825639,20.7835168],[-98.8254927,20.7835119],[-98.8252422,20.7834267],[-98.8248494,20.7832582],[-98.8244809,20.783004],[-98.8244126,20.782966],[-98.8243218,20.7829548],[-98.8242187,20.7829534],[-98.8241254,20.7829657],[-98.8239598,20.7830044],[-98.823873,20.7830351],[-98.8237788,20.7830887],[-98.8236421,20.7831865],[-98.8235408,20.7832751],[-98.8234361,20.7833717],[-98.8233697,20.7834312],[-98.8232823,20.7834934],[-98.8231558,20.7835326],[-98.8229885,20.7835478],[-98.8228247,20.7835458],[-98.822724,20.7835264],[-98.8226572,20.7835006],[-98.8225818,20.7834529],[-98.8225231,20.7834085],[-98.8224061,20.7832775],[-98.8222938,20.783115],[-98.8221105,20.7829671],[-98.8218935,20.7828508],[-98.8213419,20.7825853],[-98.8211846,20.7825851],[-98.8211099,20.7825042],[-98.8210915,20.7822051],[-98.8212005,20.7818183],[-98.8212157,20.7817537],[-98.8211822,20.7816094],[-98.8209204,20.7813348],[-98.8207251,20.7811223],[-98.8206762,20.7810149],[-98.8205197,20.7806719],[-98.8207295,20.7806229],[-98.8210449,20.7805719],[-98.8217527,20.7804677],[-98.8222045,20.7803827],[-98.8223142,20.7803641],[-98.8228663,20.7803584],[-98.8230602,20.7803897],[-98.8231433,20.7800909],[-98.8242895,20.7797634],[-98.8245616,20.7796868],[-98.8246063,20.7797285],[-98.8246864,20.7799418],[-98.8255137,20.7798627],[-98.8258143,20.7805812],[-98.8258308,20.7807246],[-98.8258978,20.7806655],[-98.8259378,20.7806461],[-98.8262201,20.7804978],[-98.8264106,20.7803935],[-98.826657,20.780399],[-98.8269257,20.7803122],[-98.8271127,20.7804641],[-98.8273129,20.780697],[-98.8275692,20.7810516],[-98.8276545,20.7811616],[-98.8277327,20.7813349],[-98.8278215,20.7816156],[-98.827854,20.781784],[-98.8278544,20.7818211],[-98.8277934,20.7817944],[-98.8277699,20.7818031],[-98.827803,20.7819259],[-98.8278534,20.7820605],[-98.8278995,20.782191],[-98.8280692,20.7823051],[-98.8280941,20.7823218],[-98.8281425,20.7823816],[-98.8281924,20.7824687],[-98.8282386,20.782578],[-98.8282408,20.7827719],[-98.8282248,20.7828026],[-98.8280249,20.783052],[-98.827965,20.783208],[-98.8279448,20.7833387],[-98.8279525,20.7833982],[-98.8279194,20.7833571],[-98.8278987,20.7833423],[-98.8278017,20.7832862],[-98.8277239,20.7832522],[-98.8276694,20.7832302],[-98.8275421,20.783184],[-98.8274911,20.7831694],[-98.827387,20.7831389],[-98.8273072,20.7831348],[-98.8271524,20.783151],[-98.8270032,20.7832336],[-98.8268133,20.783361],[-98.8266982,20.7834476],[-98.8265255,20.7836133],[-98.8264701,20.783611],[-98.8263273,20.7836556],[-98.8262733,20.7836708],[-98.8261262,20.7836931],[-98.8260385,20.7836906],[-98.8258802,20.7836335]]]},"properties":{"locality":"LA LAGUNA","official_key":"1303300010007","CVE_ENT":"13","CVE_MUN":"033","CVE_LOC":"0001","CVE_ASEN":"0007","settlement_type":"BARRIO","source":"INEGI DCAH 2025"}},{"type":"Feature","geometry":{"type":"Polygon","coordinates":[[[-98.8372499,20.7862512],[-98.8372794,20.7862377],[-98.8375604,20.7862009],[-98.8377287,20.7861847],[-98.8398224,20.7870657],[-98.8399712,20.7870539],[-98.8400754,20.7870605],[-98.8401398,20.7870445],[-98.8401867,20.7873314],[-98.8401237,20.7873278],[-98.8396876,20.7872846],[-98.8393894,20.7872507],[-98.8392995,20.7872218],[-98.8391214,20.7871631],[-98.8388103,20.7870697],[-98.8384407,20.7869332],[-98.8382874,20.7868898],[-98.8381901,20.7868945],[-98.8380087,20.7868526],[-98.8377661,20.7867849],[-98.8375393,20.7867093],[-98.8374097,20.7866403],[-98.8373205,20.7865708],[-98.8372865,20.786473],[-98.8372683,20.7864003],[-98.8372499,20.7862512]]]},"properties":{"locality":"LA CRUZ","official_key":"1303300010008","CVE_ENT":"13","CVE_MUN":"033","CVE_LOC":"0001","CVE_ASEN":"0008","settlement_type":"BARRIO","source":"INEGI DCAH 2025"}}]}