{"type":"FeatureCollection","name":"inegi-hidalgo-050","metadata":{"state":"Hidalgo","CVE_ENT":"13","CVE_MUN":"050","municipality":"Progreso de Obregón","sources":["INEGI Gaia — Servicio vectorial del Marco Geoestadístico","INEGI DCAH 2025"],"source_urls":["https://gaia.inegi.org.mx/wscatgeo/v2/geo/mgem/13","https://gaia.inegi.org.mx/wscatgeo/v2/geo/localidades/pol/13/050","https://www.inegi.org.mx/contenidos/productos/prod_serv/contenidos/espanol/bvinegi/productos/geografia/delimitaciones/794551163078/13_hidalgo.zip"],"geometry_policy":"Solo se publican polígonos de INEGI; no se generan puntos ni geometrías sintéticas.","locality_polygon_count":11,"settlement_polygon_count":11},"municipality":{"type":"Feature","geometry":{"type":"MultiPolygon","crs":{"type":"name","properties":{"name":"EPSG:6365"}},"coordinates":[[[[-99.14880843,20.377674891],[-99.148855459,20.377041141],[-99.148731569,20.376667451],[-99.14848109,20.376331001],[-99.14806983,20.37602834],[-99.146943179,20.375002461],[-99.146075369,20.37397374],[-99.14563715,20.3732192],[-99.145108169,20.372038221],[-99.144953319,20.37141343],[-99.14483638,20.370581061],[-99.14471762,20.36983691],[-99.144480819,20.36862872],[-99.144359029,20.367720521],[-99.14435378,20.367003691],[-99.14425715,20.365856321],[-99.144158339,20.36448517],[-99.14406758,20.363842311],[-99.144188939,20.36306082],[-99.14404397,20.3615978],[-99.14400658,20.360806851],[-99.143969849,20.359729521],[-99.143969339,20.35917402],[-99.143551029,20.35827752],[-99.143499289,20.35806705],[-99.143464709,20.35784038],[-99.14329246,20.35741952],[-99.143171779,20.3570148],[-99.143171539,20.35673952],[-99.143050819,20.356286231],[-99.142861279,20.35575203],[-99.142809449,20.35544442],[-99.142860689,20.35510432],[-99.14287755,20.354764261],[-99.143031949,20.35447268],[-99.14316905,20.354035351],[-99.143202689,20.353258081],[-99.142961889,20.353031581],[-99.14268691,20.35301562],[-99.14229168,20.353032121],[-99.14155515,20.353123941],[-99.14097295,20.35295818],[-99.140485119,20.352601141],[-99.1401882,20.352154341],[-99.13989143,20.351875181],[-99.13963414,20.351540111],[-99.139436179,20.351242251],[-99.13923814,20.350832621],[-99.138579119,20.34978723],[-99.138432949,20.349498681],[-99.13829838,20.349127521],[-99.138328089,20.34866683],[-99.13811215,20.34837232],[-99.13801866,20.34824042],[-99.13790178,20.34808652],[-99.13766815,20.34786674],[-99.137516319,20.347767861],[-99.13725951,20.34775706],[-99.136920979,20.347746321],[-99.136722569,20.347768481],[-99.13644238,20.347713711],[-99.13629055,20.347625831],[-99.13622042,20.34750491],[-99.13613849,20.34726298],[-99.136103339,20.34710903],[-99.13607974,20.34680108],[-99.13597452,20.34662518],[-99.135797079,20.34615222],[-99.135714919,20.345977021],[-99.13560535,20.34578563],[-99.135580659,20.345566],[-99.135468599,20.34540391],[-99.13539298,20.34523695],[-99.13521766,20.344973121],[-99.135109119,20.34469666],[-99.135032459,20.34441534],[-99.134832979,20.34444808],[-99.134616519,20.344551091],[-99.134470339,20.34464372],[-99.134236969,20.34473191],[-99.13386888,20.34456355],[-99.13331408,20.344277371],[-99.132121279,20.34373432],[-99.130688349,20.34279926],[-99.130525049,20.342817571],[-99.1302682,20.342751771],[-99.1301514,20.34266388],[-99.129964479,20.34246603],[-99.129660889,20.34233426],[-99.12936145,20.34221671],[-99.12923803,20.342170221],[-99.128314149,20.34157622],[-99.12762171,20.34107372],[-99.127375059,20.340945941],[-99.12707889,20.34085486],[-99.126953249,20.34071345],[-99.12676757,20.340443711],[-99.126035579,20.339594771],[-99.125692139,20.33936828],[-99.125561969,20.339094461],[-99.12552646,20.338925621],[-99.12541335,20.338720251],[-99.12530534,20.33874354],[-99.12519226,20.338769711],[-99.124968909,20.33888903],[-99.12488683,20.338835171],[-99.12495002,20.33864154],[-99.12502354,20.33849706],[-99.125129659,20.338289851],[-99.12519249,20.33803094],[-99.125050179,20.337791751],[-99.12450989,20.33705894],[-99.12424425,20.33647832],[-99.123645289,20.335712051],[-99.12343195,20.33531658],[-99.123183799,20.3349956],[-99.12312455,20.33487254],[-99.12303868,20.33449995],[-99.123044919,20.334060781],[-99.12284792,20.33302568],[-99.122528339,20.33242488],[-99.122480339,20.33201177],[-99.12233135,20.33164383],[-99.122276029,20.33076758],[-99.1220818,20.32997928],[-99.121866309,20.329151861],[-99.12192852,20.328751771],[-99.12179797,20.328340351],[-99.12166482,20.327949891],[-99.12134783,20.327632651],[-99.120561109,20.32437794],[-99.119277659,20.32135792],[-99.11877863,20.31856992],[-99.11896528,20.318269581],[-99.119590279,20.31762031],[-99.11981992,20.31743934],[-99.120196029,20.31712122],[-99.12060418,20.31700878],[-99.12112506,20.31646175],[-99.12145011,20.316408691],[-99.121819979,20.316345051],[-99.122045019,20.316222541],[-99.12232428,20.31614395],[-99.1225038,20.31627848],[-99.122694349,20.316483091],[-99.12304842,20.316446711],[-99.12334449,20.31629115],[-99.123601999,20.31605078],[-99.12396075,20.315942051],[-99.124396859,20.31601097],[-99.124762769,20.315930431],[-99.12492391,20.31594643],[-99.125092919,20.31595802],[-99.12526155,20.31600182],[-99.12538565,20.31608378],[-99.12555757,20.31611606],[-99.12572086,20.31612405],[-99.125977862,20.316188437],[-99.12597875,20.31618866],[-99.12613345,20.31617235],[-99.12632245,20.31608311],[-99.12645988,20.31596962],[-99.12663174,20.31593708],[-99.126879916,20.315928835],[-99.12688098,20.3159288],[-99.127163083,20.315944713],[-99.12716462,20.3159448],[-99.12759434,20.31592828],[-99.12785212,20.31586329],[-99.12806691,20.31575783],[-99.12812694,20.31561198],[-99.12819837,20.31538983],[-99.1283186,20.31526825],[-99.128479435,20.315268122],[-99.12848189,20.31526812],[-99.12863752,20.3153558],[-99.12879238,20.31548223],[-99.1289182,20.31564317],[-99.12910111,20.31576178],[-99.129408704,20.315801811],[-99.12941054,20.31580205],[-99.12959098,20.31575332],[-99.12978,20.31565597],[-99.130037076,20.315607313],[-99.13003778,20.31560718],[-99.13020111,20.31562326],[-99.13038114,20.31566257],[-99.130521364,20.315675072],[-99.1305228,20.3156752],[-99.13063272,20.31566726],[-99.130731,20.31562406],[-99.13086277,20.31548506],[-99.13112057,20.31542817],[-99.1313612,20.31540369],[-99.13158463,20.31537923],[-99.13183931,20.31529731],[-99.13205778,20.31518552],[-99.13219937,20.31509875],[-99.13235834,20.31500869],[-99.13253035,20.31496645],[-99.132742127,20.31494106],[-99.13274329,20.31494092],[-99.13289778,20.31496189],[-99.13305781,20.315052908],[-99.13305822,20.31505314],[-99.13323315,20.315038],[-99.1333444,20.314918],[-99.13334417,20.31466317],[-99.13331163,20.31450149],[-99.13340745,20.31425837],[-99.13347098,20.31416838],[-99.13362995,20.31406334],[-99.13378897,20.31403323],[-99.13410708,20.31403298],[-99.13426605,20.31392792],[-99.13446654,20.31368575],[-99.1347598,20.31333037],[-99.13495029,20.31291049],[-99.13493429,20.31279058],[-99.13483874,20.31265575],[-99.13488625,20.31241586],[-99.13507695,20.31223583],[-99.13531526,20.31210083],[-99.13531542,20.31210074],[-99.13556991,20.31211552],[-99.13575751,20.31221391],[-99.135949693,20.312301136],[-99.13595109,20.31230177],[-99.13611075,20.31222005],[-99.13620058,20.31202888],[-99.136312,20.31174935],[-99.13647609,20.31166512],[-99.13660331,20.31163503],[-99.13696909,20.31160477],[-99.13730297,20.31146958],[-99.1377136,20.31126575],[-99.13781355,20.31106502],[-99.13781332,20.31070789],[-99.13792352,20.31040095],[-99.13822551,20.31016086],[-99.13857518,20.30992074],[-99.13922165,20.30951775],[-99.139894593,20.308902801],[-99.13989466,20.30890274],[-99.140228488,20.308917461],[-99.1402296,20.30891751],[-99.1405636,20.30891723],[-99.14077031,20.30885711],[-99.14086555,20.30866215],[-99.14111943,20.30800237],[-99.14148685,20.30767505],[-99.14213063,20.30731775],[-99.14247352,20.30719703],[-99.14273828,20.30717615],[-99.14281449,20.30704152],[-99.14275668,20.30688362],[-99.14274331,20.3067058],[-99.14272046,20.30651395],[-99.14272429,20.30636712],[-99.14290322,20.30627948],[-99.14321486,20.30618092],[-99.14347834,20.30598063],[-99.14352937,20.30576482],[-99.14347515,20.30560443],[-99.14339545,20.30540963],[-99.14329983,20.30518485],[-99.14333151,20.30504991],[-99.14351574,20.30500932],[-99.14378621,20.30500364],[-99.14378812,20.3050036],[-99.144132079,20.305051392],[-99.14413415,20.30505168],[-99.14429891,20.304968],[-99.14432437,20.30476055],[-99.14434894,20.30456938],[-99.14435557,20.30439123],[-99.144428024,20.30413566],[-99.14442846,20.30413412],[-99.14467948,20.30432326],[-99.144906865,20.304338263],[-99.14490925,20.30433842],[-99.14508242,20.30421874],[-99.14512883,20.30390532],[-99.14511446,20.30352962],[-99.145191443,20.303441233],[-99.14519202,20.30344057],[-99.14539885,20.30351534],[-99.14568986,20.303538131],[-99.14569228,20.30353832],[-99.14585145,20.30335509],[-99.14606649,20.30317002],[-99.14624137,20.30310991],[-99.14654352,20.30307968],[-99.14683328,20.30292652],[-99.14722702,20.30267435],[-99.14768817,20.30259902],[-99.14799023,20.30249383],[-99.14846705,20.30216363],[-99.14881389,20.30191886],[-99.14910289,20.30183331],[-99.14929372,20.30181815],[-99.14948448,20.30172805],[-99.14964757,20.30161191],[-99.14976563,20.30145677],[-99.14983198,20.30123712],[-99.14971263,20.30073942],[-99.14988094,20.30048369],[-99.149997129,20.300367959],[-99.15014558,20.300220094],[-99.150226065,20.300139926],[-99.15022611,20.30013988],[-99.150531122,20.300151228],[-99.1505336,20.30015132],[-99.15109022,20.299764],[-99.15144435,20.2994162],[-99.15180475,20.29893038],[-99.152369489,20.298658905],[-99.15237002,20.29865865],[-99.15310295,20.29876894],[-99.153306898,20.298925916],[-99.15330715,20.29892611],[-99.15358537,20.29890838],[-99.15378935,20.29883826],[-99.153876425,20.298501448],[-99.15387651,20.29850112],[-99.154435753,20.298586729],[-99.15443766,20.29858702],[-99.15478805,20.29845248],[-99.15504962,20.29817971],[-99.15528185,20.2979246],[-99.1554696,20.29771872],[-99.15581782,20.29737715],[-99.15611428,20.29706218],[-99.15620683,20.29686978],[-99.15657758,20.29664215],[-99.15707837,20.29660674],[-99.15752355,20.29660634],[-99.157746,20.29648375],[-99.15785714,20.29632629],[-99.15828374,20.29629094],[-99.15876583,20.29613314],[-99.15882128,20.29592329],[-99.15895083,20.29564342],[-99.159210193,20.295433458],[-99.15921029,20.29543338],[-99.1595442,20.29545055],[-99.1599894,20.29548512],[-99.160413656,20.295502124],[-99.16041605,20.29550222],[-99.16104458,20.29529834],[-99.16169368,20.29519283],[-99.16208309,20.29508757],[-99.16237971,20.29492994],[-99.16256494,20.29468498],[-99.16302846,20.29449223],[-99.16326934,20.29426471],[-99.16349189,20.29422954],[-99.16393705,20.29421163],[-99.16440058,20.29405385],[-99.16482712,20.29396602],[-99.16552314,20.29372343],[-99.16591184,20.293443686],[-99.16591235,20.29344332],[-99.16635762,20.29353402],[-99.166785857,20.293627595],[-99.16678748,20.29362795],[-99.16732206,20.29344922],[-99.16782255,20.29316175],[-99.1680656,20.2925618],[-99.16834538,20.29164258],[-99.16851985,20.29139008],[-99.17036005,20.28932882],[-99.17060422,20.28898008],[-99.17062008,20.28856509],[-99.170608726,20.288229566],[-99.17053583,20.28607535],[-99.17043743,20.28555218],[-99.17029014,20.28504514],[-99.1697008,20.28284075],[-99.16934103,20.28185746],[-99.16891592,20.28072626],[-99.16842603,20.28000438],[-99.16741283,20.27779218],[-99.16690768,20.27643874],[-99.16657703,20.27215602],[-99.16629503,20.26759338],[-99.16604695,20.26426992],[-99.16580442,20.26180391],[-99.165801883,20.261803913],[-99.16485891,20.2618048],[-99.164858497,20.261804751],[-99.16269052,20.26154555],[-99.16055468,20.26122477],[-99.16064065,20.25959514],[-99.1606718,20.25910331],[-99.16072551,20.25810483],[-99.16076946,20.25741578],[-99.16083786,20.2563838],[-99.160936,20.25526428],[-99.16101426,20.25394854],[-99.16061952,20.25389751],[-99.160564633,20.252955904],[-99.16056462,20.25295569],[-99.161418541,20.253043052],[-99.161819065,20.253084027],[-99.16181929,20.25308405],[-99.16257018,20.25309198],[-99.16257162,20.25206348],[-99.162553883,20.251787505],[-99.162507,20.25105803],[-99.16245077,20.25086108],[-99.16244965,20.2508426],[-99.16243795,20.25060531],[-99.16239688,20.24969028],[-99.1623726,20.2495142],[-99.16233085,20.24887751],[-99.1621698,20.24661288],[-99.16226446,20.24660474],[-99.162686773,20.246568427],[-99.17081154,20.24586957],[-99.172609,20.24571522],[-99.17447118,20.24548195],[-99.17654986,20.2452076],[-99.17709952,20.2451412],[-99.17770585,20.24509974],[-99.17814512,20.24514757],[-99.17855625,20.24520597],[-99.178831511,20.24525182],[-99.17886772,20.24514442],[-99.17888869,20.24509771],[-99.178894923,20.245076762],[-99.179077341,20.24446374],[-99.179343312,20.243695861],[-99.17944032,20.243409951],[-99.179449555,20.243380731],[-99.179513802,20.24317742],[-99.179555582,20.24299814],[-99.179570352,20.24289828],[-99.17959345,20.24279815],[-99.179839172,20.24173291],[-99.179906972,20.24116306],[-99.179960452,20.24067472],[-99.180014862,20.24018243],[-99.180057682,20.23977285],[-99.180152262,20.23888834],[-99.180171052,20.23866915],[-99.18018469,20.23860442],[-99.180278622,20.23763975],[-99.180377262,20.23673269],[-99.18043185,20.23616988],[-99.180437085,20.236105192],[-99.180444982,20.2360076],[-99.180486422,20.23557448],[-99.180528122,20.23516082],[-99.180577342,20.23502665],[-99.180665382,20.23478337],[-99.180827352,20.2344296],[-99.180999521,20.23415222],[-99.181094602,20.23401935],[-99.181419292,20.2336968],[-99.181996912,20.23318195],[-99.182248413,20.23296426],[-99.182301252,20.232918524],[-99.182324491,20.23289841],[-99.18236793,20.232860811],[-99.182488002,20.23275688],[-99.182729651,20.232573419],[-99.182758856,20.232551246],[-99.182898639,20.232445121],[-99.182936772,20.232416172],[-99.182997354,20.23240094],[-99.182997845,20.232400681],[-99.183030672,20.232383286],[-99.183265522,20.23225885],[-99.18344621,20.232132158],[-99.183490011,20.232101447],[-99.183517061,20.232082481],[-99.183882632,20.231807673],[-99.183927452,20.231773981],[-99.185211261,20.23157462],[-99.185572262,20.231523221],[-99.185853722,20.23161137],[-99.186075832,20.23163906],[-99.186450882,20.23158743],[-99.186899952,20.23151252],[-99.187521782,20.231428061],[-99.18797891,20.23141465],[-99.188158743,20.23142037],[-99.188357922,20.231441451],[-99.188869151,20.231533],[-99.190222322,20.23177482],[-99.190972402,20.23190682],[-99.191440692,20.23198834],[-99.191949082,20.23206163],[-99.192406032,20.23204469],[-99.192985142,20.23195897],[-99.19352795,20.23177332],[-99.194654691,20.23137609],[-99.19579306,20.23097792],[-99.196092231,20.23089923],[-99.196901419,20.230645911],[-99.197112601,20.23070131],[-99.197242951,20.23070997],[-99.197597169,20.23070289],[-99.197748371,20.23190728],[-99.19789957,20.23311168],[-99.198008979,20.23394548],[-99.198128087,20.234807148],[-99.198131576,20.234832387],[-99.198146109,20.23493754],[-99.198207638,20.235375989],[-99.198207648,20.235376065],[-99.198583741,20.236225981],[-99.19841568,20.23634932],[-99.198287791,20.236560475],[-99.1982598,20.236606692],[-99.19819752,20.23670952],[-99.198130491,20.23692114],[-99.19806018,20.23717006],[-99.198046341,20.237401151],[-99.197900651,20.237574629],[-99.197804891,20.23789402],[-99.197759141,20.238093941],[-99.197630461,20.23824178],[-99.197308681,20.23849411],[-99.197051321,20.23874635],[-99.196757171,20.23900738],[-99.19640848,20.23913115],[-99.19593542,20.23930603],[-99.195708322,20.2394212],[-99.195395861,20.23965658],[-99.19512755,20.24003022],[-99.194995951,20.24034834],[-99.1949864,20.24054195],[-99.195006111,20.24063868],[-99.195045311,20.240740031],[-99.195113861,20.24082294],[-99.195172621,20.24091045],[-99.195290051,20.24101629],[-99.19542206,20.24110371],[-99.195651971,20.24125963],[-99.1958016,20.24135874],[-99.195951171,20.24148295],[-99.19613342,20.24161894],[-99.19625912,20.24171943],[-99.19644755,20.24182582],[-99.196604661,20.24189074],[-99.19723498,20.24212183],[-99.19744671,20.24219172],[-99.1978072,20.24234232],[-99.19816215,20.2425846],[-99.19846,20.24292405],[-99.198746711,20.24339332],[-99.199014111,20.24385818],[-99.19913997,20.24437014],[-99.199163751,20.2448524],[-99.19917368,20.24510152],[-99.19916435,20.24533262],[-99.199174231,20.24554269],[-99.199195621,20.24570257],[-99.19925094,20.24589834],[-99.199331861,20.24615405],[-99.199416831,20.246333781],[-99.199510341,20.24650155],[-99.199613031,20.24662954],[-99.199792721,20.24674923],[-99.200425171,20.24707997],[-99.20081818,20.24732991],[-99.201080172,20.24752],[-99.201357061,20.24766074],[-99.20167389,20.24782983],[-99.20183234,20.24792569],[-99.20233657,20.24912243],[-99.20217974,20.25001269],[-99.201008081,20.25099449],[-99.20040554,20.251528319],[-99.200477891,20.251957481],[-99.200783141,20.25226743],[-99.201219151,20.25239988],[-99.200686112,20.2524752],[-99.200158062,20.25246915],[-99.199381852,20.25229489],[-99.198174822,20.251738691],[-99.196654942,20.251293911],[-99.196452821,20.25130115],[-99.196273863,20.251294521],[-99.195874693,20.251474381],[-99.195649352,20.2516578],[-99.195309422,20.25197268],[-99.195168751,20.25237254],[-99.195090312,20.25312209],[-99.195143803,20.253834024],[-99.195144112,20.25383814],[-99.195331882,20.254213551],[-99.195513003,20.25449905],[-99.195655542,20.254824751],[-99.195747693,20.25498968],[-99.196189892,20.25541114],[-99.196578152,20.25561749],[-99.196865202,20.25573649],[-99.197388402,20.25587112],[-99.197911541,20.25596595],[-99.198476822,20.256021],[-99.199054372,20.256025891],[-99.199793262,20.25611672],[-99.20055198,20.256245171],[-99.201135752,20.256393351],[-99.201561852,20.25664995],[-99.201791482,20.256858909],[-99.201962452,20.25720705],[-99.201991222,20.25746606],[-99.201901982,20.25777806],[-99.201759753,20.258033541],[-99.201545922,20.25826885],[-99.201167382,20.25850766],[-99.200679822,20.25875206],[-99.200124742,20.25888242],[-99.199824892,20.25894808],[-99.199409582,20.25887778],[-99.198919282,20.258780341],[-99.198746251,20.258780541],[-99.198088023,20.258871921],[-99.197685422,20.25931389],[-99.197274712,20.25978629],[-99.197057372,20.26007582],[-99.197017511,20.260433661],[-99.197215433,20.26075568],[-99.197390923,20.26095154],[-99.197929852,20.26118372],[-99.198442852,20.26139143],[-99.199498952,20.26161586],[-99.200146342,20.261806771],[-99.200463882,20.262033999],[-99.200401452,20.262836621],[-99.200032451,20.26322317],[-99.199043322,20.26369142],[-99.198383662,20.26385988],[-99.197673152,20.26390862],[-99.196924452,20.26388546],[-99.196040022,20.26372075],[-99.195684463,20.26351749],[-99.195201782,20.2630988],[-99.194604982,20.262788061],[-99.193652972,20.2625016],[-99.193195923,20.262322451],[-99.192501083,20.262304821],[-99.19220322,20.26258734],[-99.19190403,20.26277215],[-99.19190434,20.26302454],[-99.19181182,20.26349648],[-99.19163608,20.26392252],[-99.19077914,20.2666338],[-99.19071032,20.26693868],[-99.19071089,20.26741151],[-99.19073446,20.26764191],[-99.19073575,20.26869865],[-99.19070126,20.26904983],[-99.19059677,20.2692694],[-99.19059705,20.26948886],[-99.19063222,20.26969731],[-99.19066735,20.26987285],[-99.19078397,20.27005926],[-99.19077257,20.27025678],[-99.19076134,20.270586],[-99.1907616,20.27080546],[-99.19078509,20.270981],[-99.19086672,20.27111258],[-99.19099492,20.27124412],[-99.19120454,20.27132071],[-99.19160037,20.27139709],[-99.1919728,20.27137474],[-99.19261288,20.27129722],[-99.19426614,20.27094426],[-99.19478974,20.270812],[-99.19541803,20.27061378],[-99.19576712,20.27054755],[-99.19617442,20.27048126],[-99.19683777,20.27040371],[-99.19733829,20.27042509],[-99.19778069,20.2705014],[-99.19796703,20.27058898],[-99.19804866,20.27070958],[-99.19846666,20.27086325],[-99.19875791,20.2710714],[-99.1990492,20.27130151],[-99.19917755,20.27155374],[-99.19924765,20.27176215],[-99.19918982,20.27204752],[-99.19915515,20.27224508],[-99.19913212,20.27244262],[-99.19909746,20.27264017],[-99.19914443,20.27296574],[-99.1991216,20.27331689],[-99.19901722,20.27360232],[-99.19893603,20.27383285],[-99.19877337,20.27406346],[-99.19829669,20.27450294],[-99.19794789,20.2747996],[-99.19709892,20.27539309],[-99.1963896,20.27594255],[-99.19559877,20.27647983],[-99.19529648,20.27676548],[-99.19508725,20.27698517],[-99.19492449,20.27714995],[-99.19487829,20.27744628],[-99.1950188,20.27810451],[-99.19547389,20.27901475],[-99.19580894,20.27962071],[-99.19613543,20.28007025],[-99.19628715,20.28038829],[-99.196415539,20.280579434],[-99.19642709,20.28059663],[-99.19652046,20.28079403],[-99.19677686,20.28104612],[-99.19742925,20.28146237],[-99.19775542,20.28164854],[-99.19804652,20.281736],[-99.19850058,20.28180132],[-99.198540037,20.281784594],[-99.19883797,20.28165829],[-99.19914032,20.28143849],[-99.19939617,20.28125166],[-99.19976829,20.28096594],[-99.20007069,20.28076808],[-99.20096652,20.2806178],[-99.20154706,20.28062595],[-99.20187497,20.28076682],[-99.20248398,20.28106622],[-99.20291512,20.28139231],[-99.20320938,20.28174306],[-99.20332329,20.28226471],[-99.20346266,20.28302352],[-99.20355174,20.28380609],[-99.20360262,20.28423295],[-99.20375395,20.28452925],[-99.20414443,20.28489642],[-99.20488046,20.28560018],[-99.20530872,20.28600288],[-99.20574949,20.28635812],[-99.20603905,20.28651195],[-99.206404,20.2866064],[-99.20715885,20.28662922],[-99.20788843,20.28658092],[-99.20883191,20.28654423],[-99.20986454,20.28662338],[-99.21044352,20.28683614],[-99.21070794,20.28701371],[-99.21082135,20.28715588],[-99.21093474,20.28727432],[-99.21093509,20.28753523],[-99.2108222,20.2877844],[-99.21080992,20.28799786],[-99.21081037,20.28832991],[-99.21083603,20.28870937],[-99.2109118,20.28891088],[-99.21098749,20.28906494],[-99.21116392,20.28929005],[-99.21128991,20.2894322],[-99.21134037,20.28953888],[-99.21145382,20.28969289],[-99.21150426,20.28978771],[-99.21159251,20.28991805],[-99.21165566,20.29010771],[-99.21185271,20.29055674],[-99.21209195,20.29072246],[-99.21238148,20.29084071],[-99.21278411,20.29087578],[-99.21376538,20.2908746],[-99.21411777,20.29092163],[-99.21450792,20.29108715],[-99.21494857,20.29132378],[-99.21543988,20.29179752],[-99.21591871,20.29235431],[-99.21618457,20.29286005],[-99.21618554,20.29355971],[-99.21604766,20.29392751],[-99.21568334,20.29430743],[-99.21539442,20.29461611],[-99.21518088,20.29486542],[-99.21500511,20.29512652],[-99.21481663,20.29529277],[-99.21469117,20.29555382],[-99.21426462,20.29642803],[-99.21411412,20.29677212],[-99.21398865,20.29702131],[-99.21397651,20.29732966],[-99.21397769,20.29819535],[-99.21400354,20.29869338],[-99.2141804,20.29922682],[-99.21427135,20.29968534],[-99.21432222,20.30007662],[-99.21463752,20.30063358],[-99.21483945,20.30108397],[-99.21515454,20.30148678],[-99.2153688,20.30175928],[-99.21569626,20.30200791],[-99.21593546,20.3021262],[-99.21621238,20.30222072],[-99.2164516,20.30233902],[-99.21681332,20.30263118],[-99.21696468,20.30290374],[-99.21710349,20.30321189],[-99.21719218,20.30365055],[-99.21728078,20.30402994],[-99.21750822,20.30471746],[-99.21752108,20.30491905],[-99.21767275,20.30541692],[-99.21784945,20.30580805],[-99.21869237,20.30669751],[-99.21912088,20.30720689],[-99.21956171,20.30753838],[-99.22006549,20.30789352],[-99.22040551,20.3081184],[-99.22094686,20.30834305],[-99.22128675,20.30847306],[-99.22170223,20.30866228],[-99.22209254,20.30883966],[-99.22271595,20.3090566],[-99.22301811,20.30918666],[-99.22333272,20.30923369],[-99.22379832,20.30926868],[-99.223921961,20.309300878],[-99.22402488,20.30932768],[-99.22431457,20.30954077],[-99.224338291,20.309567795],[-99.22473046,20.31001458],[-99.22486803,20.31022548],[-99.22497006,20.31038191],[-99.22515914,20.31061883],[-99.22522229,20.31078477],[-99.22523242,20.310822744],[-99.22527289,20.31097445],[-99.22524798,20.31115235],[-99.22509731,20.31136602],[-99.224991712,20.311434637],[-99.22489617,20.31149672],[-99.224806582,20.311530627],[-99.22470754,20.31156811],[-99.22422971,20.31176398],[-99.223777,20.31194245],[-99.22350042,20.31210882],[-99.22309817,20.31237023],[-99.22262065,20.31279775],[-99.22238197,20.3130708],[-99.22229425,20.31330809],[-99.22201149,20.31389257],[-99.22193652,20.31426028],[-99.22193691,20.31453303],[-99.22183666,20.31481777],[-99.22162294,20.31494848],[-99.22134638,20.31513857],[-99.2211454,20.315376],[-99.22095706,20.31564898],[-99.22078112,20.31580338],[-99.22056752,20.31601711],[-99.22022958,20.31636943],[-99.22001591,20.31652388],[-99.21984011,20.31678498],[-99.2196894,20.31698677],[-99.21953872,20.31720042],[-99.21932523,20.31749715],[-99.2191494,20.31773455],[-99.21894886,20.31829217],[-99.2187982,20.31852952],[-99.21873578,20.31888537],[-99.21874978,20.31988894],[-99.21893934,20.32045792],[-99.21907848,20.32097952],[-99.21922974,20.32116908],[-99.21948172,20.32139408],[-99.22026152,20.32207015],[-99.22072782,20.32257949],[-99.22120643,20.32289906],[-99.22122877,20.32291522],[-99.22162408,20.32301117],[-99.22186434,20.32323042],[-99.22225786,20.32345231],[-99.22282885,20.32403846],[-99.22281591,20.32416203],[-99.222862,20.32431023],[-99.222858577,20.324495451],[-99.22285842,20.32450391],[-99.223211309,20.325034771],[-99.223313049,20.32559926],[-99.223399113,20.326076697],[-99.22340005,20.32608189],[-99.223488149,20.326930061],[-99.22310794,20.32806852],[-99.22300834,20.32831431],[-99.222887079,20.328703],[-99.22295798,20.329148851],[-99.2230426,20.32932975],[-99.22321568,20.329628181],[-99.223744939,20.33012554],[-99.22405218,20.330608231],[-99.224224549,20.331241081],[-99.22422083,20.33156863],[-99.224045259,20.331797751],[-99.223738549,20.33198288],[-99.223219049,20.332403601],[-99.222885279,20.33280908],[-99.22256246,20.33346112],[-99.22235266,20.33366917],[-99.22221711,20.33397692],[-99.22202702,20.33419503],[-99.22210906,20.33450251],[-99.22210946,20.33478446],[-99.22215065,20.33505354],[-99.22227345,20.33533534],[-99.22236891,20.33551465],[-99.22253229,20.33564258],[-99.22285872,20.3356678],[-99.22318528,20.33576992],[-99.2233622,20.3358594],[-99.22351205,20.33602582],[-99.22421649,20.33679238],[-99.22470708,20.337471],[-99.22493914,20.33806025],[-99.22511637,20.33835478],[-99.22533446,20.33868772],[-99.22553885,20.33895658],[-99.22587923,20.33921246],[-99.22607166,20.33951066],[-99.22607206,20.33979045],[-99.22628449,20.34002998],[-99.22645425,20.34009638],[-99.22687842,20.34009583],[-99.22717555,20.34025532],[-99.22745854,20.34040151],[-99.22785951,20.34043348],[-99.22820931,20.34035766],[-99.22857912,20.34029123],[-99.22899883,20.3401682],[-99.22937849,20.34000755],[-99.22958834,20.33993191],[-99.23022815,20.33991222],[-99.23086803,20.33993965],[-99.23135808,20.34005205],[-99.23160815,20.34014592],[-99.23180826,20.34024928],[-99.23194849,20.34042809],[-99.23195882,20.34064477],[-99.23195912,20.34085202],[-99.23205937,20.34103089],[-99.23209965,20.34122868],[-99.23198418,20.34184798],[-99.23188491,20.34231915],[-99.23177543,20.34264903],[-99.23159614,20.34309205],[-99.23145662,20.34339371],[-99.231397,20.34364815],[-99.23130735,20.34386495],[-99.23131785,20.34419466],[-99.23130831,20.34451498],[-99.23107912,20.34502292],[-99.23075969,20.34535308],[-99.23061008,20.34559822],[-99.23045043,20.34581511],[-99.23029086,20.34607911],[-99.23026123,20.34632409],[-99.23011165,20.34658808],[-99.229922,20.34679558],[-99.22979218,20.3469088],[-99.22963326,20.34761252],[-99.22960371,20.3479046],[-99.22959423,20.34826262],[-99.22964471,20.34859228],[-99.22961492,20.34873363],[-99.22969537,20.34904442],[-99.22975578,20.34933638],[-99.22978609,20.3495436],[-99.22985643,20.34977903],[-99.22995677,20.35002385],[-99.22996714,20.35027818],[-99.22998731,20.35039122],[-99.23007738,20.35045705],[-99.23032131,20.35084652],[-99.23046975,20.35131463],[-99.23056435,20.35169422],[-99.23068569,20.35199783],[-99.23079357,20.35227614],[-99.23074046,20.35269389],[-99.23070137,20.35301617],[-99.23052271,20.35317294],[-99.23026722,20.35323348],[-99.22985828,20.35322198],[-99.22948765,20.35318634],[-99.22919375,20.35319877],[-99.22878489,20.35324748],[-99.22817174,20.35339277],[-99.22773765,20.35365823],[-99.22725246,20.35393578],[-99.22709926,20.35404435],[-99.22707425,20.35440562],[-99.22702338,20.35458629],[-99.22687026,20.35474302],[-99.22655083,20.35476751],[-99.22587338,20.35464798],[-99.22559217,20.35460018],[-99.22485848,20.35477474],[-99.22455191,20.35485942],[-99.22425815,20.35496815],[-99.22405377,20.35502863],[-99.22381089,20.35496874],[-99.2237596,20.3548484],[-99.22361894,20.35478837],[-99.22329951,20.35481286],[-99.22306955,20.35486132],[-99.22278866,20.35503025],[-99.22248205,20.35509083],[-99.22209892,20.35525989],[-99.22189468,20.35540465],[-99.22184383,20.35559737],[-99.22178023,20.35580214],[-99.22162706,20.35592274],[-99.22142263,20.35594708],[-99.22107757,20.35593548],[-99.22044708,20.35587606],[-99.22019151,20.35587638],[-99.21980815,20.35588891],[-99.21942495,20.3560098],[-99.21914405,20.35616668],[-99.21891415,20.35626329],[-99.21862038,20.35637203],[-99.21836485,20.35639643],[-99.21795578,20.35630062],[-99.21764889,20.35616855],[-99.21729095,20.35607268],[-99.21682865,20.35584448],[-99.21654726,20.35566422],[-99.21635528,20.35545975],[-99.21612463,20.35529114],[-99.21589474,20.35509911],[-99.21570277,20.35489465],[-99.21547243,20.35466617],[-99.21521666,20.35452198],[-99.21490995,20.35451032],[-99.21447534,20.35441454],[-99.21397692,20.35437903],[-99.2136574,20.35435534],[-99.21323569,20.35434382],[-99.21282643,20.35410349],[-99.21244295,20.35401968],[-99.21237514,20.35400645],[-99.21213618,20.35395985],[-99.2118806,20.35394812],[-99.21151015,20.35405692],[-99.21131852,20.35409329],[-99.21118787,20.354142705],[-99.21112694,20.35416575],[-99.21094826,20.35433454],[-99.210915452,20.35439928],[-99.210786194,20.354654341],[-99.21078618,20.35465437],[-99.210786163,20.354654403],[-99.21077475,20.35467694],[-99.21074072,20.354686782],[-99.21031489,20.35480994],[-99.21012314,20.35474997],[-99.21008368,20.35474011],[-99.20993138,20.35470203],[-99.209905269,20.354698414],[-99.209668582,20.354665631],[-99.2096628,20.35466483],[-99.20936611,20.35488837],[-99.20912345,20.35499702],[-99.20893168,20.35493705],[-99.20870175,20.35499752],[-99.20848462,20.35508206],[-99.20831877,20.35528695],[-99.20829346,20.35547963],[-99.20824282,20.35582888],[-99.20805177,20.35629869],[-99.20784785,20.35670832],[-99.20759006,20.35750388],[-99.20734768,20.35781722],[-99.20690082,20.35811877],[-99.20630068,20.35848069],[-99.20596849,20.35854129],[-99.20541894,20.35850582],[-99.2049204,20.35839805],[-99.20471582,20.35830195],[-99.20458785,20.35816966],[-99.2043832,20.35803745],[-99.20422972,20.35792926],[-99.20401246,20.35792951],[-99.20382095,20.35806218],[-99.20375735,20.35829103],[-99.20359151,20.35850795],[-99.20347678,20.35872483],[-99.20337492,20.35901392],[-99.2032346,20.35920674],[-99.20322214,20.35944757],[-99.20325411,20.359888],[-99.20304825,20.36012498],[-99.20288731,20.36022837],[-99.20253505,20.36015578],[-99.20225098,20.36002426],[-99.20222917,20.35982888],[-99.20240358,20.35957949],[-99.20235792,20.35939734],[-99.20229332,20.35926386],[-99.20215449,20.35920568],[-99.20191985,20.35916022],[-99.20166112,20.35925197],[-99.20145895,20.35929794],[-99.201281,20.35929052],[-99.20111903,20.35915351],[-99.20098131,20.358986],[-99.20094849,20.35862783],[-99.20111002,20.35843711],[-99.20127151,20.35820828],[-99.20141685,20.35800995],[-99.20152988,20.35784215],[-99.201651,20.35768195],[-99.20174412,20.35751705],[-99.20176388,20.35740745],[-99.20186928,20.35698778],[-99.20180486,20.35659052],[-99.20165109,20.3562656],[-99.20154835,20.35588042],[-99.20137694,20.35519751],[-99.20133832,20.35498083],[-99.20124862,20.35478828],[-99.201159,20.35465594],[-99.20106943,20.35457175],[-99.20083063,20.35443789],[-99.20045585,20.35441592],[-99.20003423,20.35447662],[-99.19984254,20.35447683],[-99.19956143,20.3544892],[-99.19909246,20.35462888],[-99.19852625,20.35507454],[-99.19757569,20.35568748],[-99.19649928,20.35576222],[-99.19574368,20.35585208],[-99.19492495,20.35582332],[-99.1942008,20.35588346],[-99.19335046,20.35594022],[-99.19134825,20.35502311],[-99.19017871,20.35430234],[-99.18884418,20.35383245],[-99.18755698,20.35328052],[-99.18681454,20.35369737],[-99.18526315,20.35440657],[-99.17612132,20.36033909],[-99.17518666,20.36139678],[-99.17433926,20.36252134],[-99.17378778,20.36331671],[-99.17317532,20.36411355],[-99.17239915,20.36516735],[-99.17202548,20.3657744],[-99.1712124,20.3668176],[-99.16954798,20.36796192],[-99.1680036,20.36903432],[-99.16689023,20.36980877],[-99.16576372,20.37054903],[-99.16499825,20.37110803],[-99.16347745,20.37204123],[-99.1632866,20.37053954],[-99.16277522,20.370036251],[-99.16230382,20.36997569],[-99.161844059,20.36997075],[-99.16141445,20.37004],[-99.161212369,20.37009971],[-99.160909229,20.3701714],[-99.16060602,20.370171681],[-99.160416519,20.37019566],[-99.16012597,20.370219741],[-99.15984803,20.370231891],[-99.159418549,20.370315621],[-99.15890065,20.3703994],[-99.158483779,20.3704712],[-99.15826909,20.37055471],[-99.157915379,20.37060265],[-99.157675319,20.37059097],[-99.15727108,20.370627031],[-99.15701851,20.370746291],[-99.156740579,20.37077035],[-99.15661134,20.37077158],[-99.15621845,20.370957111],[-99.15598614,20.370923651],[-99.155700279,20.37094074],[-99.155325089,20.370974741],[-99.15493206,20.371025601],[-99.154753489,20.371126751],[-99.154521309,20.37121112],[-99.154378489,20.371345921],[-99.153806719,20.371329581],[-99.153199179,20.371279631],[-99.152430979,20.37138129],[-99.151770079,20.371583881],[-99.151180619,20.371752721],[-99.150930629,20.371921281],[-99.150591399,20.37226546],[-99.15038183,20.372624681],[-99.15046718,20.37304951],[-99.15057771,20.37323425],[-99.15059268,20.37345122],[-99.15052006,20.37387998],[-99.15060715,20.37436205],[-99.150422849,20.374587771],[-99.150136339,20.3745058],[-99.149712249,20.37457189],[-99.149541449,20.37522095],[-99.14980408,20.37589294],[-99.14969351,20.37634649],[-99.14930852,20.376508521],[-99.149217939,20.376888851],[-99.149238229,20.377694861],[-99.148923139,20.37806094],[-99.148490339,20.37824726],[-99.14880843,20.377674891]]]]},"properties":{"municipality":"Progreso de Obregón","official_key":"13050","CVE_ENT":"13","CVE_MUN":"050","geometry_kind":"municipality","source":"INEGI Gaia — Servicio vectorial del Marco Geoestadístico"}},"features":[{"type":"Feature","geometry":{"type":"MultiPolygon","crs":{"type":"name","properties":{"name":"EPSG:6365"}},"coordinates":[[[[-99.184761262,20.263385139],[-99.183997831,20.262496338],[-99.183371508,20.263175815],[-99.182695569,20.263851755],[-99.182591876,20.263982032],[-99.182540384,20.263882124],[-99.181822137,20.263004232],[-99.179856231,20.262807555],[-99.179705015,20.262742355],[-99.179540261,20.262595323],[-99.179481646,20.262479047],[-99.179447369,20.262416032],[-99.179301138,20.262355724],[-99.179164677,20.2623148],[-99.179061122,20.262159292],[-99.179041308,20.261890169],[-99.1790884,20.261339139],[-99.179161984,20.261132939],[-99.179455076,20.260490492],[-99.179847614,20.259651924],[-99.180114414,20.259050969],[-99.180165737,20.258877093],[-99.180169707,20.258392508],[-99.180050785,20.258171878],[-99.179783137,20.257680078],[-99.179436537,20.2571082],[-99.179183384,20.256724001],[-99.179099897,20.256597302],[-99.178996189,20.256432607],[-99.178536599,20.255659539],[-99.178032553,20.254811709],[-99.177528507,20.253963862],[-99.177024491,20.253116015],[-99.176118768,20.251647646],[-99.175906004,20.251305873],[-99.175815492,20.251160477],[-99.175995969,20.250872523],[-99.176028015,20.250816],[-99.176060046,20.250759538],[-99.176502923,20.2500244],[-99.176944846,20.249257538],[-99.1775076,20.248227969],[-99.178044908,20.247247815],[-99.178225692,20.246925554],[-99.178292508,20.246781431],[-99.178371908,20.246561708],[-99.178700892,20.245480908],[-99.178831511,20.24525182],[-99.17886772,20.24514442],[-99.17888869,20.24509771],[-99.178894923,20.245076762],[-99.179077341,20.24446374],[-99.179343312,20.243695861],[-99.17944032,20.243409951],[-99.179449555,20.243380731],[-99.179513802,20.24317742],[-99.179555582,20.24299814],[-99.179570352,20.24289828],[-99.17959345,20.24279815],[-99.179839172,20.24173291],[-99.179906972,20.24116306],[-99.179960452,20.24067472],[-99.180014862,20.24018243],[-99.180057682,20.23977285],[-99.180152262,20.23888834],[-99.180171052,20.23866915],[-99.18018469,20.23860442],[-99.180278622,20.23763975],[-99.180377262,20.23673269],[-99.18043185,20.23616988],[-99.180437085,20.236105192],[-99.180444982,20.2360076],[-99.180486422,20.23557448],[-99.180528122,20.23516082],[-99.180577342,20.23502665],[-99.180665382,20.23478337],[-99.180827352,20.2344296],[-99.180999521,20.23415222],[-99.181094602,20.23401935],[-99.181419292,20.2336968],[-99.181996912,20.23318195],[-99.182248413,20.23296426],[-99.182301252,20.232918524],[-99.182324491,20.23289841],[-99.18236793,20.232860811],[-99.182488002,20.23275688],[-99.182729651,20.232573419],[-99.182758856,20.232551246],[-99.182898639,20.232445121],[-99.182936772,20.232416172],[-99.182997354,20.23240094],[-99.182997845,20.232400681],[-99.183030672,20.232383286],[-99.183265522,20.23225885],[-99.18344621,20.232132158],[-99.183490011,20.232101447],[-99.183517061,20.232082481],[-99.183882632,20.231807673],[-99.183927452,20.231773981],[-99.185211261,20.23157462],[-99.185572262,20.231523221],[-99.185853722,20.23161137],[-99.186075832,20.23163906],[-99.186450882,20.23158743],[-99.186899952,20.23151252],[-99.187521782,20.231428061],[-99.18797891,20.23141465],[-99.188158743,20.23142037],[-99.188357922,20.231441451],[-99.188869151,20.231533],[-99.190222322,20.23177482],[-99.190972402,20.23190682],[-99.191440692,20.23198834],[-99.191949082,20.23206163],[-99.192406032,20.23204469],[-99.192985142,20.23195897],[-99.19352795,20.23177332],[-99.194654691,20.23137609],[-99.19579306,20.23097792],[-99.196092231,20.23089923],[-99.196901419,20.230645911],[-99.1971126,20.230701311],[-99.19724295,20.230709971],[-99.197597169,20.23070289],[-99.197748371,20.23190728],[-99.19789957,20.23311168],[-99.198008979,20.23394548],[-99.198128087,20.234807148],[-99.198131576,20.234832387],[-99.198146109,20.23493754],[-99.198207638,20.235375989],[-99.198207648,20.235376065],[-99.198583741,20.236225981],[-99.19841568,20.236349321],[-99.19828779,20.236560475],[-99.1982598,20.236606692],[-99.198197519,20.236709521],[-99.198130491,20.236921141],[-99.198060179,20.237170061],[-99.19804634,20.237401151],[-99.197900651,20.23757463],[-99.19780489,20.23789402],[-99.197759141,20.238093941],[-99.197630461,20.238241781],[-99.19730868,20.238494111],[-99.197051321,20.238746351],[-99.196757171,20.239007381],[-99.196408479,20.239131151],[-99.195935419,20.239306031],[-99.195708321,20.2394212],[-99.195395861,20.239656581],[-99.195127549,20.240030221],[-99.194995951,20.24034834],[-99.194986399,20.24054195],[-99.195006111,20.240638681],[-99.195045311,20.240740032],[-99.195113861,20.24082294],[-99.195172621,20.24091045],[-99.195290051,20.241016291],[-99.195422059,20.241103711],[-99.195651971,20.24125963],[-99.195801599,20.241358741],[-99.19595117,20.24148295],[-99.196133419,20.24161894],[-99.196259119,20.24171943],[-99.19644755,20.24182582],[-99.196604661,20.241890741],[-99.197234979,20.24212183],[-99.19744671,20.242191721],[-99.197807199,20.242342321],[-99.198162149,20.2425846],[-99.198459999,20.242924051],[-99.19874671,20.243393321],[-99.19901411,20.24385818],[-99.199139969,20.244370141],[-99.19916375,20.2448524],[-99.199173679,20.245101521],[-99.199164349,20.245332621],[-99.199174231,20.245542691],[-99.199195621,20.24570257],[-99.19925094,20.245898341],[-99.19933186,20.246154051],[-99.19941683,20.246333781],[-99.199510341,20.246501551],[-99.19961303,20.24662954],[-99.199792721,20.246749231],[-99.20042517,20.24707997],[-99.200818179,20.247329911],[-99.201080172,20.247520001],[-99.20135706,20.24766074],[-99.201673889,20.24782983],[-99.201832339,20.247925691],[-99.202336569,20.249122431],[-99.20217974,20.250012691],[-99.20100808,20.250994491],[-99.200405539,20.25152832],[-99.200477891,20.251957481],[-99.20078314,20.25226743],[-99.20121915,20.252399881],[-99.200686111,20.2524752],[-99.200158061,20.252469151],[-99.199381851,20.252294891],[-99.198174821,20.251738692],[-99.196654941,20.251293911],[-99.196452821,20.25130115],[-99.196273862,20.251294522],[-99.195874693,20.251474381],[-99.195649351,20.251657801],[-99.195309421,20.251972681],[-99.195168751,20.252372541],[-99.195090311,20.25312209],[-99.195143802,20.253834024],[-99.195144112,20.25383814],[-99.195331882,20.254213551],[-99.195513003,20.254499051],[-99.195655542,20.254824752],[-99.195747692,20.254989681],[-99.196189892,20.25541114],[-99.196578151,20.25561749],[-99.196865202,20.25573649],[-99.197388402,20.255871121],[-99.19791154,20.255965951],[-99.198476821,20.256021],[-99.199054371,20.256025892],[-99.199793261,20.25611672],[-99.20055198,20.25624517],[-99.201135752,20.256393351],[-99.201561851,20.25664995],[-99.201791482,20.25685891],[-99.201962451,20.25720705],[-99.201991221,20.257466061],[-99.201901982,20.25777806],[-99.201759752,20.258033542],[-99.201545922,20.25826885],[-99.201167382,20.258507661],[-99.200679822,20.258752061],[-99.200124742,20.258882421],[-99.199824892,20.25894808],[-99.199409582,20.25887778],[-99.198919281,20.258780341],[-99.198746251,20.258780541],[-99.198088022,20.258871922],[-99.197685421,20.25931389],[-99.197274711,20.25978629],[-99.197057372,20.260075821],[-99.197017511,20.260433661],[-99.197215433,20.26075568],[-99.197390923,20.26095154],[-99.197929851,20.26118372],[-99.198442852,20.26139143],[-99.199498952,20.261615861],[-99.200146342,20.261806772],[-99.200463882,20.262034],[-99.200401452,20.262836621],[-99.200032451,20.26322317],[-99.199043321,20.263691421],[-99.198383661,20.26385988],[-99.197673151,20.263908621],[-99.196924452,20.26388546],[-99.196040021,20.263720751],[-99.195684462,20.263517491],[-99.195201782,20.2630988],[-99.194604982,20.262788062],[-99.193652972,20.2625016],[-99.193195923,20.262322452],[-99.192501083,20.262304821],[-99.19220322,20.26258734],[-99.190874892,20.262268384],[-99.190416966,20.262424338],[-99.189950262,20.262686025],[-99.189117764,20.263114476],[-99.188558854,20.263417113],[-99.187749618,20.263723045],[-99.187849254,20.264273571],[-99.188297577,20.264834159],[-99.186779353,20.265829154],[-99.186724446,20.265806708],[-99.186346677,20.265346477],[-99.185907645,20.264816831],[-99.185475477,20.264298508],[-99.184842785,20.263530908],[-99.184761262,20.263385139]]]]},"properties":{"locality":"Progreso de Obregón","municipality":null,"official_key":"130500001","CVE_ENT":"13","CVE_MUN":"050","CVE_LOC":"0001","ambito":"URBANO","geometry_kind":"locality","source":"INEGI Gaia — Servicio vectorial del Marco Geoestadístico"}},{"type":"Feature","geometry":{"type":"MultiPolygon","crs":{"type":"name","properties":{"name":"EPSG:6365"}},"coordinates":[[[[-99.172571077,20.266372153],[-99.175875558,20.26158131],[-99.175660982,20.266422475],[-99.172571077,20.266372153]]],[[[-99.179385352,20.269763029],[-99.17957466,20.271035018],[-99.177828402,20.271007363],[-99.177338127,20.270764136],[-99.177201305,20.270720708],[-99.176870584,20.270288393],[-99.176904851,20.270108578],[-99.177179344,20.270115597],[-99.177423892,20.269556009],[-99.179385352,20.269763029]]],[[[-99.174223316,20.272269918],[-99.169953241,20.27203844],[-99.169996155,20.270649565],[-99.170210733,20.269703512],[-99.174309149,20.269794092],[-99.174223316,20.272269918]]]]},"properties":{"locality":"El Xamú","municipality":null,"official_key":"130500002","CVE_ENT":"13","CVE_MUN":"050","CVE_LOC":"0002","ambito":"RURAL","geometry_kind":"locality","source":"INEGI Gaia — Servicio vectorial del Marco Geoestadístico"}},{"type":"Feature","geometry":{"type":"MultiPolygon","crs":{"type":"name","properties":{"name":"EPSG:6365"}},"coordinates":[[[[-99.184549827,20.299253881],[-99.184541148,20.299212521],[-99.183186146,20.299569681],[-99.182824483,20.298138202],[-99.181934694,20.298549423],[-99.180349929,20.299013519],[-99.180225261,20.298157898],[-99.180146735,20.297486424],[-99.180007591,20.296296597],[-99.179066576,20.296322613],[-99.179023176,20.294897005],[-99.178999707,20.294494962],[-99.179769448,20.294433902],[-99.179719229,20.293548693],[-99.180355335,20.293048167],[-99.180497913,20.292980022],[-99.180639766,20.292946658],[-99.181753709,20.29280906],[-99.182837021,20.292646224],[-99.183319819,20.29266635],[-99.182990179,20.29194149],[-99.18263382,20.29107148],[-99.18261618,20.291019851],[-99.18257062,20.290886504],[-99.184194298,20.29068801],[-99.18421197,20.29068585],[-99.18419949,20.29029223],[-99.184187572,20.290215358],[-99.18373483,20.28729522],[-99.185245,20.28677691],[-99.186201171,20.286455853],[-99.186255567,20.28643668],[-99.186328634,20.286410926],[-99.186480017,20.287332303],[-99.186577753,20.287915788],[-99.18667633,20.288385544],[-99.186741351,20.288634392],[-99.186794767,20.288854228],[-99.186862631,20.289039778],[-99.186922599,20.28916471],[-99.187163638,20.289681737],[-99.18751026,20.290405169],[-99.18757587,20.290517751],[-99.187617207,20.290588681],[-99.188357781,20.290590865],[-99.188498542,20.290616229],[-99.188524001,20.290620816],[-99.188707769,20.290687566],[-99.18955351,20.29106711],[-99.18991886,20.291240887],[-99.190127126,20.291352721],[-99.190219378,20.291419982],[-99.190220328,20.291420676],[-99.190291725,20.291509822],[-99.190331447,20.291581107],[-99.19036764,20.291675363],[-99.190399137,20.29177529],[-99.190457497,20.29205137],[-99.19060018,20.292675999],[-99.190846485,20.29374888],[-99.191091059,20.294831808],[-99.191330162,20.2958844],[-99.191557841,20.296825917],[-99.191772629,20.297726881],[-99.191934441,20.298459851],[-99.191992026,20.298626491],[-99.192059917,20.298774027],[-99.192070878,20.298797845],[-99.192067303,20.298799033],[-99.191956697,20.298835776],[-99.19178367,20.298893256],[-99.191662165,20.298931395],[-99.191006742,20.299058706],[-99.189963118,20.299249505],[-99.188937736,20.299437877],[-99.187869476,20.299633127],[-99.18680568,20.299809255],[-99.186187136,20.299905311],[-99.1857765,20.299984097],[-99.184765816,20.300169999],[-99.18474293,20.300174208],[-99.184549827,20.299253881]]]]},"properties":{"locality":"Xochitlán","municipality":null,"official_key":"130500003","CVE_ENT":"13","CVE_MUN":"050","CVE_LOC":"0003","ambito":"URBANO","geometry_kind":"locality","source":"INEGI Gaia — Servicio vectorial del Marco Geoestadístico"}},{"type":"Feature","geometry":{"type":"MultiPolygon","crs":{"type":"name","properties":{"name":"EPSG:6365"}},"coordinates":[[[[-99.192459782,20.300697688],[-99.192494234,20.300648677],[-99.19270118,20.300984061],[-99.193542739,20.302528821],[-99.19417923,20.303951981],[-99.19512258,20.30580755],[-99.19534428,20.30640197],[-99.195599979,20.30731857],[-99.195767939,20.30792878],[-99.19571055,20.307935661],[-99.19471186,20.308099831],[-99.193064618,20.308100079],[-99.191861677,20.308114335],[-99.190813504,20.30851269],[-99.191124298,20.309031792],[-99.191271519,20.309387321],[-99.191588489,20.310170681],[-99.191734436,20.310539103],[-99.189871634,20.310836369],[-99.189508164,20.310079725],[-99.189188917,20.30960421],[-99.189598114,20.309404932],[-99.190071683,20.309266027],[-99.189327236,20.308110282],[-99.189697895,20.307956643],[-99.188978078,20.305577811],[-99.18800056,20.306003311],[-99.187763931,20.305300411],[-99.188900889,20.305114986],[-99.188932926,20.305273826],[-99.189662338,20.305070429],[-99.189151815,20.303310754],[-99.18640058,20.304007681],[-99.186076187,20.303096213],[-99.188802468,20.302300266],[-99.189668418,20.302049436],[-99.189754326,20.302027987],[-99.18980737,20.302021288],[-99.190143028,20.301927667],[-99.191177281,20.301606987],[-99.191166549,20.301437853],[-99.191509741,20.301275256],[-99.191551894,20.301196134],[-99.191611878,20.301158121],[-99.192459782,20.300697688]]]]},"properties":{"locality":"Los Pinos","municipality":null,"official_key":"130500008","CVE_ENT":"13","CVE_MUN":"050","CVE_LOC":"0008","ambito":"RURAL","geometry_kind":"locality","source":"INEGI Gaia — Servicio vectorial del Marco Geoestadístico"}},{"type":"Feature","geometry":{"type":"MultiPolygon","crs":{"type":"name","properties":{"name":"EPSG:6365"}},"coordinates":[[[[-99.209176889,20.351677221],[-99.20868298,20.350053721],[-99.208203999,20.34846903],[-99.208115343,20.348306061],[-99.206491188,20.342960681],[-99.206773884,20.342887351],[-99.20688492,20.34310575],[-99.20908098,20.342954021],[-99.21112792,20.34280575],[-99.21247354,20.34270395],[-99.21253622,20.34269257],[-99.212769719,20.34277774],[-99.213656279,20.34327854],[-99.21414154,20.343532451],[-99.214095879,20.34375852],[-99.213978879,20.34456906],[-99.21395488,20.345092421],[-99.21395568,20.34561932],[-99.21400935,20.345827771],[-99.214101259,20.346218621],[-99.214092079,20.346467921],[-99.214101939,20.34663277],[-99.2142212,20.34745934],[-99.21432898,20.348244431],[-99.21447678,20.34905289],[-99.21452109,20.34943305],[-99.214517861,20.34948078],[-99.214486719,20.34994149],[-99.214387339,20.350579881],[-99.214273099,20.351069269],[-99.213864074,20.352272164],[-99.213757873,20.352866151],[-99.213489474,20.353792654],[-99.212868546,20.354021193],[-99.212375139,20.353941068],[-99.211931009,20.353896596],[-99.211505309,20.353990149],[-99.211236131,20.354059559],[-99.211023757,20.354177249],[-99.210875758,20.354335175],[-99.210737448,20.354581869],[-99.21054357,20.354661934],[-99.210424793,20.354636382],[-99.210262343,20.354590304],[-99.210041867,20.354572659],[-99.209176889,20.351677221]]]]},"properties":{"locality":"El Jardín [Colonia]","municipality":null,"official_key":"130500010","CVE_ENT":"13","CVE_MUN":"050","CVE_LOC":"0010","ambito":"RURAL","geometry_kind":"locality","source":"INEGI Gaia — Servicio vectorial del Marco Geoestadístico"}},{"type":"Feature","geometry":{"type":"MultiPolygon","crs":{"type":"name","properties":{"name":"EPSG:6365"}},"coordinates":[[[[-99.198047922,20.314877766],[-99.199193696,20.314539675],[-99.19926294,20.314671341],[-99.19926582,20.314778181],[-99.199261539,20.314862091],[-99.19925165,20.31497111],[-99.199227849,20.31507625],[-99.199155519,20.315374881],[-99.19910066,20.315629431],[-99.19896902,20.316090151],[-99.19896078,20.316111001],[-99.198923369,20.316205691],[-99.198890149,20.31627468],[-99.198843309,20.31632542],[-99.1987942,20.316362891],[-99.19872995,20.316394111],[-99.19863395,20.31642354],[-99.19847137,20.316454581],[-99.198366493,20.316404954],[-99.197010552,20.316739203],[-99.196251183,20.317119205],[-99.19519155,20.317607559],[-99.195001522,20.317752759],[-99.194910213,20.317860152],[-99.19481572,20.317989013],[-99.194736079,20.318144887],[-99.194673573,20.318282481],[-99.194636431,20.318408897],[-99.194608873,20.318578736],[-99.194596729,20.318721376],[-99.194600728,20.318835436],[-99.194605115,20.318978406],[-99.194619193,20.3191169],[-99.194260122,20.319196191],[-99.194152885,20.318415095],[-99.194010836,20.317597447],[-99.193880579,20.31642043],[-99.193882579,20.31632448],[-99.193912139,20.31624823],[-99.19397677,20.31619903],[-99.194063179,20.316168021],[-99.193946123,20.316028481],[-99.193889697,20.315919781],[-99.193828667,20.315796282],[-99.193757868,20.315680296],[-99.193956792,20.315595681],[-99.195722129,20.315239404],[-99.195583536,20.314868943],[-99.1938866,20.315236173],[-99.193778491,20.315101405],[-99.193413824,20.315158012],[-99.193326837,20.315059707],[-99.195577592,20.314547306],[-99.195630909,20.314773801],[-99.196413851,20.314622227],[-99.196307496,20.314270108],[-99.197741703,20.313793358],[-99.198047922,20.314877766]]]]},"properties":{"locality":"La Mora","municipality":null,"official_key":"130500011","CVE_ENT":"13","CVE_MUN":"050","CVE_LOC":"0011","ambito":"RURAL","geometry_kind":"locality","source":"INEGI Gaia — Servicio vectorial del Marco Geoestadístico"}},{"type":"Feature","geometry":{"type":"MultiPolygon","crs":{"type":"name","properties":{"name":"EPSG:6365"}},"coordinates":[[[[-99.174097187,20.307450401],[-99.173687646,20.306574337],[-99.172139459,20.307202519],[-99.172180267,20.306771333],[-99.171521747,20.305115292],[-99.171651549,20.304685763],[-99.171927199,20.304663595],[-99.171395447,20.303818609],[-99.170976439,20.303238485],[-99.170290537,20.302102664],[-99.170224761,20.302001461],[-99.170113453,20.301823965],[-99.169927466,20.30152738],[-99.16991511,20.301507676],[-99.16962155,20.301023953],[-99.169563806,20.300904518],[-99.169558713,20.300893858],[-99.16909969,20.29993315],[-99.16896149,20.29968605],[-99.168513229,20.298884451],[-99.168355019,20.298535891],[-99.16835489,20.29842615],[-99.16845492,20.29826257],[-99.16877238,20.29783014],[-99.168988999,20.297487051],[-99.16901745,20.29723186],[-99.169037799,20.29701486],[-99.16908688,20.296667321],[-99.169090259,20.29631758],[-99.16906178,20.29585012],[-99.168988859,20.29542335],[-99.168872489,20.29503762],[-99.16923095,20.29496435],[-99.169351919,20.294941861],[-99.16961002,20.29489388],[-99.16990951,20.29487206],[-99.170068319,20.294808711],[-99.170186079,20.294761741],[-99.17061749,20.2946752],[-99.171453709,20.29453392],[-99.17158642,20.29451798],[-99.17247588,20.294411141],[-99.173598839,20.29421334],[-99.174485769,20.29412323],[-99.17516583,20.294085469],[-99.17594824,20.294028003],[-99.176884222,20.296489773],[-99.177327462,20.297578818],[-99.1776778,20.298481026],[-99.178273085,20.299988036],[-99.178860183,20.301400347],[-99.179343843,20.302699393],[-99.180024739,20.304408604],[-99.180662628,20.305686272],[-99.180735596,20.305846604],[-99.180851301,20.3062447],[-99.180942823,20.306735334],[-99.181022869,20.307074815],[-99.181094031,20.307566032],[-99.181194277,20.308095823],[-99.181255627,20.308545232],[-99.181129984,20.308623892],[-99.180361238,20.308894597],[-99.177145685,20.309971972],[-99.17616042,20.310292431],[-99.175477636,20.310504604],[-99.17518786,20.310577322],[-99.175008617,20.310633984],[-99.17480357,20.310708164],[-99.174572783,20.310796862],[-99.174415663,20.310859934],[-99.174265212,20.310908131],[-99.174127413,20.310959562],[-99.173995532,20.311032101],[-99.173886213,20.311090061],[-99.173741305,20.311177355],[-99.173555201,20.311257885],[-99.173480172,20.311196498],[-99.173461853,20.311160161],[-99.173469902,20.311079321],[-99.173515795,20.310861201],[-99.173567042,20.310691175],[-99.17359784,20.310586761],[-99.173606014,20.310499924],[-99.173598108,20.310421787],[-99.173565588,20.310304197],[-99.173476062,20.310023567],[-99.173385973,20.309769923],[-99.173757485,20.309641848],[-99.173994377,20.309565263],[-99.174186333,20.309508839],[-99.174263804,20.309453286],[-99.174293224,20.309414838],[-99.174288057,20.309357748],[-99.174273481,20.309294486],[-99.174246378,20.309221991],[-99.174209804,20.309146321],[-99.174171116,20.309019617],[-99.174150746,20.30892925],[-99.174184471,20.308836889],[-99.1742463,20.308769047],[-99.174330692,20.308686626],[-99.174440071,20.308625667],[-99.174665187,20.308503868],[-99.174097187,20.307450401]]]]},"properties":{"locality":"El Moreno","municipality":null,"official_key":"130500012","CVE_ENT":"13","CVE_MUN":"050","CVE_LOC":"0012","ambito":"RURAL","geometry_kind":"locality","source":"INEGI Gaia — Servicio vectorial del Marco Geoestadístico"}},{"type":"Feature","geometry":{"type":"MultiPolygon","crs":{"type":"name","properties":{"name":"EPSG:6365"}},"coordinates":[[[[-99.194706402,20.288052953],[-99.195983133,20.287398841],[-99.196310363,20.287992573],[-99.19504436,20.288641652],[-99.194706402,20.288052953]]],[[[-99.188498542,20.290616229],[-99.188357781,20.290590865],[-99.187617207,20.290588681],[-99.18757587,20.290517751],[-99.18751026,20.290405169],[-99.187163638,20.289681737],[-99.186922599,20.28916471],[-99.186862631,20.289039778],[-99.186794767,20.288854228],[-99.186741351,20.288634392],[-99.18667633,20.288385544],[-99.186577753,20.287915788],[-99.186480017,20.287332303],[-99.186328634,20.286410926],[-99.187295291,20.286083049],[-99.18825128,20.28573877],[-99.189317819,20.28527622],[-99.1895312,20.285183679],[-99.190145849,20.28495148],[-99.190393338,20.284857984],[-99.191131139,20.284496384],[-99.191273709,20.284423751],[-99.191901709,20.28410382],[-99.192038539,20.284191291],[-99.192131508,20.284196339],[-99.192229448,20.284135139],[-99.192366981,20.284260339],[-99.192475629,20.284434618],[-99.192746781,20.284886722],[-99.192843369,20.285132619],[-99.192992829,20.285581031],[-99.193232291,20.286042449],[-99.19342008,20.28641805],[-99.193603939,20.286895352],[-99.193668421,20.28703808],[-99.193827629,20.287390448],[-99.193870768,20.287564292],[-99.193936539,20.287826048],[-99.193960417,20.288094831],[-99.193979749,20.288398511],[-99.193935406,20.288420712],[-99.192749848,20.289014261],[-99.192288819,20.28924577],[-99.191709321,20.289536752],[-99.190767078,20.289998062],[-99.190613,20.29007437],[-99.189748016,20.290502831],[-99.18949114,20.29049243],[-99.18955351,20.29106711],[-99.188707769,20.290687566],[-99.188524001,20.290620816],[-99.188498542,20.290616229]]]]},"properties":{"locality":"La Ranchería","municipality":null,"official_key":"130500015","CVE_ENT":"13","CVE_MUN":"050","CVE_LOC":"0015","ambito":"RURAL","geometry_kind":"locality","source":"INEGI Gaia — Servicio vectorial del Marco Geoestadístico"}},{"type":"Feature","geometry":{"type":"MultiPolygon","crs":{"type":"name","properties":{"name":"EPSG:6365"}},"coordinates":[[[[-99.166270677,20.303201892],[-99.166188399,20.303822295],[-99.166071897,20.304788705],[-99.165380875,20.3048915],[-99.163818906,20.305053138],[-99.163810398,20.304872342],[-99.163382355,20.304897659],[-99.163699436,20.307029727],[-99.163129166,20.30710617],[-99.162679815,20.307132036],[-99.162181555,20.307205339],[-99.161723214,20.307257084],[-99.161236551,20.30729302],[-99.160771345,20.30735411],[-99.160288733,20.307424849],[-99.159816851,20.307475464],[-99.159594571,20.305558073],[-99.15942041,20.304094561],[-99.159834965,20.30406727],[-99.160354698,20.303984571],[-99.16092363,20.30392215],[-99.161411979,20.30386071],[-99.16186375,20.303806801],[-99.161869749,20.303806081],[-99.16228726,20.303754281],[-99.16229728,20.303753051],[-99.16270962,20.303701121],[-99.162718779,20.303699971],[-99.16321531,20.30364748],[-99.163734349,20.30358149],[-99.164325606,20.303488066],[-99.166270677,20.303201892]]]]},"properties":{"locality":"Dotzibi (Lomas de Xochitlán)","municipality":null,"official_key":"130500022","CVE_ENT":"13","CVE_MUN":"050","CVE_LOC":"0022","ambito":"RURAL","geometry_kind":"locality","source":"INEGI Gaia — Servicio vectorial del Marco Geoestadístico"}},{"type":"Feature","geometry":{"type":"MultiPolygon","crs":{"type":"name","properties":{"name":"EPSG:6365"}},"coordinates":[[[[-99.187263929,20.277292541],[-99.185965739,20.278238548],[-99.18546685,20.276975527],[-99.185364925,20.276859793],[-99.185155714,20.276708833],[-99.185209358,20.276598129],[-99.185397112,20.276467297],[-99.185643876,20.276391817],[-99.185794079,20.27629621],[-99.185917459,20.276155313],[-99.186754311,20.276779281],[-99.186915242,20.276980559],[-99.187011802,20.277101327],[-99.187263929,20.277292541]]],[[[-99.189753019,20.281992326],[-99.188701594,20.280583411],[-99.188733779,20.280487807],[-99.188835703,20.280397233],[-99.188985907,20.2802815],[-99.189618909,20.279889014],[-99.190461122,20.280633731],[-99.190246546,20.280910482],[-99.189753019,20.281992326]]],[[[-99.185991447,20.280754372],[-99.18613925,20.28112232],[-99.186250814,20.281487663],[-99.186357011,20.281847975],[-99.186579289,20.28218972],[-99.18664274,20.28234248],[-99.18672815,20.28254811],[-99.186939493,20.283149436],[-99.185948718,20.283655349],[-99.185842171,20.28345228],[-99.186354614,20.283202132],[-99.186393023,20.282973639],[-99.185793065,20.283132591],[-99.185717635,20.282802636],[-99.185628958,20.282861572],[-99.185545646,20.282535576],[-99.18539905,20.282260376],[-99.185166658,20.281991968],[-99.18492708,20.281825057],[-99.184773333,20.28175375],[-99.184682334,20.281042724],[-99.184957766,20.28051986],[-99.185281478,20.279921515],[-99.185655317,20.279620497],[-99.186010164,20.279354076],[-99.186075336,20.279613488],[-99.186184217,20.279926002],[-99.186182042,20.279962302],[-99.185957749,20.280321718],[-99.185902787,20.280415874],[-99.185905518,20.280488451],[-99.185991447,20.280754372]]]]},"properties":{"locality":"Progreso [Fraccionamiento]","municipality":null,"official_key":"130500023","CVE_ENT":"13","CVE_MUN":"050","CVE_LOC":"0023","ambito":"RURAL","geometry_kind":"locality","source":"INEGI Gaia — Servicio vectorial del Marco Geoestadístico"}},{"type":"Feature","geometry":{"type":"MultiPolygon","crs":{"type":"name","properties":{"name":"EPSG:6365"}},"coordinates":[[[[-99.181964692,20.305821403],[-99.18265222,20.30560212],[-99.182811087,20.306522946],[-99.183320698,20.30770224],[-99.18321126,20.307766204],[-99.18272566,20.30787718],[-99.18190265,20.30800591],[-99.181194277,20.308095823],[-99.181094031,20.307566032],[-99.181022869,20.307074815],[-99.180942823,20.306735334],[-99.180851301,20.3062447],[-99.181285283,20.306102527],[-99.181964692,20.305821403]]]]},"properties":{"locality":"6 de Enero","municipality":null,"official_key":"130500026","CVE_ENT":"13","CVE_MUN":"050","CVE_LOC":"0026","ambito":"RURAL","geometry_kind":"locality","source":"INEGI Gaia — Servicio vectorial del Marco Geoestadístico"}},{"type":"Feature","geometry":{"type":"Polygon","coordinates":[[[-99.1910724,20.2424985],[-99.1901497,20.2421598],[-99.1900906,20.2421599],[-99.1898264,20.2420652],[-99.1888679,20.2417215],[-99.1887948,20.2416626],[-99.1880096,20.2413904],[-99.1876569,20.2412576],[-99.1871574,20.2403067],[-99.1864444,20.2389588],[-99.1856993,20.2375404],[-99.1855543,20.2372439],[-99.185066,20.2362889],[-99.1848988,20.235973],[-99.1843913,20.2350144],[-99.1836626,20.2336528],[-99.183173,20.2327505],[-99.1829974,20.2324009],[-99.1829978,20.2324007],[-99.1830307,20.2323833],[-99.1832655,20.2322588],[-99.1834462,20.2321322],[-99.18349,20.2321014],[-99.1835171,20.2320825],[-99.1838826,20.2318077],[-99.1839275,20.231774],[-99.1852113,20.2315746],[-99.1855723,20.2315232],[-99.1858537,20.2316114],[-99.1860758,20.2316391],[-99.1864509,20.2315874],[-99.1869,20.2315125],[-99.1875218,20.2314281],[-99.1879789,20.2314146],[-99.1881587,20.2314204],[-99.1883579,20.2314415],[-99.1888692,20.231533],[-99.1902223,20.2317748],[-99.1909724,20.2319068],[-99.1914407,20.2319883],[-99.1919491,20.2320616],[-99.192406,20.2320447],[-99.1929851,20.231959],[-99.1935279,20.2317733],[-99.1946547,20.2313761],[-99.1957931,20.2309779],[-99.1960922,20.2308992],[-99.1969014,20.2306459],[-99.1971126,20.2307013],[-99.1972429,20.23071],[-99.1975972,20.2307029],[-99.1977484,20.2319073],[-99.1978996,20.2331117],[-99.198009,20.2339455],[-99.1981281,20.2348072],[-99.1981316,20.2348324],[-99.1981461,20.2349375],[-99.1982076,20.235376],[-99.1982076,20.2353761],[-99.1981198,20.2353433],[-99.1971936,20.2358657],[-99.1960783,20.2364812],[-99.195011,20.2370638],[-99.1939437,20.2376464],[-99.1937241,20.2378446],[-99.193521,20.2380471],[-99.1933486,20.2381163],[-99.1929716,20.2392865],[-99.1925946,20.2404567],[-99.1925741,20.2405278],[-99.1924796,20.2408509],[-99.1924293,20.2410156],[-99.1922872,20.2414804],[-99.1921848,20.241815],[-99.1919572,20.24247],[-99.1918503,20.2427909],[-99.1910724,20.2424985]]]},"properties":{"locality":"EL BONDHO","official_key":"1305000010001","CVE_ENT":"13","CVE_MUN":"050","CVE_LOC":"0001","CVE_ASEN":"0001","settlement_type":"COLONIA","source":"INEGI DCAH 2025"}},{"type":"Feature","geometry":{"type":"Polygon","coordinates":[[[-99.1873403,20.2548735],[-99.1873995,20.2547207],[-99.1867861,20.253816],[-99.1863772,20.2531623],[-99.1861589,20.2527787],[-99.186094,20.2526834],[-99.1859879,20.2525317],[-99.1855629,20.2518552],[-99.1855325,20.2518067],[-99.1853107,20.2514538],[-99.1848396,20.2506985],[-99.1843836,20.2500034],[-99.1842191,20.2497131],[-99.1840039,20.249345],[-99.1839024,20.2492101],[-99.1835916,20.2487309],[-99.1832681,20.2482151],[-99.1828467,20.247529],[-99.1825527,20.2470562],[-99.182021,20.2462102],[-99.1816507,20.2456201],[-99.1809673,20.24549],[-99.1799019,20.2452843],[-99.1789363,20.2451537],[-99.1788677,20.2451444],[-99.1788887,20.2450977],[-99.1789676,20.2448327],[-99.1790773,20.2444637],[-99.1793433,20.2436959],[-99.1794403,20.2434099],[-99.1795138,20.2431774],[-99.1795556,20.2429981],[-99.1795704,20.2428983],[-99.1795934,20.2427982],[-99.1798392,20.2417329],[-99.179907,20.2411631],[-99.1799605,20.2406747],[-99.1800149,20.2401824],[-99.1800577,20.2397729],[-99.1801523,20.2388883],[-99.1801711,20.2386691],[-99.1801847,20.2386044],[-99.1802786,20.2376397],[-99.1803773,20.2367327],[-99.1804319,20.2361699],[-99.1804371,20.2361052],[-99.180445,20.2360076],[-99.1804864,20.2355745],[-99.1805281,20.2351608],[-99.1805773,20.2350267],[-99.1806654,20.2347834],[-99.1808274,20.2344296],[-99.1809995,20.2341522],[-99.1810946,20.2340194],[-99.1814193,20.2336968],[-99.1819969,20.2331819],[-99.1822484,20.2329643],[-99.1823013,20.2329185],[-99.1823245,20.2328984],[-99.1823679,20.2328608],[-99.182488,20.2327569],[-99.1827297,20.2325734],[-99.1827589,20.2325512],[-99.1828986,20.2324451],[-99.1829368,20.2324162],[-99.1829974,20.2324009],[-99.183173,20.2327505],[-99.1836626,20.2336528],[-99.1843913,20.2350144],[-99.1848988,20.235973],[-99.185066,20.2362889],[-99.1855543,20.2372439],[-99.1856993,20.2375404],[-99.1864444,20.2389588],[-99.1871574,20.2403067],[-99.1876569,20.2412576],[-99.1880096,20.2413904],[-99.1887948,20.2416626],[-99.1888679,20.2417215],[-99.1898264,20.2420652],[-99.1900906,20.2421599],[-99.1901497,20.2421598],[-99.1910724,20.2424985],[-99.1918503,20.2427909],[-99.1922901,20.2429666],[-99.1924455,20.2432204],[-99.19263,20.2436435],[-99.1927808,20.24401],[-99.1928066,20.2442869],[-99.1928007,20.2451805],[-99.192789,20.2457472],[-99.1927394,20.246488],[-99.1927342,20.2465658],[-99.1926204,20.2470343],[-99.1924481,20.2475895],[-99.1923774,20.2478982],[-99.192361,20.2481868],[-99.1923538,20.2485338],[-99.192335,20.2493367],[-99.1923195,20.2495816],[-99.1923497,20.2496759],[-99.1923563,20.2501405],[-99.1923546,20.2507722],[-99.1923474,20.2512595],[-99.1923557,20.2515438],[-99.1923693,20.2516727],[-99.1923937,20.2517729],[-99.1924642,20.2519988],[-99.1924484,20.2522373],[-99.1923541,20.2526495],[-99.192287,20.2529722],[-99.1921255,20.2532626],[-99.1919218,20.2536475],[-99.191888,20.2537136],[-99.1918796,20.2537584],[-99.1918517,20.2539131],[-99.1918647,20.2541653],[-99.1918994,20.25433],[-99.1919828,20.2545029],[-99.1922198,20.2551162],[-99.1923223,20.2552693],[-99.192445,20.2554648],[-99.1924968,20.2555575],[-99.192538,20.2558402],[-99.1924681,20.2560861],[-99.192315,20.2564168],[-99.1922282,20.2565798],[-99.1921195,20.2567801],[-99.1919928,20.2567115],[-99.1914466,20.2563434],[-99.1913947,20.256329],[-99.1910685,20.2561516],[-99.1908205,20.256033],[-99.1907217,20.2559848],[-99.1907069,20.2559328],[-99.1905632,20.2558821],[-99.190239,20.2558005],[-99.1899932,20.2557362],[-99.1897723,20.2556668],[-99.1897193,20.2556502],[-99.1891392,20.2554878],[-99.1890314,20.255458],[-99.1887008,20.2553227],[-99.1883186,20.2551798],[-99.1881578,20.2551219],[-99.1873917,20.2548928],[-99.1873403,20.2548735]]]},"properties":{"locality":"CENTRO","official_key":"1305000010002","CVE_ENT":"13","CVE_MUN":"050","CVE_LOC":"0001","CVE_ASEN":"0002","settlement_type":"COLONIA","source":"INEGI DCAH 2025"}},{"type":"Feature","geometry":{"type":"Polygon","coordinates":[[[-99.1931959,20.2623225],[-99.1925011,20.2623048],[-99.1922032,20.2625873],[-99.1915422,20.262401],[-99.1906174,20.2622231],[-99.1896899,20.2620449],[-99.1889026,20.2619039],[-99.1883772,20.2618246],[-99.1881385,20.2617886],[-99.1876089,20.2616492],[-99.1876822,20.2614102],[-99.1877868,20.2610258],[-99.1880086,20.2602621],[-99.1882529,20.2598885],[-99.187814,20.2596029],[-99.1876775,20.2595014],[-99.1874033,20.2592653],[-99.1872753,20.2591421],[-99.1869912,20.2588687],[-99.1866798,20.2585901],[-99.186615,20.2585333],[-99.1860779,20.2580041],[-99.1861111,20.25792],[-99.1864235,20.2571586],[-99.1865464,20.256876],[-99.1866111,20.256689],[-99.1868692,20.256053],[-99.1873403,20.2548735],[-99.1873917,20.2548928],[-99.1881578,20.2551219],[-99.1883186,20.2551798],[-99.1887008,20.2553227],[-99.1890314,20.255458],[-99.1891392,20.2554878],[-99.1897193,20.2556502],[-99.1897723,20.2556668],[-99.1899932,20.2557362],[-99.190239,20.2558005],[-99.1905632,20.2558821],[-99.1907069,20.2559328],[-99.1907217,20.2559848],[-99.1908205,20.256033],[-99.1910685,20.2561516],[-99.1913947,20.256329],[-99.1914466,20.2563434],[-99.1919928,20.2567115],[-99.1921195,20.2567801],[-99.1923694,20.2569357],[-99.1925516,20.2570204],[-99.1929295,20.2572188],[-99.1936415,20.2575928],[-99.1940939,20.2579065],[-99.1946008,20.2582649],[-99.1947099,20.2585445],[-99.1949883,20.2593211],[-99.1950466,20.2594161],[-99.1953739,20.2596426],[-99.1954788,20.2604174],[-99.1955002,20.2604395],[-99.1955552,20.2604576],[-99.195663,20.260471],[-99.1957415,20.2604644],[-99.1958423,20.2604447],[-99.1959267,20.2604107],[-99.1960127,20.2603215],[-99.1960494,20.260216],[-99.1960341,20.2600385],[-99.1960152,20.2599974],[-99.1959894,20.2599124],[-99.1959635,20.2598255],[-99.1959775,20.259611],[-99.1959796,20.2595154],[-99.1959674,20.2594437],[-99.1959458,20.259345],[-99.1959272,20.2592587],[-99.1958998,20.2591843],[-99.1958708,20.2590221],[-99.1958504,20.2588436],[-99.1958541,20.2587855],[-99.1958786,20.2586809],[-99.1958687,20.2585734],[-99.1958495,20.2584979],[-99.1958326,20.258411],[-99.1958483,20.2583416],[-99.1959035,20.2582391],[-99.1959961,20.2581355],[-99.1960865,20.2580592],[-99.1961501,20.2579986],[-99.1961794,20.257919],[-99.1961889,20.257857],[-99.1961794,20.2577864],[-99.1961339,20.2577128],[-99.1960995,20.2576553],[-99.1960854,20.2576025],[-99.1960659,20.257496],[-99.1960658,20.2574397],[-99.1960976,20.2572936],[-99.1961489,20.2572132],[-99.1965661,20.2567509],[-99.1966298,20.2566698],[-99.1966589,20.256602],[-99.1966819,20.2565412],[-99.1967062,20.2564953],[-99.1967596,20.2564575],[-99.1968531,20.2564574],[-99.19717,20.256523],[-99.1973005,20.256539],[-99.1974602,20.2566004],[-99.1976062,20.2566391],[-99.1977007,20.2566601],[-99.1979393,20.2566495],[-99.1980634,20.2566241],[-99.1984071,20.2565985],[-99.1986566,20.2565857],[-99.1990904,20.2565538],[-99.1993578,20.2565126],[-99.1994926,20.2564848],[-99.1997757,20.2564148],[-99.1998679,20.2563914],[-99.2001167,20.2563154],[-99.200552,20.2562452],[-99.2011358,20.2563934],[-99.2015619,20.25665],[-99.2017915,20.2568589],[-99.2019625,20.257207],[-99.2019912,20.2574661],[-99.201902,20.2577781],[-99.2017598,20.2580335],[-99.2015459,20.2582688],[-99.2011674,20.2585077],[-99.2006798,20.2587521],[-99.2001247,20.2588824],[-99.1998249,20.2589481],[-99.1994096,20.2588778],[-99.1989193,20.2587803],[-99.1987463,20.2587805],[-99.198088,20.2588719],[-99.1976854,20.2593139],[-99.1972747,20.2597863],[-99.1970574,20.2600758],[-99.1970175,20.2604337],[-99.1972154,20.2607557],[-99.1973909,20.2609515],[-99.1979299,20.2611837],[-99.1984428,20.2613914],[-99.199499,20.2616159],[-99.2001463,20.2618068],[-99.2004639,20.262034],[-99.2004014,20.2628366],[-99.2000324,20.2632232],[-99.1990433,20.2636914],[-99.1983837,20.2638599],[-99.1976732,20.2639086],[-99.1969245,20.2638855],[-99.19604,20.2637208],[-99.1956845,20.2635175],[-99.1952018,20.2630988],[-99.194605,20.2627881],[-99.193653,20.2625016],[-99.1931959,20.2623225]]]},"properties":{"locality":"CERRITO COLORADO","official_key":"1305000010003","CVE_ENT":"13","CVE_MUN":"050","CVE_LOC":"0001","CVE_ASEN":"0003","settlement_type":"COLONIA","source":"INEGI DCAH 2025"}},{"type":"Feature","geometry":{"type":"Polygon","coordinates":[[[-99.1788315,20.2452518],[-99.1788677,20.2451444],[-99.1789363,20.2451537],[-99.1799019,20.2452843],[-99.1809673,20.24549],[-99.1816507,20.2456201],[-99.182021,20.2462102],[-99.1825527,20.2470562],[-99.1828467,20.247529],[-99.1832681,20.2482151],[-99.1835916,20.2487309],[-99.1839024,20.2492101],[-99.1840039,20.249345],[-99.1842191,20.2497131],[-99.1843836,20.2500034],[-99.1848396,20.2506985],[-99.1853107,20.2514538],[-99.1852658,20.2515157],[-99.1849284,20.2521782],[-99.1848464,20.2522534],[-99.1843291,20.252802],[-99.1836124,20.2537513],[-99.1833799,20.2540613],[-99.1831986,20.2542589],[-99.1831182,20.2543177],[-99.1828948,20.2544607],[-99.1824224,20.2546863],[-99.1820004,20.2548982],[-99.1819218,20.2549548],[-99.1818481,20.2550079],[-99.1818077,20.2550316],[-99.1811879,20.2552778],[-99.1809175,20.2553765],[-99.1805496,20.2555878],[-99.1791782,20.256456],[-99.1790406,20.2565074],[-99.1785366,20.2556595],[-99.1780326,20.2548117],[-99.1775285,20.2539639],[-99.1770245,20.253116],[-99.1761188,20.2516476],[-99.1758155,20.2511605],[-99.175996,20.2508725],[-99.176028,20.250816],[-99.17606,20.2507595],[-99.1765029,20.2500244],[-99.1769448,20.2492575],[-99.1775076,20.248228],[-99.1780449,20.2472478],[-99.1782257,20.2469256],[-99.1782925,20.2467814],[-99.1783719,20.2465617],[-99.1787009,20.2454809],[-99.1788315,20.2452518]]]},"properties":{"locality":"INDEPENDENCIA","official_key":"1305000010005","CVE_ENT":"13","CVE_MUN":"050","CVE_LOC":"0001","CVE_ASEN":"0005","settlement_type":"COLONIA","source":"INEGI DCAH 2025"}},{"type":"Feature","geometry":{"type":"Polygon","coordinates":[[[-99.1849447,20.2591853],[-99.1849649,20.2589418],[-99.1836805,20.2589693],[-99.1820106,20.2582077],[-99.1816773,20.2582771],[-99.1791834,20.256724],[-99.1790406,20.2565074],[-99.1791782,20.256456],[-99.1805496,20.2555878],[-99.1809175,20.2553765],[-99.1811879,20.2552778],[-99.1818077,20.2550316],[-99.1818481,20.2550079],[-99.1823142,20.2553229],[-99.1824393,20.2554074],[-99.1837078,20.2562744],[-99.1844298,20.2567868],[-99.1845888,20.2568633],[-99.1851208,20.2572155],[-99.1860779,20.2580041],[-99.1852593,20.2601745],[-99.1850868,20.2606661],[-99.18498,20.2609136],[-99.184865,20.2611686],[-99.184847,20.260952],[-99.1848792,20.2601367],[-99.1849004,20.2597268],[-99.184913,20.2595728],[-99.1849447,20.2591853]]]},"properties":{"locality":"LA JOYA","official_key":"1305000010006","CVE_ENT":"13","CVE_MUN":"050","CVE_LOC":"0001","CVE_ASEN":"0006","settlement_type":"COLONIA","source":"INEGI DCAH 2025"}},{"type":"Feature","geometry":{"type":"Polygon","coordinates":[[[-99.1852658,20.2515157],[-99.1853107,20.2514538],[-99.1855325,20.2518067],[-99.1855629,20.2518552],[-99.1859879,20.2525317],[-99.186094,20.2526834],[-99.1861589,20.2527787],[-99.1863772,20.2531623],[-99.1867861,20.253816],[-99.1873995,20.2547207],[-99.1873403,20.2548735],[-99.1868692,20.256053],[-99.1866111,20.256689],[-99.1865464,20.256876],[-99.1864235,20.2571586],[-99.1861111,20.25792],[-99.1860779,20.2580041],[-99.1851208,20.2572155],[-99.1845888,20.2568633],[-99.1844298,20.2567868],[-99.1837078,20.2562744],[-99.1824393,20.2554074],[-99.1823142,20.2553229],[-99.1818481,20.2550079],[-99.1819218,20.2549548],[-99.1820004,20.2548982],[-99.1824224,20.2546863],[-99.1828948,20.2544607],[-99.1831182,20.2543177],[-99.1831986,20.2542589],[-99.1833799,20.2540613],[-99.1836124,20.2537513],[-99.1843291,20.252802],[-99.1848464,20.2522534],[-99.1849284,20.2521782],[-99.1852658,20.2515157]]]},"properties":{"locality":"LÁZARO CÁRDENAS","official_key":"1305000010007","CVE_ENT":"13","CVE_MUN":"050","CVE_LOC":"0001","CVE_ASEN":"0007","settlement_type":"COLONIA","source":"INEGI DCAH 2025"}},{"type":"Feature","geometry":{"type":"Polygon","coordinates":[[[-99.1860779,20.2580041],[-99.186615,20.2585333],[-99.1866798,20.2585901],[-99.1869912,20.2588687],[-99.1872753,20.2591421],[-99.1874033,20.2592653],[-99.1876775,20.2595014],[-99.187814,20.2596029],[-99.1882529,20.2598885],[-99.1880086,20.2602621],[-99.1877868,20.2610258],[-99.1876822,20.2614102],[-99.1876089,20.2616492],[-99.1881385,20.2617886],[-99.1883772,20.2618246],[-99.1889026,20.2619039],[-99.1896899,20.2620449],[-99.1890949,20.2628191],[-99.1884998,20.2635932],[-99.1877236,20.2646228],[-99.1867794,20.2658292],[-99.1867244,20.2658067],[-99.1863467,20.2653465],[-99.1859076,20.2648168],[-99.1854755,20.2642985],[-99.1848428,20.2635309],[-99.1847613,20.2633851],[-99.1839978,20.2624963],[-99.1841893,20.2622767],[-99.1844285,20.2619608],[-99.1847608,20.2614211],[-99.184865,20.2611686],[-99.18498,20.2609136],[-99.1850868,20.2606661],[-99.1852593,20.2601745],[-99.1860779,20.2580041]]]},"properties":{"locality":"MANANTIALES","official_key":"1305000010008","CVE_ENT":"13","CVE_MUN":"050","CVE_LOC":"0001","CVE_ASEN":"0008","settlement_type":"COLONIA","source":"INEGI DCAH 2025"}},{"type":"Feature","geometry":{"type":"Polygon","coordinates":[[[-99.1921195,20.2567801],[-99.1922282,20.2565798],[-99.192315,20.2564168],[-99.1924681,20.2560861],[-99.192538,20.2558402],[-99.1924968,20.2555575],[-99.192445,20.2554648],[-99.1923223,20.2552693],[-99.1922198,20.2551162],[-99.1919828,20.2545029],[-99.1918994,20.25433],[-99.1918647,20.2541653],[-99.1918517,20.2539131],[-99.1918796,20.2537584],[-99.191888,20.2537136],[-99.1919218,20.2536475],[-99.1921255,20.2532626],[-99.192287,20.2529722],[-99.1923541,20.2526495],[-99.1924484,20.2522373],[-99.1924642,20.2519988],[-99.1923937,20.2517729],[-99.1923693,20.2516727],[-99.1923557,20.2515438],[-99.1923474,20.2512595],[-99.1923546,20.2507722],[-99.1923563,20.2501405],[-99.1923497,20.2496759],[-99.1923195,20.2495816],[-99.192335,20.2493367],[-99.1923538,20.2485338],[-99.192361,20.2481868],[-99.1923774,20.2478982],[-99.1924481,20.2475895],[-99.1926204,20.2470343],[-99.1927342,20.2465658],[-99.1927394,20.246488],[-99.192789,20.2457472],[-99.1929787,20.245785],[-99.1943144,20.2461269],[-99.194825,20.2462843],[-99.1952804,20.2463935],[-99.1957199,20.2465094],[-99.1963467,20.2465932],[-99.1968924,20.2466344],[-99.1974474,20.2467238],[-99.1981008,20.2467076],[-99.2004252,20.24708],[-99.2008182,20.2473299],[-99.2010802,20.24752],[-99.2013571,20.2476607],[-99.2016739,20.2478298],[-99.2018323,20.2479257],[-99.2023366,20.2491224],[-99.2021797,20.2500127],[-99.2010081,20.2509945],[-99.2004055,20.2515283],[-99.2004779,20.2519575],[-99.2007831,20.2522674],[-99.2012192,20.2523999],[-99.2006861,20.2524752],[-99.2001581,20.2524692],[-99.1993819,20.2522949],[-99.1981748,20.2517387],[-99.1966549,20.2512939],[-99.1964528,20.2513012],[-99.1962739,20.2512945],[-99.1958747,20.2514744],[-99.1956494,20.2516578],[-99.1953094,20.2519727],[-99.1951688,20.2523725],[-99.1950903,20.2531221],[-99.1951438,20.253834],[-99.1951441,20.2538381],[-99.1953319,20.2542136],[-99.195513,20.254499],[-99.1956555,20.2548248],[-99.1957477,20.2549897],[-99.1961899,20.2554111],[-99.1965782,20.2556175],[-99.1968652,20.2557365],[-99.1973884,20.2558711],[-99.1979115,20.2559659],[-99.1984768,20.256021],[-99.1990544,20.2560259],[-99.1997933,20.2561167],[-99.200552,20.2562452],[-99.2001167,20.2563154],[-99.1998679,20.2563914],[-99.1997757,20.2564148],[-99.1994926,20.2564848],[-99.1993578,20.2565126],[-99.1990904,20.2565538],[-99.1986566,20.2565857],[-99.1984071,20.2565985],[-99.1980634,20.2566241],[-99.1979393,20.2566495],[-99.1977007,20.2566601],[-99.1976062,20.2566391],[-99.1974602,20.2566004],[-99.1973005,20.256539],[-99.19717,20.256523],[-99.1968531,20.2564574],[-99.1967596,20.2564575],[-99.1967062,20.2564953],[-99.1966819,20.2565412],[-99.1966589,20.256602],[-99.1966298,20.2566698],[-99.1965661,20.2567509],[-99.1961489,20.2572132],[-99.1960976,20.2572936],[-99.1960658,20.2574397],[-99.1960659,20.257496],[-99.1960854,20.2576025],[-99.1960995,20.2576553],[-99.1961339,20.2577128],[-99.1961794,20.2577864],[-99.1961889,20.257857],[-99.1961794,20.257919],[-99.1961501,20.2579986],[-99.1960865,20.2580592],[-99.1959961,20.2581355],[-99.1959035,20.2582391],[-99.1958483,20.2583416],[-99.1958326,20.258411],[-99.1958495,20.2584979],[-99.1958687,20.2585734],[-99.1958786,20.2586809],[-99.1958541,20.2587855],[-99.1958504,20.2588436],[-99.1958708,20.2590221],[-99.1958998,20.2591843],[-99.1959272,20.2592587],[-99.1959458,20.259345],[-99.1959674,20.2594437],[-99.1959796,20.2595154],[-99.1959775,20.259611],[-99.1959635,20.2598255],[-99.1959894,20.2599124],[-99.1960152,20.2599974],[-99.1960341,20.2600385],[-99.1960494,20.260216],[-99.1960127,20.2603215],[-99.1959267,20.2604107],[-99.1958423,20.2604447],[-99.1957415,20.2604644],[-99.195663,20.260471],[-99.1955552,20.2604576],[-99.1955002,20.2604395],[-99.1954788,20.2604174],[-99.1953739,20.2596426],[-99.1950466,20.2594161],[-99.1949883,20.2593211],[-99.1947099,20.2585445],[-99.1946008,20.2582649],[-99.1940939,20.2579065],[-99.1936415,20.2575928],[-99.1929295,20.2572188],[-99.1925516,20.2570204],[-99.1923694,20.2569357],[-99.1921195,20.2567801]]]},"properties":{"locality":"POTREROS","official_key":"1305000010009","CVE_ENT":"13","CVE_MUN":"050","CVE_LOC":"0001","CVE_ASEN":"0009","settlement_type":"COLONIA","source":"INEGI DCAH 2025"}},{"type":"Feature","geometry":{"type":"Polygon","coordinates":[[[-99.192789,20.2457472],[-99.1928007,20.2451805],[-99.1928066,20.2442869],[-99.1927808,20.24401],[-99.19263,20.2436435],[-99.1924455,20.2432204],[-99.1922901,20.2429666],[-99.1918503,20.2427909],[-99.1919572,20.24247],[-99.1921848,20.241815],[-99.1922872,20.2414804],[-99.1924293,20.2410156],[-99.1924796,20.2408509],[-99.1925741,20.2405278],[-99.1925946,20.2404567],[-99.1929716,20.2392865],[-99.1933486,20.2381163],[-99.193521,20.2380471],[-99.1937241,20.2378446],[-99.1939437,20.2376464],[-99.195011,20.2370638],[-99.1960783,20.2364812],[-99.1971936,20.2358657],[-99.1981198,20.2353433],[-99.1982076,20.2353761],[-99.1985837,20.236226],[-99.1984157,20.2363493],[-99.1982878,20.2365605],[-99.1982598,20.2366067],[-99.1981975,20.2367095],[-99.1981305,20.2369211],[-99.1980602,20.2371701],[-99.1980463,20.2374012],[-99.1979007,20.2375746],[-99.1978049,20.237894],[-99.1977591,20.2380939],[-99.1976305,20.2382418],[-99.1973087,20.2384941],[-99.1970513,20.2387463],[-99.1967572,20.2390074],[-99.1964085,20.2391311],[-99.1959354,20.239306],[-99.1957083,20.2394212],[-99.1953959,20.2396566],[-99.1951275,20.2400302],[-99.194996,20.2403483],[-99.1949864,20.2405419],[-99.1950061,20.2406387],[-99.1950453,20.24074],[-99.1951139,20.2408229],[-99.1951726,20.2409104],[-99.1952901,20.2410163],[-99.1954221,20.2411037],[-99.195652,20.2412596],[-99.1958016,20.2413587],[-99.1959512,20.241483],[-99.1961334,20.2416189],[-99.1962591,20.2417194],[-99.1964475,20.2418258],[-99.1966047,20.2418907],[-99.197235,20.2421218],[-99.1974467,20.2421917],[-99.1978072,20.2423423],[-99.1981622,20.2425846],[-99.19846,20.242924],[-99.1987467,20.2433933],[-99.1990141,20.2438582],[-99.19914,20.2443701],[-99.1991638,20.2448524],[-99.1991737,20.2451015],[-99.1991644,20.2453326],[-99.1991742,20.2455427],[-99.1991956,20.2457026],[-99.1992509,20.2458983],[-99.1993319,20.246154],[-99.1994168,20.2463338],[-99.1995103,20.2465015],[-99.199613,20.2466295],[-99.1997927,20.2467492],[-99.2004252,20.24708],[-99.1981008,20.2467076],[-99.1974474,20.2467238],[-99.1968924,20.2466344],[-99.1963467,20.2465932],[-99.1957199,20.2465094],[-99.1952804,20.2463935],[-99.194825,20.2462843],[-99.1943144,20.2461269],[-99.1929787,20.245785],[-99.192789,20.2457472]]]},"properties":{"locality":"ZENTHÉ","official_key":"1305000010010","CVE_ENT":"13","CVE_MUN":"050","CVE_LOC":"0001","CVE_ASEN":"0010","settlement_type":"COLONIA","source":"INEGI DCAH 2025"}},{"type":"Feature","geometry":{"type":"Polygon","coordinates":[[[-99.1801144,20.259051],[-99.1801657,20.2588771],[-99.1801697,20.2583925],[-99.1800508,20.2581719],[-99.1797831,20.2576801],[-99.1794365,20.2571082],[-99.1791834,20.256724],[-99.1816773,20.2582771],[-99.1820106,20.2582077],[-99.1836805,20.2589693],[-99.1849649,20.2589418],[-99.1849447,20.2591853],[-99.184913,20.2595728],[-99.1849004,20.2597268],[-99.1848792,20.2601367],[-99.184847,20.260952],[-99.184865,20.2611686],[-99.1847608,20.2614211],[-99.1844285,20.2619608],[-99.1841893,20.2622767],[-99.1839978,20.2624963],[-99.1833715,20.2631758],[-99.1826956,20.2638518],[-99.1825919,20.263982],[-99.1825404,20.2638821],[-99.1818221,20.2630042],[-99.1798562,20.2628076],[-99.179705,20.2627424],[-99.1795403,20.2625953],[-99.1794816,20.262479],[-99.1794474,20.262416],[-99.1793011,20.2623557],[-99.1791647,20.2623148],[-99.1790611,20.2621593],[-99.1790413,20.2618902],[-99.1790884,20.2613391],[-99.179162,20.2611329],[-99.1794551,20.2604905],[-99.1798476,20.2596519],[-99.1801144,20.259051]]]},"properties":{"locality":"XAMU","official_key":"1305000010011","CVE_ENT":"13","CVE_MUN":"050","CVE_LOC":"0001","CVE_ASEN":"0011","settlement_type":"COLONIA","source":"INEGI DCAH 2025"}},{"type":"Feature","geometry":{"type":"Polygon","coordinates":[[[-99.1796867,20.2943575],[-99.1796935,20.2943569],[-99.1796506,20.2932701],[-99.1798437,20.2932601],[-99.1799832,20.2932097],[-99.1803372,20.2929079],[-99.1806698,20.2928374],[-99.1815388,20.2927972],[-99.182837,20.2926462],[-99.1833198,20.2926663],[-99.1829175,20.2918865],[-99.1825795,20.2910261],[-99.1835559,20.29086],[-99.1841996,20.2907644],[-99.184167,20.2902931],[-99.1837136,20.2872771],[-99.1860077,20.2865154],[-99.1862549,20.2864332],[-99.1867149,20.2889304],[-99.1873601,20.2902669],[-99.1875118,20.2905166],[-99.1884375,20.290533],[-99.1885654,20.2907074],[-99.1895361,20.2911293],[-99.1896651,20.2911854],[-99.1902713,20.291442],[-99.1903625,20.2915904],[-99.1904027,20.2917501],[-99.1910652,20.2946067],[-99.1918752,20.2981488],[-99.1920952,20.2988934],[-99.192021,20.2989073],[-99.1917452,20.2989588],[-99.1910196,20.2990947],[-99.189987,20.2992959],[-99.1889865,20.2994871],[-99.1879337,20.2996934],[-99.1870091,20.299835],[-99.1868166,20.2998645],[-99.1858304,20.3000322],[-99.1847789,20.3002335],[-99.1845751,20.2992474],[-99.1831696,20.2996096],[-99.1827941,20.2981807],[-99.1819036,20.2985832],[-99.1803265,20.2990461],[-99.1802085,20.2981807],[-99.1801441,20.2975166],[-99.1799832,20.2963192],[-99.179039,20.2963594],[-99.1789639,20.2944173],[-99.1796867,20.2943575]]]},"properties":{"locality":"XOCHITLÁN","official_key":"1305000030001","CVE_ENT":"13","CVE_MUN":"050","CVE_LOC":"0003","CVE_ASEN":"0001","settlement_type":"COLONIA","source":"INEGI DCAH 2025"}}]}