{"type":"FeatureCollection","name":"inegi-hidalgo-065","metadata":{"state":"Hidalgo","CVE_ENT":"13","CVE_MUN":"065","municipality":"Tetepango","sources":["INEGI Gaia — Servicio vectorial del Marco Geoestadístico","INEGI DCAH 2025"],"source_urls":["https://gaia.inegi.org.mx/wscatgeo/v2/geo/mgem/13","https://gaia.inegi.org.mx/wscatgeo/v2/geo/localidades/pol/13/065","https://www.inegi.org.mx/contenidos/productos/prod_serv/contenidos/espanol/bvinegi/productos/geografia/delimitaciones/794551163078/13_hidalgo.zip"],"geometry_policy":"Solo se publican polígonos de INEGI; no se generan puntos ni geometrías sintéticas.","locality_polygon_count":4,"settlement_polygon_count":10},"municipality":{"type":"Feature","geometry":{"type":"MultiPolygon","crs":{"type":"name","properties":{"name":"EPSG:6365"}},"coordinates":[[[[-99.185395556,20.155145292],[-99.18539518,20.15512286],[-99.185379611,20.155091971],[-99.18536313,20.155059273],[-99.18536211,20.15505725],[-99.18528514,20.155047252],[-99.18525788,20.155043711],[-99.18507005,20.15501934],[-99.183525706,20.153757785],[-99.183470539,20.153712721],[-99.183470422,20.153712625],[-99.183470305,20.153712529],[-99.183422454,20.153673441],[-99.183422427,20.153673418],[-99.18166723,20.15223962],[-99.180169417,20.151073324],[-99.17981937,20.15080075],[-99.179644227,20.150856778],[-99.17957242,20.15087975],[-99.1785122,20.15116734],[-99.17767875,20.15130234],[-99.17663071,20.15126211],[-99.17535611,20.1510872],[-99.175151249,20.151062921],[-99.172969919,20.150770831],[-99.170643319,20.150446571],[-99.168643999,20.150197001],[-99.167327599,20.150000601],[-99.164085169,20.149556751],[-99.162752369,20.149378001],[-99.161768312,20.149250692],[-99.161378203,20.149200221],[-99.159634549,20.148974621],[-99.159430381,20.148944878],[-99.159254259,20.148919221],[-99.159239879,20.1489172],[-99.157348399,20.148651521],[-99.152006149,20.147942061],[-99.146764539,20.147220861],[-99.140866659,20.146401981],[-99.136471539,20.145833001],[-99.131977799,20.145210521],[-99.127781689,20.144628821],[-99.127620319,20.144583421],[-99.127606889,20.144539741],[-99.127574399,20.144436141],[-99.126344119,20.144366681],[-99.125140749,20.144258291],[-99.122666379,20.143927431],[-99.120422119,20.143614051],[-99.117540889,20.143250541],[-99.113997199,20.142739281],[-99.110366489,20.142246981],[-99.108127149,20.141935921],[-99.104644949,20.141481351],[-99.103982199,20.141363751],[-99.104506079,20.139936291],[-99.1046842,20.139745721],[-99.104453049,20.139680291],[-99.104613719,20.139275251],[-99.104159449,20.139140571],[-99.105211139,20.138330421],[-99.111980719,20.13381485],[-99.114961399,20.131808721],[-99.118086259,20.129636201],[-99.120261429,20.127917741],[-99.121868649,20.126684311],[-99.125697429,20.123573491],[-99.125556479,20.122341681],[-99.125556376,20.122340776],[-99.125128549,20.118567251],[-99.128327179,20.109751771],[-99.128656979,20.108846741],[-99.128842769,20.108402681],[-99.129137829,20.107590001],[-99.129137957,20.107589642],[-99.129631919,20.106216861],[-99.129993479,20.105202081],[-99.130355019,20.104187291],[-99.130872919,20.102759911],[-99.131327429,20.10146978],[-99.131649319,20.100537631],[-99.131971229,20.099605481],[-99.132293119,20.098673341],[-99.132617939,20.097813221],[-99.132698509,20.097599881],[-99.132838992,20.097227854],[-99.132942739,20.096953111],[-99.133198231,20.096276572],[-99.133198415,20.096276084],[-99.133198628,20.096275521],[-99.133213879,20.09623514],[-99.133261689,20.09610852],[-99.133267549,20.096092981],[-99.13334989,20.096039721],[-99.133652769,20.095230371],[-99.13388886,20.094583278],[-99.13396172,20.09438358],[-99.13400671,20.09426028],[-99.134018459,20.094148251],[-99.134027659,20.094060451],[-99.134034289,20.093997311],[-99.134034451,20.093996427],[-99.134199149,20.093100721],[-99.134223659,20.092967431],[-99.134241112,20.092872522],[-99.13424127,20.092871661],[-99.134330289,20.092387581],[-99.134330396,20.092386995],[-99.134364019,20.092204141],[-99.134413049,20.091937571],[-99.134442659,20.091776451],[-99.134442767,20.091775863],[-99.134452805,20.09172128],[-99.134528889,20.091307551],[-99.134550043,20.091192517],[-99.134573083,20.091067224],[-99.134578169,20.091039571],[-99.134602419,20.090907711],[-99.134667141,20.090555693],[-99.134693749,20.090410971],[-99.134791779,20.089877851],[-99.134827389,20.089684194],[-99.134980697,20.08885043],[-99.134980931,20.088849154],[-99.134981149,20.088847971],[-99.134981579,20.088848567],[-99.135087229,20.088995031],[-99.136313769,20.081835601],[-99.136247219,20.080563661],[-99.140235199,20.070490481],[-99.136224519,20.065217421],[-99.138615779,20.064560421],[-99.139559119,20.064356371],[-99.140040819,20.064270141],[-99.140993429,20.06409543],[-99.142243089,20.063875291],[-99.143378649,20.063725281],[-99.144813019,20.063536621],[-99.145762749,20.063492911],[-99.146824949,20.063519141],[-99.148141049,20.063418651],[-99.149086079,20.063444951],[-99.150508819,20.063601891],[-99.151126479,20.063760951],[-99.151243909,20.063791031],[-99.152260779,20.064567291],[-99.152875979,20.065020851],[-99.153726679,20.065767881],[-99.153927059,20.066215],[-99.154313769,20.067122821],[-99.154378279,20.068602481],[-99.154529649,20.069359141],[-99.154764709,20.069806571],[-99.156678489,20.07143209],[-99.158449539,20.072837291],[-99.159897459,20.073784571],[-99.160150679,20.073790201],[-99.160354569,20.073927401],[-99.160558519,20.074092091],[-99.160704179,20.074215601],[-99.160806249,20.074380381],[-99.160966569,20.074600061],[-99.161100089,20.074724421],[-99.161252519,20.074733821],[-99.162125119,20.075031821],[-99.162500339,20.075150031],[-99.163322629,20.075419511],[-99.163380849,20.075432081],[-99.163485799,20.075561481],[-99.163626649,20.075744031],[-99.163768569,20.075924171],[-99.163904739,20.076106381],[-99.164043019,20.076287221],[-99.164179059,20.076469221],[-99.164317289,20.076650941],[-99.164452019,20.076835851],[-99.164731709,20.077199521],[-99.164868029,20.07738246],[-99.165007259,20.077562651],[-99.165144379,20.077748711],[-99.165277879,20.077932081],[-99.165418489,20.078115541],[-99.165554569,20.078298971],[-99.165695689,20.078482851],[-99.165830219,20.07866725],[-99.165971579,20.078845851],[-99.166102889,20.079030781],[-99.166252119,20.079211921],[-99.166532709,20.079576571],[-99.166668829,20.079759521],[-99.166817049,20.079939581],[-99.166953309,20.080123261],[-99.167098819,20.080303021],[-99.167233279,20.080487581],[-99.167379719,20.080668721],[-99.167521219,20.080848511],[-99.167687779,20.081041951],[-99.167991569,20.081170551],[-99.168079859,20.081288141],[-99.168232979,20.081495881],[-99.168309089,20.081605951],[-99.168409599,20.081725251],[-99.168512769,20.081888181],[-99.168654909,20.082069801],[-99.168792369,20.082220321],[-99.168909349,20.082389431],[-99.169073309,20.082579551],[-99.169747709,20.083501031],[-99.170080259,20.08396986],[-99.170273569,20.084244181],[-99.170571569,20.084599141],[-99.170856519,20.084996551],[-99.171067339,20.08531337],[-99.171345719,20.085733031],[-99.171556179,20.085997401],[-99.171922029,20.086496951],[-99.172371229,20.08706358],[-99.172595879,20.087354891],[-99.172806049,20.087663801],[-99.17308246,20.08796432],[-99.17302098,20.08800251],[-99.17273949,20.08843209],[-99.17253377,20.08873738],[-99.17245714,20.08881249],[-99.17169457,20.08993323],[-99.17170725,20.09004463],[-99.17177366,20.09019255],[-99.17178691,20.09022437],[-99.17170937,20.09045402],[-99.17156723,20.09076168],[-99.17124971,20.09119368],[-99.17093737,20.09172328],[-99.17076562,20.09248455],[-99.17061025,20.09321178],[-99.17035977,20.09426649],[-99.16998294,20.09483122],[-99.16963762,20.09550122],[-99.17078703,20.09519818],[-99.17208838,20.09509209],[-99.17278683,20.09505018],[-99.17345446,20.09505017],[-99.17397549,20.09509438],[-99.17444374,20.09516162],[-99.17516268,20.09524262],[-99.17556082,20.09534032],[-99.17624945,20.09552786],[-99.17704575,20.09590191],[-99.17742492,20.09605662],[-99.1776776,20.09606829],[-99.17793583,20.09617111],[-99.17834969,20.09630109],[-99.17839858,20.09640229],[-99.17849182,20.09647975],[-99.17871892,20.09659429],[-99.17912446,20.09677751],[-99.17969217,20.09700646],[-99.17974906,20.09714412],[-99.17988715,20.0973888],[-99.18011298,20.09753117],[-99.18044406,20.09767362],[-99.18073728,20.09776255],[-99.18109665,20.09783357],[-99.18141826,20.09795817],[-99.18173989,20.09810062],[-99.18197646,20.09827885],[-99.18256731,20.09873375],[-99.18282302,20.09909937],[-99.18340069,20.09988405],[-99.18373217,20.10036557],[-99.18399029,20.10072122],[-99.18424595,20.10103328],[-99.18455826,20.10128282],[-99.18614123,20.10259708],[-99.18663349,20.10308735],[-99.18683257,20.10352442],[-99.18699391,20.10403289],[-99.18710162,20.10440051],[-99.18722477,20.10459669],[-99.18749511,20.104814],[-99.18783995,20.10509577],[-99.18814283,20.10534531],[-99.18839831,20.10549674],[-99.18877065,20.10565457],[-99.18908926,20.1058878],[-99.18967203,20.10643654],[-99.18985,20.10665135],[-99.19005957,20.10695155],[-99.19025958,20.10752298],[-99.19050283,20.10842612],[-99.1899288,20.10867528],[-99.18884711,20.10914634],[-99.18803726,20.10946902],[-99.18784808,20.10955752],[-99.18770262,20.10961203],[-99.18744278,20.10974898],[-99.18705848,20.1099064],[-99.18650548,20.11014777],[-99.18589369,20.11040968],[-99.18533814,20.110646],[-99.18495809,20.11081749],[-99.18472071,20.11090312],[-99.18450597,20.11101008],[-99.18421677,20.11113026],[-99.18397375,20.1112538],[-99.18375258,20.11133735],[-99.18348183,20.11146266],[-99.18330782,20.11152362],[-99.18292302,20.11169566],[-99.18246243,20.11188337],[-99.18163032,20.11225628],[-99.18091995,20.11255078],[-99.18054018,20.11272438],[-99.18027234,20.11283251],[-99.17994388,20.11297954],[-99.179792,20.11302562],[-99.17961311,20.11309608],[-99.17957148,20.11312555],[-99.17874028,20.11347808],[-99.17897495,20.11354018],[-99.17850666,20.11406985],[-99.17796663,20.11473425],[-99.17717831,20.11467603],[-99.17662346,20.11494489],[-99.17624254,20.11502668],[-99.17589772,20.11516652],[-99.17512778,20.11560789],[-99.17486017,20.11711068],[-99.1738696,20.11755878],[-99.17342122,20.11798052],[-99.17294668,20.11874032],[-99.17242623,20.11880295],[-99.17194955,20.11912494],[-99.17113217,20.11947938],[-99.17062634,20.11984663],[-99.17030285,20.12039798],[-99.17008888,20.12076711],[-99.16988892,20.12116934],[-99.16969895,20.1215294],[-99.16954051,20.12195489],[-99.16942338,20.12237365],[-99.16924582,20.12268222],[-99.16910248,20.12295231],[-99.16896222,20.12312725],[-99.16876117,20.12331982],[-99.16822055,20.12385371],[-99.16731006,20.12521643],[-99.16665998,20.12642371],[-99.16659795,20.12682855],[-99.16619005,20.13024572],[-99.166132528,20.130589996],[-99.166070489,20.131225651],[-99.16605635,20.1312934],[-99.16643046,20.13149175],[-99.16925383,20.13308983],[-99.17004334,20.133598861],[-99.170294449,20.133696631],[-99.170978419,20.13385931],[-99.171298659,20.133859],[-99.171783289,20.13379318],[-99.17210698,20.13348935],[-99.17236635,20.133227751],[-99.172677879,20.133153941],[-99.17296358,20.133235341],[-99.173067539,20.13330874],[-99.173111,20.1334802],[-99.1731112,20.13366805],[-99.173059459,20.13383145],[-99.173111599,20.134019251],[-99.173258909,20.13417428],[-99.173718019,20.13450868],[-99.174021109,20.13463088],[-99.174350139,20.13475306],[-99.17439563,20.13474998],[-99.17465862,20.13493183],[-99.174542349,20.13500268],[-99.175076769,20.1353166],[-99.17512191,20.135347521],[-99.17591863,20.13580388],[-99.17672175,20.136278061],[-99.177545479,20.13694383],[-99.17756065,20.136949711],[-99.17826448,20.13762488],[-99.178302379,20.1376298],[-99.179301109,20.137869341],[-99.179462089,20.137890581],[-99.17974554,20.13829871],[-99.180156489,20.138451521],[-99.18106854,20.138830541],[-99.18190945,20.139286311],[-99.18277794,20.140142831],[-99.183783859,20.14077874],[-99.18405257,20.1410078],[-99.18410008,20.141312421],[-99.184089399,20.14158508],[-99.184382619,20.14187377],[-99.184593859,20.141890511],[-99.18438283,20.14224003],[-99.184261619,20.14234618],[-99.18402848,20.142821381],[-99.184747799,20.142599751],[-99.184900849,20.14318458],[-99.185344229,20.143851261],[-99.18571594,20.14409832],[-99.186425309,20.1446032],[-99.18749697,20.14520583],[-99.18847102,20.14560245],[-99.18954131,20.14585805],[-99.19016722,20.14615505],[-99.19083845,20.14643031],[-99.19182209,20.147016891],[-99.19181963,20.14705955],[-99.193136549,20.147633781],[-99.193067919,20.14772768],[-99.192944849,20.147842911],[-99.19253518,20.14819466],[-99.19248178,20.14825269],[-99.191550599,20.14904482],[-99.19132377,20.14921628],[-99.19126791,20.149260509],[-99.189830674,20.150398464],[-99.18964743,20.15054355],[-99.189430779,20.15100835],[-99.189266151,20.151168239],[-99.1891389,20.151291822],[-99.189059018,20.151369402],[-99.18896109,20.151464511],[-99.189038045,20.151493606],[-99.189068756,20.151505217],[-99.189093056,20.151514405],[-99.189323293,20.151601457],[-99.189328818,20.151603545],[-99.190194429,20.15193082],[-99.19122388,20.15192971],[-99.191208289,20.15204006],[-99.19090309,20.15232868],[-99.190687859,20.152701981],[-99.19036517,20.153380621],[-99.19004268,20.1542458],[-99.18982677,20.15449248],[-99.18973246,20.15474549],[-99.18968542,20.15496872],[-99.18960688,20.15522174],[-99.187214923,20.155207586],[-99.186869154,20.155205537],[-99.185717118,20.155198704],[-99.185537034,20.155197635],[-99.185482453,20.155197311],[-99.18539642,20.1551968],[-99.185395556,20.155145292]]]]},"properties":{"municipality":"Tetepango","official_key":"13065","CVE_ENT":"13","CVE_MUN":"065","geometry_kind":"municipality","source":"INEGI Gaia — Servicio vectorial del Marco Geoestadístico"}},"features":[{"type":"Feature","geometry":{"type":"MultiPolygon","crs":{"type":"name","properties":{"name":"EPSG:6365"}},"coordinates":[[[[-99.160814442,20.126897216],[-99.160675461,20.126785649],[-99.160315024,20.127030947],[-99.15938375,20.12595382],[-99.15868723,20.125273541],[-99.15799069,20.12459326],[-99.157840542,20.124450777],[-99.15726222,20.12390198],[-99.156533749,20.123210711],[-99.156289678,20.1229616],[-99.156084706,20.123157933],[-99.155683735,20.123485003],[-99.155450515,20.12341639],[-99.154740956,20.123207639],[-99.15500305,20.122457551],[-99.155130379,20.122040091],[-99.155108272,20.12202181],[-99.154661969,20.12165275],[-99.15402048,20.121156291],[-99.153436429,20.12067788],[-99.15257468,20.119946661],[-99.15172248,20.119188321],[-99.151406459,20.118854251],[-99.151202735,20.118640011],[-99.15115746,20.118592401],[-99.15097554,20.11842086],[-99.15083165,20.11802338],[-99.1507356,20.11762586],[-99.15057229,20.11693018],[-99.15047623,20.11652362],[-99.15042818,20.11628871],[-99.15041855,20.11622546],[-99.15026545,20.11618945],[-99.14987309,20.11606326],[-99.14910752,20.11582897],[-99.14900226,20.11580194],[-99.14931715,20.11493417],[-99.14963203,20.11406638],[-99.14994689,20.11319862],[-99.15084646,20.11350509],[-99.15082722,20.113396661],[-99.150821603,20.113362122],[-99.15063474,20.11221305],[-99.150634379,20.111833521],[-99.15087289,20.11115557],[-99.15105426,20.110748771],[-99.150690539,20.110550281],[-99.150568649,20.11048237],[-99.150059124,20.110329544],[-99.14982737,20.110260031],[-99.14955186,20.110244],[-99.14834615,20.10989258],[-99.14709265,20.10955025],[-99.146939569,20.109532311],[-99.14673842,20.10925235],[-99.146135059,20.108538951],[-99.14534974,20.10756365],[-99.1447416,20.1068322],[-99.14413348,20.10610072],[-99.14398025,20.10591108],[-99.14316638,20.10508942],[-99.14228557,20.10427685],[-99.14209568,20.10411055],[-99.1421992,20.10405328],[-99.14245188,20.10393712],[-99.142602969,20.103867661],[-99.14317768,20.10360203],[-99.14469294,20.10280357],[-99.14518335,20.10253743],[-99.14509071,20.10251414],[-99.14226772,20.10232034],[-99.14180551,20.10228549],[-99.14023422,20.102123],[-99.13827849,20.10201589],[-99.1379576,20.10198868],[-99.13631931,20.10185268],[-99.13603494,20.10183522],[-99.13440646,20.10168315],[-99.1341816,20.10166455],[-99.13245768,20.1015462],[-99.13231212,20.10154029],[-99.13225669,20.10153632],[-99.131327429,20.10146978],[-99.131649318,20.100537631],[-99.131971229,20.099605481],[-99.132293119,20.098673342],[-99.132617939,20.097813221],[-99.132698508,20.097599882],[-99.132838991,20.097227854],[-99.132942738,20.096953111],[-99.13319823,20.096276573],[-99.133198415,20.096276085],[-99.133198627,20.096275521],[-99.133213879,20.09623514],[-99.133261689,20.09610852],[-99.133267549,20.096092981],[-99.13334989,20.096039721],[-99.133652769,20.095230371],[-99.13388886,20.094583278],[-99.13396172,20.09438358],[-99.13400671,20.09426028],[-99.134018459,20.094148251],[-99.134027658,20.094060452],[-99.134034289,20.093997311],[-99.134034451,20.093996427],[-99.134199148,20.093100722],[-99.134223659,20.092967431],[-99.134241111,20.092872523],[-99.134241269,20.092871661],[-99.134330289,20.092387581],[-99.134330395,20.092386995],[-99.134364019,20.092204141],[-99.134413049,20.091937571],[-99.134442659,20.091776451],[-99.134442767,20.091775864],[-99.134452804,20.09172128],[-99.134528889,20.091307551],[-99.134550043,20.091192518],[-99.134573083,20.091067224],[-99.134578169,20.091039571],[-99.134602419,20.090907711],[-99.134667141,20.090555693],[-99.134693749,20.090410971],[-99.13632371,20.09068151],[-99.13785434,20.09088817],[-99.13806478,20.09091511],[-99.138409,20.09076122],[-99.13869583,20.09061642],[-99.1388392,20.09048978],[-99.1391928,20.09013708],[-99.13994783,20.08943163],[-99.14007211,20.08936828],[-99.14112398,20.08903309],[-99.14227146,20.08866166],[-99.14260617,20.08858006],[-99.14340952,20.08845291],[-99.14362951,20.08845272],[-99.14449992,20.08843394],[-99.14470069,20.08833437],[-99.1450926,20.08805392],[-99.1452142,20.08816222],[-99.14526492,20.0882074],[-99.14538942,20.08836995],[-99.14549483,20.08859578],[-99.14555257,20.08897528],[-99.14560063,20.08921922],[-99.14571566,20.08949926],[-99.14577322,20.08966186],[-99.14584995,20.0899058],[-99.14589791,20.09004131],[-99.1459554,20.09014969],[-99.14615649,20.09039351],[-99.14642452,20.0906192],[-99.14657769,20.09074558],[-99.14660649,20.090854],[-99.14653023,20.09114325],[-99.14649217,20.09136918],[-99.14641597,20.0917036],[-99.14642575,20.09192951],[-99.14645465,20.09213732],[-99.146473909,20.09229995],[-99.146531309,20.09229992],[-99.146559939,20.0922276],[-99.146655399,20.092019681],[-99.146722229,20.09189312],[-99.146922787,20.09154955],[-99.14713632,20.09116365],[-99.147235799,20.09098385],[-99.14732388,20.0908534],[-99.147448049,20.090663541],[-99.147677509,20.09053683],[-99.14784963,20.090500551],[-99.14803138,20.090518461],[-99.148142089,20.090525659],[-99.148375441,20.090528178],[-99.148901399,20.09007494],[-99.148958742,20.090020681],[-99.14885329,20.089776771],[-99.14889137,20.08957794],[-99.14888163,20.089397221],[-99.14877615,20.08913525],[-99.148622679,20.088656431],[-99.148488519,20.088394491],[-99.14823931,20.087834431],[-99.14819134,20.087689881],[-99.148219879,20.087527201],[-99.148382289,20.08732826],[-99.148544819,20.08722872],[-99.148716949,20.08720146],[-99.148783849,20.087138151],[-99.14874551,20.08704782],[-99.14931909,20.086712981],[-99.14947209,20.08666768],[-99.149854629,20.086604081],[-99.15108832,20.08641328],[-99.1512892,20.086422121],[-99.15162414,20.086593541],[-99.151949489,20.08675592],[-99.152313109,20.086909231],[-99.15317391,20.08685426],[-99.15379565,20.08685372],[-99.15458958,20.08691629],[-99.15615838,20.08705046],[-99.157373179,20.0871036],[-99.15766974,20.087139481],[-99.15872212,20.08737349],[-99.158856059,20.087400481],[-99.159908369,20.08755315],[-99.16077877,20.087534281],[-99.160784079,20.08761949],[-99.16081765,20.08809754],[-99.16082774,20.08866382],[-99.15970906,20.089098581],[-99.15794015,20.08973274],[-99.158159479,20.08906383],[-99.158102079,20.08905485],[-99.15807895,20.089069451],[-99.158016049,20.089109141],[-99.157184309,20.08942566],[-99.156897349,20.089534861],[-99.155778658,20.089960571],[-99.156018259,20.090448341],[-99.155999369,20.09068329],[-99.156114419,20.090954291],[-99.15650735,20.091713021],[-99.156689455,20.092074317],[-99.1570436,20.09286685],[-99.157226309,20.093275711],[-99.157444431,20.093692056],[-99.157446615,20.093690989],[-99.157567186,20.093632096],[-99.158104133,20.09336981],[-99.15874689,20.092976141],[-99.158794879,20.09312068],[-99.158814079,20.09319295],[-99.15882372,20.09328331],[-99.158852479,20.093337511],[-99.15890988,20.093346491],[-99.158995979,20.09336449],[-99.159034289,20.093409631],[-99.15909175,20.093481881],[-99.159139649,20.09353605],[-99.159244909,20.09358114],[-99.15929272,20.09356303],[-99.15931183,20.09354494],[-99.15935008,20.093526831],[-99.159378749,20.09350872],[-99.159834079,20.09447071],[-99.160289419,20.09543269],[-99.15866398,20.09612092],[-99.158913289,20.09672617],[-99.15949829,20.098216661],[-99.159632569,20.098568971],[-99.15968049,20.098650261],[-99.161248755,20.098160858],[-99.162291049,20.097807481],[-99.16333334,20.09745409],[-99.164586049,20.09708243],[-99.165218979,20.098609021],[-99.16533366,20.098500461],[-99.16619402,20.09797554],[-99.16709243,20.09747648],[-99.16724915,20.09739288],[-99.16730452,20.09736334],[-99.16768545,20.09872703],[-99.16731625,20.09898486],[-99.16781322,20.10096086],[-99.166752799,20.101734226],[-99.16690637,20.10222205],[-99.16646842,20.10248348],[-99.16596631,20.1027832],[-99.16502625,20.10334435],[-99.16408618,20.10390549],[-99.16402882,20.10393266],[-99.16423688,20.10396945],[-99.16428705,20.10417811],[-99.16426728,20.1044872],[-99.16421086,20.1049258],[-99.16386791,20.10497865],[-99.16336111,20.10449851],[-99.16329454,20.10433582],[-99.162870756,20.104487447],[-99.161908238,20.105044801],[-99.16189522,20.10505234],[-99.161882511,20.105036234],[-99.161398659,20.104423061],[-99.160624399,20.105002114],[-99.16069146,20.10510145],[-99.160854309,20.105318171],[-99.160950806,20.105590736],[-99.16100782,20.10575178],[-99.16117089,20.10619443],[-99.16123794,20.10627569],[-99.161132716,20.10628483],[-99.16031375,20.10681572],[-99.1594948,20.1073466],[-99.15867582,20.10787749],[-99.15757711,20.10928817],[-99.155822272,20.110576495],[-99.155944982,20.111068912],[-99.156201128,20.110975751],[-99.156332548,20.111378801],[-99.156638292,20.111377076],[-99.15669794,20.111656723],[-99.15668135,20.111794038],[-99.156662493,20.111950132],[-99.156743156,20.112055859],[-99.157070581,20.11237819],[-99.157226845,20.112476138],[-99.1572363,20.112485432],[-99.157427429,20.112673319],[-99.157664998,20.112797694],[-99.158077902,20.113456322],[-99.158846799,20.114799324],[-99.158440024,20.114999165],[-99.158565631,20.115265427],[-99.158377485,20.115653854],[-99.158493449,20.115908524],[-99.158078336,20.116092673],[-99.157816736,20.116178889],[-99.157693933,20.11691048],[-99.158118332,20.116780716],[-99.158135288,20.116817291],[-99.158332468,20.117242629],[-99.158359978,20.117265011],[-99.158521321,20.117396283],[-99.158651563,20.117656973],[-99.15788336,20.117987446],[-99.158185905,20.119255804],[-99.15771169,20.119400188],[-99.157769321,20.119716183],[-99.157783751,20.11976931],[-99.157902357,20.120141863],[-99.158042421,20.120509377],[-99.158230956,20.120443562],[-99.158807395,20.121008491],[-99.159529332,20.121685444],[-99.16018102,20.122357824],[-99.160323802,20.122274863],[-99.160946342,20.122909814],[-99.161568782,20.123595761],[-99.162142429,20.124252078],[-99.162725313,20.124848318],[-99.163170224,20.125306192],[-99.163689974,20.125810175],[-99.163978146,20.126124361],[-99.163239382,20.126433471],[-99.163039991,20.126516899],[-99.162079921,20.126929341],[-99.161221643,20.127300919],[-99.160814442,20.126897216]]]]},"properties":{"locality":"Tetepango","municipality":null,"official_key":"130650001","CVE_ENT":"13","CVE_MUN":"065","CVE_LOC":"0001","ambito":"URBANO","geometry_kind":"locality","source":"INEGI Gaia — Servicio vectorial del Marco Geoestadístico"}},{"type":"Feature","geometry":{"type":"MultiPolygon","crs":{"type":"name","properties":{"name":"EPSG:6365"}},"coordinates":[[[[-99.18519518,20.155048881],[-99.185065119,20.155020831],[-99.18491726,20.15491946],[-99.18437992,20.154471571],[-99.183969119,20.154125001],[-99.183525705,20.153757786],[-99.183470539,20.153712721],[-99.183470422,20.153712625],[-99.183470305,20.15371253],[-99.183422454,20.153673442],[-99.183422426,20.153673418],[-99.183121979,20.153417721],[-99.182762819,20.153115911],[-99.182604739,20.15298308],[-99.182533739,20.152926401],[-99.182062849,20.15255058],[-99.18153858,20.15212278],[-99.181034739,20.151709321],[-99.180937,20.151631631],[-99.18065651,20.151408681],[-99.180091149,20.150970891],[-99.17987243,20.15078766],[-99.179681659,20.15062783],[-99.1791782,20.15024228],[-99.178713079,20.149895921],[-99.17854789,20.149765711],[-99.178446769,20.149686001],[-99.180135165,20.148321711],[-99.179594629,20.148166651],[-99.179653449,20.14809726],[-99.17974572,20.14798843],[-99.180797599,20.147254371],[-99.181605014,20.146710138],[-99.181346491,20.147058552],[-99.181483662,20.147199422],[-99.18125007,20.147414047],[-99.181123766,20.147724359],[-99.181354615,20.147756475],[-99.181706149,20.147759745],[-99.1818236,20.14778303],[-99.182027649,20.147796281],[-99.182256179,20.147849341],[-99.182658479,20.14799078],[-99.18279245,20.14804698],[-99.183082909,20.148176651],[-99.18330617,20.1483148],[-99.18337123,20.148364141],[-99.183445169,20.14840425],[-99.183480289,20.14845622],[-99.18370645,20.148640151],[-99.18419335,20.149018091],[-99.18434325,20.14913374],[-99.18442295,20.14920343],[-99.184497979,20.149264381],[-99.18465309,20.14935232],[-99.184666849,20.14934342],[-99.18491772,20.149252421],[-99.185143739,20.14928006],[-99.18536522,20.14934983],[-99.185641709,20.14944029],[-99.18591317,20.149517],[-99.186156229,20.14961831],[-99.186332569,20.14968134],[-99.1864032,20.149693061],[-99.1864932,20.149672141],[-99.186624019,20.14962394],[-99.18669874,20.14964771],[-99.18681075,20.14968788],[-99.18712334,20.149923691],[-99.18767943,20.15039528],[-99.18820646,20.15083075],[-99.18829108,20.150889051],[-99.188140479,20.150963431],[-99.1885348,20.151224311],[-99.1890296,20.151521581],[-99.1889792,20.15156023],[-99.18869443,20.151806551],[-99.18861846,20.15183289],[-99.18851934,20.15180468],[-99.188343479,20.15165188],[-99.188227849,20.15163075],[-99.187797539,20.152014661],[-99.18742858,20.1523536],[-99.18724371,20.15259598],[-99.187261803,20.152722698],[-99.186940645,20.153562313],[-99.186556679,20.154071974],[-99.186265908,20.153902983],[-99.185500387,20.154917437],[-99.185366572,20.155047043],[-99.18525788,20.155043711],[-99.18519518,20.155048881]]]]},"properties":{"locality":"Juandhó","municipality":null,"official_key":"130650002","CVE_ENT":"13","CVE_MUN":"065","CVE_LOC":"0002","ambito":"RURAL","geometry_kind":"locality","source":"INEGI Gaia — Servicio vectorial del Marco Geoestadístico"}},{"type":"Feature","geometry":{"type":"MultiPolygon","crs":{"type":"name","properties":{"name":"EPSG:6365"}},"coordinates":[[[[-99.174382277,20.141614782],[-99.173491784,20.141486355],[-99.173540065,20.140539517],[-99.174653181,20.140907172],[-99.174382277,20.141614782]]],[[[-99.164445629,20.143547431],[-99.164656,20.14350971],[-99.16474343,20.143527691],[-99.164998719,20.143691371],[-99.1655078,20.14349935],[-99.165666709,20.14341206],[-99.16519545,20.142923031],[-99.1651744,20.142901181],[-99.164797799,20.14248212],[-99.16474897,20.142432801],[-99.165133799,20.14233297],[-99.16519455,20.142105971],[-99.16524243,20.142003681],[-99.165274679,20.141964511],[-99.16550985,20.141758201],[-99.16591929,20.141514091],[-99.166597429,20.141178251],[-99.167206597,20.141085684],[-99.167005988,20.141563795],[-99.167030193,20.141794769],[-99.167121374,20.142039272],[-99.167427488,20.141927723],[-99.16774032,20.142054538],[-99.167915923,20.142057431],[-99.168473234,20.142205926],[-99.168600899,20.142419627],[-99.169290832,20.142633536],[-99.169315578,20.14278701],[-99.169880053,20.142973087],[-99.170021951,20.142942337],[-99.170721746,20.143314491],[-99.171421542,20.143565774],[-99.171538519,20.14348306],[-99.172394743,20.143519088],[-99.172776815,20.143268818],[-99.172940145,20.142969732],[-99.173738875,20.143137076],[-99.17482135,20.143471765],[-99.17561301,20.143778527],[-99.176162822,20.144251294],[-99.176154737,20.144442029],[-99.176331684,20.144682484],[-99.176423193,20.144629086],[-99.17685514,20.144841787],[-99.178067403,20.145979094],[-99.177968831,20.146300482],[-99.178149207,20.146420421],[-99.17825247,20.146297695],[-99.179239521,20.146881892],[-99.179647218,20.147304932],[-99.17974572,20.14798843],[-99.179653449,20.14809726],[-99.179594629,20.148166651],[-99.179043649,20.148559381],[-99.178684249,20.148775861],[-99.17796314,20.149392051],[-99.17701945,20.15002583],[-99.176653149,20.15028337],[-99.17608388,20.15060297],[-99.17578257,20.150812581],[-99.175743419,20.15096434],[-99.17545362,20.15091351],[-99.174345889,20.150781551],[-99.172567969,20.150565171],[-99.171198119,20.15038828],[-99.16994309,20.150215111],[-99.16922295,20.150111381],[-99.168465859,20.15001317],[-99.1672948,20.14985734],[-99.16606654,20.14968817],[-99.164910979,20.14952902],[-99.163725819,20.14939295],[-99.162685769,20.14934675],[-99.16272888,20.149183431],[-99.162864509,20.14869757],[-99.163033659,20.148190741],[-99.163051909,20.14809872],[-99.163322369,20.147345231],[-99.163430999,20.14708569],[-99.16349358,20.146860891],[-99.163649309,20.14647885],[-99.163686849,20.14641822],[-99.16387289,20.14580549],[-99.163996289,20.145411001],[-99.16409134,20.14517489],[-99.164140339,20.145004541],[-99.164257849,20.144685081],[-99.164278779,20.14462532],[-99.164490029,20.144022231],[-99.16444095,20.14394051],[-99.16442089,20.14385075],[-99.16439345,20.143721921],[-99.164445629,20.143547431]]]]},"properties":{"locality":"Ulapa de Melchor Ocampo","municipality":null,"official_key":"130650003","CVE_ENT":"13","CVE_MUN":"065","CVE_LOC":"0003","ambito":"RURAL","geometry_kind":"locality","source":"INEGI Gaia — Servicio vectorial del Marco Geoestadístico"}},{"type":"Feature","geometry":{"type":"MultiPolygon","crs":{"type":"name","properties":{"name":"EPSG:6365"}},"coordinates":[[[[-99.160859808,20.127791401],[-99.160315024,20.127030947],[-99.160675461,20.126785649],[-99.160814442,20.126897216],[-99.161221643,20.127300919],[-99.162079921,20.126929341],[-99.163039991,20.126516899],[-99.163239382,20.126433471],[-99.16438553,20.12762533],[-99.163983199,20.127947686],[-99.164023647,20.12799574],[-99.1640785,20.128060906],[-99.164508912,20.128572247],[-99.163714978,20.129418423],[-99.164680572,20.13017897],[-99.164321156,20.13056176],[-99.162958596,20.129750847],[-99.162298771,20.129342872],[-99.161399586,20.128575417],[-99.161254878,20.12838326],[-99.160859808,20.127791401]]],[[[-99.165474675,20.130737223],[-99.165614149,20.130142891],[-99.16611304,20.130339324],[-99.166000388,20.131104903],[-99.165474675,20.130737223]]]]},"properties":{"locality":"La Hormiga","municipality":null,"official_key":"130650015","CVE_ENT":"13","CVE_MUN":"065","CVE_LOC":"0015","ambito":"RURAL","geometry_kind":"locality","source":"INEGI Gaia — Servicio vectorial del Marco Geoestadístico"}},{"type":"Feature","geometry":{"type":"Polygon","coordinates":[[[-99.1576398,20.1046626],[-99.1574542,20.1042919],[-99.1573297,20.1040524],[-99.1573668,20.1040218],[-99.1576389,20.103868],[-99.157316,20.1033278],[-99.1571421,20.1034055],[-99.1568703,20.103095],[-99.1566245,20.1027811],[-99.156608,20.1027053],[-99.1581085,20.1019752],[-99.1585043,20.1017978],[-99.1593705,20.101448],[-99.1596157,20.1013503],[-99.160244,20.1010973],[-99.1606777,20.1009239],[-99.1615717,20.1005632],[-99.1624545,20.1001679],[-99.1625159,20.1001498],[-99.1636084,20.0995479],[-99.1646839,20.0989167],[-99.165219,20.098609],[-99.1653337,20.0985005],[-99.166194,20.0979755],[-99.1670924,20.0974765],[-99.1672492,20.0973929],[-99.1673045,20.0973633],[-99.1676854,20.098727],[-99.1673162,20.0989849],[-99.1678132,20.1009609],[-99.1667528,20.1017342],[-99.1669064,20.1022221],[-99.1664684,20.1024835],[-99.1659663,20.1027832],[-99.1650263,20.1033444],[-99.1640862,20.1039055],[-99.1640288,20.1039327],[-99.1642369,20.1039694],[-99.164287,20.1041781],[-99.1642673,20.1044872],[-99.1642109,20.1049258],[-99.1638679,20.1049787],[-99.1633611,20.1044985],[-99.1632945,20.1043358],[-99.1628708,20.1044874],[-99.1619082,20.1050448],[-99.1618952,20.1050523],[-99.1618825,20.1050362],[-99.1613987,20.1044231],[-99.1606244,20.1050021],[-99.1606915,20.1051015],[-99.1608543,20.1053182],[-99.1609508,20.1055907],[-99.1610078,20.1057518],[-99.1611709,20.1061944],[-99.1612379,20.1062757],[-99.1611327,20.1062848],[-99.1603137,20.1068157],[-99.1594948,20.1073466],[-99.1586758,20.1078775],[-99.1586583,20.1078703],[-99.1585532,20.1077767],[-99.1586026,20.1077322],[-99.1586481,20.1076582],[-99.1586371,20.1075989],[-99.158639,20.1075546],[-99.158656,20.1075265],[-99.1587172,20.1074266],[-99.1587366,20.1073334],[-99.1586977,20.1072398],[-99.1586775,20.1072147],[-99.1585925,20.1071504],[-99.1585069,20.1071132],[-99.1584738,20.1070835],[-99.1584407,20.107034],[-99.1584283,20.1069948],[-99.158408,20.1068752],[-99.1583811,20.1066571],[-99.1583494,20.1065074],[-99.1583388,20.1064503],[-99.1582514,20.1062931],[-99.1583796,20.106213],[-99.1581606,20.1058924],[-99.1578172,20.1054146],[-99.1575567,20.1050574],[-99.1575148,20.1049907],[-99.1574945,20.1049377],[-99.1574815,20.1048968],[-99.1574728,20.104822],[-99.1574825,20.1047653],[-99.1574981,20.1047312],[-99.1575271,20.1047114],[-99.1576398,20.1046626]]]},"properties":{"locality":"Nuevo","official_key":"1306500010001","CVE_ENT":"13","CVE_MUN":"065","CVE_LOC":"0001","CVE_ASEN":"0001","settlement_type":"BARRIO","source":"INEGI DCAH 2025"}},{"type":"Feature","geometry":{"type":"Polygon","coordinates":[[[-99.1508272,20.1133967],[-99.1508216,20.1133621],[-99.1506347,20.1122131],[-99.1506344,20.1118335],[-99.1508729,20.1111556],[-99.1510543,20.1107488],[-99.1506905,20.1105503],[-99.1505686,20.1104824],[-99.1500591,20.1103295],[-99.1498274,20.11026],[-99.1495519,20.110244],[-99.1483462,20.1098926],[-99.1470926,20.1095503],[-99.1469396,20.1095323],[-99.1467384,20.1092523],[-99.1461351,20.108539],[-99.146189,20.1085065],[-99.1471832,20.1079074],[-99.1474181,20.1077585],[-99.1478763,20.1074863],[-99.1487699,20.1069538],[-99.1501965,20.106114],[-99.150624,20.105889],[-99.1514831,20.1054306],[-99.1518464,20.1052231],[-99.1519415,20.1051542],[-99.1520447,20.1050794],[-99.1535685,20.1041319],[-99.1547198,20.1035796],[-99.1550893,20.1034144],[-99.1552307,20.103367],[-99.1558749,20.1031073],[-99.156608,20.1027053],[-99.1566245,20.1027811],[-99.1568703,20.103095],[-99.1571421,20.1034055],[-99.157316,20.1033278],[-99.1576389,20.103868],[-99.1573668,20.1040218],[-99.1573297,20.1040524],[-99.1574542,20.1042919],[-99.1576398,20.1046626],[-99.1575271,20.1047114],[-99.1574981,20.1047312],[-99.1574825,20.1047653],[-99.1574728,20.104822],[-99.1574815,20.1048968],[-99.1574945,20.1049377],[-99.1575148,20.1049907],[-99.1575567,20.1050574],[-99.1578172,20.1054146],[-99.1581606,20.1058924],[-99.1583796,20.106213],[-99.1582514,20.1062931],[-99.1583388,20.1064503],[-99.1583494,20.1065074],[-99.1583811,20.1066571],[-99.158408,20.1068752],[-99.1584283,20.1069948],[-99.1584407,20.107034],[-99.1584738,20.1070835],[-99.1585069,20.1071132],[-99.1585925,20.1071504],[-99.1586775,20.1072147],[-99.1586977,20.1072398],[-99.1587366,20.1073334],[-99.1587172,20.1074266],[-99.158656,20.1075265],[-99.158639,20.1075546],[-99.1586371,20.1075989],[-99.1586481,20.1076582],[-99.1586026,20.1077322],[-99.1585532,20.1077767],[-99.1586583,20.1078703],[-99.1586758,20.1078775],[-99.1575771,20.1092882],[-99.1558223,20.1105765],[-99.1554393,20.1109633],[-99.1548089,20.1115142],[-99.1543731,20.1118649],[-99.1540804,20.1121028],[-99.1537209,20.1123778],[-99.1537183,20.1124072],[-99.1525911,20.1131179],[-99.15215,20.1133639],[-99.1516892,20.113616],[-99.1513001,20.1138346],[-99.1511852,20.1138998],[-99.15111,20.1139364],[-99.1510987,20.1139402],[-99.1510472,20.1139577],[-99.1510775,20.1135083],[-99.15103,20.1134525],[-99.1509718,20.1134497],[-99.1508272,20.1133967]]]},"properties":{"locality":"Espíritu Santo","official_key":"1306500010002","CVE_ENT":"13","CVE_MUN":"065","CVE_LOC":"0001","CVE_ASEN":"0002","settlement_type":"BARRIO","source":"INEGI DCAH 2025"}},{"type":"Feature","geometry":{"type":"Polygon","coordinates":[[[-99.1451834,20.1025374],[-99.1455964,20.0995388],[-99.1454554,20.0994993],[-99.1456298,20.0983581],[-99.1457496,20.097476],[-99.145818,20.0970761],[-99.1459842,20.0965724],[-99.146049,20.0965193],[-99.1462025,20.0956491],[-99.1462021,20.0955417],[-99.1461726,20.0954137],[-99.1460662,20.0951467],[-99.1460452,20.0950154],[-99.1460643,20.0947071],[-99.1461909,20.0937146],[-99.1463111,20.0927543],[-99.1463173,20.0927179],[-99.1463514,20.092517],[-99.1463972,20.0922939],[-99.1464739,20.0923],[-99.1465313,20.0922999],[-99.1465599,20.0922276],[-99.1466554,20.0920197],[-99.1467222,20.0918931],[-99.1469228,20.0915496],[-99.1471363,20.0911637],[-99.1472358,20.0909839],[-99.1473239,20.0908534],[-99.147448,20.0906635],[-99.1476775,20.0905368],[-99.1478496,20.0905006],[-99.1480314,20.0905185],[-99.1481421,20.0905257],[-99.1482105,20.0908338],[-99.1481906,20.0910187],[-99.149015,20.0927553],[-99.1498215,20.092454],[-99.1500577,20.0923214],[-99.1507825,20.0920411],[-99.1508224,20.0922999],[-99.1508458,20.092409],[-99.1535465,20.0914609],[-99.1536425,20.0914205],[-99.1560183,20.0904483],[-99.1559994,20.0906833],[-99.1561144,20.0909543],[-99.1565074,20.091713],[-99.1566895,20.0920743],[-99.1570436,20.0928669],[-99.1572263,20.0932757],[-99.1574444,20.0936921],[-99.1574466,20.093691],[-99.1575672,20.0936321],[-99.1581041,20.0933698],[-99.1587469,20.0929761],[-99.1587949,20.0931207],[-99.1588141,20.093193],[-99.1588237,20.0932833],[-99.1588525,20.0933375],[-99.1589099,20.0933465],[-99.158996,20.0933645],[-99.1590343,20.0934096],[-99.1590918,20.0934819],[-99.1591397,20.0935361],[-99.1592449,20.0935811],[-99.1592927,20.093563],[-99.1593118,20.0935449],[-99.1593501,20.0935268],[-99.1593787,20.0935087],[-99.1598341,20.0944707],[-99.1602894,20.0954327],[-99.158664,20.0961209],[-99.1589133,20.0967262],[-99.1594983,20.0982167],[-99.1596326,20.098569],[-99.1596805,20.0986503],[-99.1612488,20.0981609],[-99.1622911,20.0978075],[-99.1633333,20.0974541],[-99.164586,20.0970824],[-99.165219,20.098609],[-99.1646839,20.0989167],[-99.1636084,20.0995479],[-99.1625159,20.1001498],[-99.1624545,20.1001679],[-99.1615717,20.1005632],[-99.1606777,20.1009239],[-99.160244,20.1010973],[-99.1596157,20.1013503],[-99.1593705,20.101448],[-99.1585043,20.1017978],[-99.1581085,20.1019752],[-99.156608,20.1027053],[-99.1558749,20.1031073],[-99.1552307,20.103367],[-99.1550893,20.1034144],[-99.1547198,20.1035796],[-99.1535685,20.1041319],[-99.1520447,20.1050794],[-99.1519415,20.1051542],[-99.1518464,20.1052231],[-99.1514831,20.1054306],[-99.150624,20.105889],[-99.1501965,20.106114],[-99.1487699,20.1069538],[-99.1478763,20.1074863],[-99.1474181,20.1077585],[-99.1471832,20.1079074],[-99.146189,20.1085065],[-99.1461351,20.108539],[-99.1453497,20.1075637],[-99.1447416,20.1068322],[-99.1441335,20.1061007],[-99.1439802,20.1059111],[-99.1431664,20.1050894],[-99.1422856,20.1042768],[-99.1420957,20.1041106],[-99.1421992,20.1040533],[-99.1424519,20.1039371],[-99.142603,20.1038677],[-99.1431777,20.103602],[-99.1446929,20.1028036],[-99.1451834,20.1025374]]]},"properties":{"locality":"Nicolás Bravo","official_key":"1306500010003","CVE_ENT":"13","CVE_MUN":"065","CVE_LOC":"0001","CVE_ASEN":"0003","settlement_type":"BARRIO","source":"INEGI DCAH 2025"}},{"type":"Feature","geometry":{"type":"Polygon","coordinates":[[[-99.154741,20.1232076],[-99.155003,20.1224576],[-99.1551304,20.1220401],[-99.1551083,20.1220218],[-99.154662,20.1216528],[-99.1540205,20.1211563],[-99.1534364,20.1206779],[-99.1525747,20.1199467],[-99.1517225,20.1191883],[-99.1514065,20.1188543],[-99.1512027,20.11864],[-99.1511575,20.1185924],[-99.1509755,20.1184209],[-99.1508316,20.1180234],[-99.1507356,20.1176259],[-99.1505723,20.1169302],[-99.1504762,20.1165236],[-99.1504282,20.1162887],[-99.1504185,20.1162255],[-99.1502654,20.1161894],[-99.1498731,20.1160633],[-99.1491075,20.115829],[-99.1490023,20.1158019],[-99.1493171,20.1149342],[-99.149632,20.1140664],[-99.1499469,20.1131986],[-99.1508465,20.1135051],[-99.1508272,20.1133967],[-99.1509718,20.1134497],[-99.15103,20.1134525],[-99.1510775,20.1135083],[-99.1510472,20.1139577],[-99.1510987,20.1139402],[-99.15111,20.1139364],[-99.1511852,20.1138998],[-99.1513001,20.1138346],[-99.1516892,20.113616],[-99.15215,20.1133639],[-99.1525911,20.1131179],[-99.1537183,20.1124072],[-99.1537209,20.1123778],[-99.1540804,20.1121028],[-99.1543731,20.1118649],[-99.1548089,20.1115142],[-99.1554393,20.1109633],[-99.1558223,20.1105765],[-99.155945,20.1110689],[-99.1562011,20.1109758],[-99.1563325,20.1113788],[-99.1566383,20.1113771],[-99.1566979,20.1116567],[-99.1566814,20.111794],[-99.1566625,20.1119501],[-99.1567432,20.1120559],[-99.1570706,20.1123782],[-99.1572268,20.1124761],[-99.1572363,20.1124854],[-99.1574274,20.1126733],[-99.157665,20.1127977],[-99.1580779,20.1134563],[-99.1588468,20.1147993],[-99.15844,20.1149992],[-99.1585656,20.1152654],[-99.1583775,20.1156539],[-99.1584934,20.1159085],[-99.1580783,20.1160927],[-99.1578167,20.1161789],[-99.1576939,20.1169105],[-99.1581183,20.1167807],[-99.1581353,20.1168173],[-99.1583325,20.1172426],[-99.15836,20.117265],[-99.1585213,20.1173963],[-99.1586516,20.117657],[-99.1578834,20.1179874],[-99.1581859,20.1192558],[-99.1577117,20.1194002],[-99.1577693,20.1197162],[-99.1577838,20.1197693],[-99.1579024,20.1201419],[-99.1580424,20.1205094],[-99.158231,20.1204436],[-99.1588074,20.1210085],[-99.1595293,20.1216854],[-99.1593793,20.1217504],[-99.1585753,20.122159],[-99.1566809,20.1230208],[-99.1565337,20.1232107],[-99.1562897,20.1229616],[-99.1560847,20.1231579],[-99.1556837,20.123485],[-99.154741,20.1232076]]]},"properties":{"locality":"Morelos","official_key":"1306500010004","CVE_ENT":"13","CVE_MUN":"065","CVE_LOC":"0001","CVE_ASEN":"0004","settlement_type":"COLONIA","source":"INEGI DCAH 2025"}},{"type":"Feature","geometry":{"type":"Polygon","coordinates":[[[-99.1313274,20.1014698],[-99.1316493,20.1005376],[-99.1319712,20.0996055],[-99.1322931,20.0986733],[-99.1326179,20.0978132],[-99.1326985,20.0975999],[-99.132839,20.0972279],[-99.1329427,20.0969531],[-99.1331982,20.0962766],[-99.1331984,20.0962761],[-99.1331986,20.0962755],[-99.1332139,20.0962351],[-99.1332617,20.0961085],[-99.1332675,20.096093],[-99.1333499,20.0960397],[-99.1336528,20.0952304],[-99.1338889,20.0945833],[-99.1339617,20.0943836],[-99.1340067,20.0942603],[-99.1340185,20.0941483],[-99.1340277,20.0940605],[-99.1340343,20.0939973],[-99.1340345,20.0939964],[-99.1341991,20.0931007],[-99.1342237,20.0929674],[-99.1342411,20.0928725],[-99.1342413,20.0928717],[-99.1343303,20.0923876],[-99.1343304,20.092387],[-99.134364,20.0922041],[-99.134413,20.0919376],[-99.1344427,20.0917765],[-99.1344428,20.0917759],[-99.1344528,20.0917213],[-99.1345289,20.0913076],[-99.13455,20.0911925],[-99.1345731,20.0910672],[-99.1345782,20.0910396],[-99.1346024,20.0909077],[-99.1346671,20.0905557],[-99.1346937,20.090411],[-99.1363237,20.0906815],[-99.1378543,20.0908882],[-99.1380648,20.0909151],[-99.138409,20.0907612],[-99.1386958,20.0906164],[-99.1388392,20.0904898],[-99.1391928,20.0901371],[-99.1399478,20.0894316],[-99.1400721,20.0893683],[-99.141124,20.0890331],[-99.1422715,20.0886617],[-99.1426062,20.0885801],[-99.1434095,20.0884529],[-99.1436295,20.0884527],[-99.1444999,20.0884339],[-99.1447007,20.0883344],[-99.1450926,20.0880539],[-99.1452142,20.0881622],[-99.1452649,20.0882074],[-99.1453894,20.08837],[-99.1454948,20.0885958],[-99.1455526,20.0889753],[-99.1456006,20.0892192],[-99.1457157,20.0894993],[-99.1457732,20.0896619],[-99.1458499,20.0899058],[-99.1458979,20.0900413],[-99.1459554,20.0901497],[-99.1461565,20.0903935],[-99.1464245,20.0906192],[-99.1465777,20.0907456],[-99.1466065,20.090854],[-99.1465302,20.0911432],[-99.1464922,20.0913692],[-99.146416,20.0917036],[-99.1464257,20.0919295],[-99.1464546,20.0921373],[-99.1464739,20.0923],[-99.1463972,20.0922939],[-99.1463514,20.092517],[-99.1463173,20.0927179],[-99.1463111,20.0927543],[-99.1461909,20.0937146],[-99.1460643,20.0947071],[-99.1460452,20.0950154],[-99.1460662,20.0951467],[-99.1461726,20.0954137],[-99.1462021,20.0955417],[-99.1462025,20.0956491],[-99.146049,20.0965193],[-99.1459842,20.0965724],[-99.145818,20.0970761],[-99.1457496,20.097476],[-99.1456298,20.0983581],[-99.1454554,20.0994993],[-99.1455964,20.0995388],[-99.1451834,20.1025374],[-99.1450907,20.1025141],[-99.1422677,20.1023203],[-99.1418055,20.1022855],[-99.1402342,20.102123],[-99.1382785,20.1020159],[-99.1379576,20.1019887],[-99.1363193,20.1018527],[-99.1360349,20.1018352],[-99.1344065,20.1016832],[-99.1341816,20.1016646],[-99.1324577,20.1015462],[-99.1323121,20.1015403],[-99.1322567,20.1015363],[-99.1313274,20.1014698]]]},"properties":{"locality":"Rojo Gómez","official_key":"1306500010005","CVE_ENT":"13","CVE_MUN":"065","CVE_LOC":"0001","CVE_ASEN":"0005","settlement_type":"COLONIA","source":"INEGI DCAH 2025"}},{"type":"Feature","geometry":{"type":"Polygon","coordinates":[[[-99.1481421,20.0905257],[-99.1483754,20.0905282],[-99.1489014,20.0900749],[-99.1489587,20.0900207],[-99.1488533,20.0897768],[-99.1488914,20.0895779],[-99.1488816,20.0893972],[-99.1487762,20.0891352],[-99.1486227,20.0886564],[-99.1484885,20.0883945],[-99.1482393,20.0878344],[-99.1481913,20.0876899],[-99.1482199,20.0875272],[-99.1483823,20.0873283],[-99.1485448,20.0872287],[-99.148717,20.0872015],[-99.1487838,20.0871382],[-99.1487455,20.0870478],[-99.1493191,20.086713],[-99.1494721,20.0866677],[-99.1498546,20.0866041],[-99.1510883,20.0864133],[-99.1512892,20.0864221],[-99.1516241,20.0865935],[-99.1519495,20.0867559],[-99.1523131,20.0869092],[-99.1531739,20.0868543],[-99.1537956,20.0868537],[-99.1545896,20.0869163],[-99.1561584,20.0870505],[-99.1573732,20.0871036],[-99.1576697,20.0871395],[-99.1587221,20.0873735],[-99.1588561,20.0874005],[-99.1599084,20.0875532],[-99.1607788,20.0875343],[-99.1607841,20.0876195],[-99.1608176,20.0880975],[-99.1608277,20.0886638],[-99.1597091,20.0890986],[-99.1579402,20.0897327],[-99.1581595,20.0890638],[-99.1581021,20.0890548],[-99.158079,20.0890694],[-99.158016,20.0891091],[-99.1568974,20.0895349],[-99.1557787,20.0899606],[-99.1560183,20.0904483],[-99.1536425,20.0914205],[-99.1535465,20.0914609],[-99.1508458,20.092409],[-99.1508224,20.0922999],[-99.1507825,20.0920411],[-99.1500577,20.0923214],[-99.1498215,20.092454],[-99.149015,20.0927553],[-99.1481906,20.0910187],[-99.1482105,20.0908338],[-99.1481421,20.0905257]]]},"properties":{"locality":"Xitri","official_key":"1306500010006","CVE_ENT":"13","CVE_MUN":"065","CVE_LOC":"0001","CVE_ASEN":"0006","settlement_type":"COLONIA","source":"INEGI DCAH 2025"}},{"type":"Feature","geometry":{"type":"Polygon","coordinates":[[[-99.1608144,20.1268972],[-99.1606755,20.1267856],[-99.160315,20.1270309],[-99.1593838,20.1259538],[-99.1586872,20.1252735],[-99.1579907,20.1245933],[-99.1572622,20.123902],[-99.1565337,20.1232107],[-99.1566809,20.1230208],[-99.1585753,20.122159],[-99.1593793,20.1217504],[-99.1595293,20.1216854],[-99.160181,20.1223578],[-99.1603238,20.1222749],[-99.1609463,20.1229098],[-99.1615688,20.1235958],[-99.1621424,20.1242521],[-99.1627253,20.1248483],[-99.1631702,20.1253062],[-99.16369,20.1258102],[-99.1639781,20.1261244],[-99.1632394,20.1264335],[-99.16304,20.1265169],[-99.1620799,20.1269293],[-99.1612216,20.1273009],[-99.1608144,20.1268972]]]},"properties":{"locality":"La Hormiga","official_key":"1306500010008","CVE_ENT":"13","CVE_MUN":"065","CVE_LOC":"0001","CVE_ASEN":"0008","settlement_type":"COLONIA","source":"INEGI DCAH 2025"}},{"type":"Feature","geometry":{"type":"Polygon","coordinates":[[[-99.1851952,20.1550489],[-99.1850651,20.1550208],[-99.1849173,20.1549195],[-99.1843799,20.1544716],[-99.1839691,20.154125],[-99.1835257,20.1537578],[-99.1834705,20.1537127],[-99.1834704,20.1537126],[-99.1834703,20.1537125],[-99.1834225,20.1536734],[-99.1834224,20.1536734],[-99.183122,20.1534177],[-99.1827628,20.1531159],[-99.1826047,20.1529831],[-99.1825337,20.1529264],[-99.1820628,20.1525506],[-99.1815386,20.1521228],[-99.1810347,20.1517093],[-99.180937,20.1516316],[-99.1806565,20.1514087],[-99.1800911,20.1509709],[-99.1798724,20.1507877],[-99.1796817,20.1506278],[-99.1791782,20.1502423],[-99.1787131,20.1498959],[-99.1785479,20.1497657],[-99.1784468,20.149686],[-99.1801352,20.1483217],[-99.1795946,20.1481667],[-99.1796534,20.1480973],[-99.1797457,20.1479884],[-99.1807976,20.1472544],[-99.181605,20.1467101],[-99.1813465,20.1470586],[-99.1814837,20.1471994],[-99.1812501,20.147414],[-99.1811238,20.1477244],[-99.1813546,20.1477565],[-99.1817061,20.1477597],[-99.1818236,20.147783],[-99.1820276,20.1477963],[-99.1822562,20.1478493],[-99.1826585,20.1479908],[-99.1827924,20.148047],[-99.1830829,20.1481767],[-99.1833062,20.1483148],[-99.1833712,20.1483641],[-99.1834452,20.1484043],[-99.1834803,20.1484562],[-99.1837065,20.1486402],[-99.1841934,20.1490181],[-99.1843432,20.1491337],[-99.184423,20.1492034],[-99.184498,20.1492644],[-99.1846531,20.1493523],[-99.1846668,20.1493434],[-99.1849177,20.1492524],[-99.1851437,20.1492801],[-99.1853652,20.1493498],[-99.1856417,20.1494403],[-99.1859132,20.149517],[-99.1861562,20.1496183],[-99.1863326,20.1496813],[-99.1864032,20.1496931],[-99.1864932,20.1496721],[-99.186624,20.1496239],[-99.1866987,20.1496477],[-99.1868107,20.1496879],[-99.1871233,20.1499237],[-99.1876794,20.1503953],[-99.1882065,20.1508308],[-99.1882911,20.1508891],[-99.1881405,20.1509634],[-99.1885348,20.1512243],[-99.1890296,20.1515216],[-99.1889792,20.1515602],[-99.1886944,20.1518066],[-99.1886185,20.1518329],[-99.1885193,20.1518047],[-99.1883435,20.1516519],[-99.1882278,20.1516307],[-99.1877975,20.1520147],[-99.1874286,20.1523536],[-99.1872437,20.152596],[-99.1872618,20.1527227],[-99.1869406,20.1535623],[-99.1865567,20.154072],[-99.1862659,20.153903],[-99.1855004,20.1549174],[-99.1853666,20.155047],[-99.1852579,20.1550437],[-99.1851952,20.1550489]]]},"properties":{"locality":"Juandhó","official_key":"1306500020001","CVE_ENT":"13","CVE_MUN":"065","CVE_LOC":"0002","CVE_ASEN":"0001","settlement_type":"COLONIA","source":"INEGI DCAH 2025"}},{"type":"Feature","geometry":{"type":"MultiPolygon","coordinates":[[[[-99.1743823,20.1416148],[-99.1734918,20.1414864],[-99.1735401,20.1405395],[-99.1746532,20.1409072],[-99.1743823,20.1416148]]],[[[-99.1644456,20.1435474],[-99.164656,20.1435097],[-99.1647434,20.1435277],[-99.1649987,20.1436914],[-99.1655078,20.1434993],[-99.1656667,20.1434121],[-99.1651954,20.142923],[-99.1651744,20.1429012],[-99.1647978,20.1424821],[-99.164749,20.1424328],[-99.1651338,20.142333],[-99.1651946,20.142106],[-99.1652424,20.1420037],[-99.1652747,20.1419645],[-99.1655099,20.1417582],[-99.1659193,20.1415141],[-99.1665974,20.1411783],[-99.1672066,20.1410857],[-99.167006,20.1415638],[-99.1670302,20.1417948],[-99.1671214,20.1420393],[-99.1674275,20.1419277],[-99.1677403,20.1420545],[-99.1679159,20.1420574],[-99.1684732,20.1422059],[-99.1686009,20.1424196],[-99.1692908,20.1426335],[-99.1693156,20.142787],[-99.1698801,20.1429731],[-99.170022,20.1429423],[-99.1707217,20.1433145],[-99.1714215,20.1435658],[-99.1715385,20.1434831],[-99.1723947,20.1435191],[-99.1727768,20.1432688],[-99.1729401,20.1429697],[-99.1737389,20.1431371],[-99.1748214,20.1434718],[-99.175613,20.1437785],[-99.1761628,20.1442513],[-99.1761547,20.144442],[-99.1763317,20.1446825],[-99.1764232,20.1446291],[-99.1768551,20.1448418],[-99.1780674,20.1459791],[-99.1779688,20.1463005],[-99.1781492,20.1464204],[-99.1782525,20.1462977],[-99.1792395,20.1468819],[-99.1796472,20.1473049],[-99.1797457,20.1479884],[-99.1796534,20.1480973],[-99.1795946,20.1481667],[-99.1790436,20.1485594],[-99.1786842,20.1487759],[-99.1779631,20.1493921],[-99.1770195,20.1500258],[-99.1766531,20.1502834],[-99.1760839,20.150603],[-99.1757826,20.1508126],[-99.1757434,20.1509643],[-99.1754536,20.1509135],[-99.1743459,20.1507816],[-99.172568,20.1505652],[-99.1711981,20.1503883],[-99.1699431,20.1502151],[-99.169223,20.1501114],[-99.1684659,20.1500132],[-99.1672948,20.1498573],[-99.1660665,20.1496882],[-99.164911,20.149529],[-99.1637258,20.149393],[-99.1626858,20.1493467],[-99.1627289,20.1491834],[-99.1628645,20.1486976],[-99.1630337,20.1481907],[-99.1630519,20.1480987],[-99.1633224,20.1473452],[-99.163431,20.1470857],[-99.1634936,20.1468609],[-99.1636493,20.1464789],[-99.1636868,20.1464182],[-99.1638729,20.1458055],[-99.1639963,20.145411],[-99.1640913,20.1451749],[-99.1641403,20.1450045],[-99.1642578,20.1446851],[-99.1642788,20.1446253],[-99.16449,20.1440222],[-99.1644409,20.1439405],[-99.1644209,20.1438507],[-99.1643934,20.1437219],[-99.1644456,20.1435474]]]]},"properties":{"locality":"Ulapa de Melchor Ocampo","official_key":"1306500030001","CVE_ENT":"13","CVE_MUN":"065","CVE_LOC":"0003","CVE_ASEN":"0001","settlement_type":"COLONIA","source":"INEGI DCAH 2025"}},{"type":"Feature","geometry":{"type":"MultiPolygon","coordinates":[[[[-99.1608598,20.1277914],[-99.160315,20.1270309],[-99.1606755,20.1267856],[-99.1608144,20.1268972],[-99.1612216,20.1273009],[-99.1620799,20.1269293],[-99.16304,20.1265169],[-99.1632394,20.1264335],[-99.1643855,20.1276253],[-99.1639832,20.1279477],[-99.1640236,20.1279957],[-99.1640785,20.1280609],[-99.1645089,20.1285722],[-99.163715,20.1294184],[-99.1646806,20.130179],[-99.1643212,20.1305618],[-99.1629586,20.1297508],[-99.1622988,20.1293429],[-99.1613996,20.1285754],[-99.1612549,20.1283833],[-99.1608598,20.1277914]]],[[[-99.1654747,20.1307372],[-99.1656141,20.1301429],[-99.166113,20.1303393],[-99.1660004,20.1311049],[-99.1654747,20.1307372]]]]},"properties":{"locality":"La Hormiga","official_key":"1306500150001","CVE_ENT":"13","CVE_MUN":"065","CVE_LOC":"0015","CVE_ASEN":"0001","settlement_type":"COLONIA","source":"INEGI DCAH 2025"}}]}