{"type":"FeatureCollection","name":"inegi-hidalgo-066","metadata":{"state":"Hidalgo","CVE_ENT":"13","CVE_MUN":"066","municipality":"Villa de Tezontepec","sources":["INEGI Gaia — Servicio vectorial del Marco Geoestadístico","INEGI DCAH 2025"],"source_urls":["https://gaia.inegi.org.mx/wscatgeo/v2/geo/mgem/13","https://gaia.inegi.org.mx/wscatgeo/v2/geo/localidades/pol/13/066","https://www.inegi.org.mx/contenidos/productos/prod_serv/contenidos/espanol/bvinegi/productos/geografia/delimitaciones/794551163078/13_hidalgo.zip"],"geometry_policy":"Solo se publican polígonos de INEGI; no se generan puntos ni geometrías sintéticas.","locality_polygon_count":11,"settlement_polygon_count":22},"municipality":{"type":"Feature","geometry":{"type":"MultiPolygon","crs":{"type":"name","properties":{"name":"EPSG:6365"}},"coordinates":[[[[-98.80027631,19.97125842],[-98.7995886,19.97001517],[-98.79945235,19.96980358],[-98.79938629,19.96967283],[-98.79915215,19.96921514],[-98.79890506,19.96876389],[-98.79773803,19.96667811],[-98.79767858,19.96656586],[-98.79761832,19.96654615],[-98.79665763,19.96583811],[-98.79452252,19.96438989],[-98.794410151,19.964307074],[-98.79435457,19.96426611],[-98.79360918,19.96363062],[-98.793469031,19.963529289],[-98.7912594,19.96193162],[-98.79117971,19.96189695],[-98.78839869,19.95989129],[-98.78841102,19.95986362],[-98.78839412,19.95985806],[-98.78801915,19.95999922],[-98.78765495,19.96008982],[-98.78734448,19.96003888],[-98.78701271,19.95990698],[-98.78662746,19.95971435],[-98.78604169,19.95949272],[-98.78544829,19.95935023],[-98.78510154,19.95916986],[-98.78476648,19.95900783],[-98.784446,19.95885922],[-98.78407131,19.9586212],[-98.78354208,19.95829534],[-98.78315854,19.95794466],[-98.78270885,19.95755635],[-98.78246642,19.95731668],[-98.782361574,19.957243121],[-98.78215074,19.9570952],[-98.78191689,19.95692908],[-98.78164788,19.95680715],[-98.78137888,19.95667415],[-98.78112163,19.95650802],[-98.781040653,19.956423662],[-98.78088789,19.95626452],[-98.780570937,19.956102184],[-98.78045517,19.95604289],[-98.78017465,19.95578828],[-98.77998758,19.95565538],[-98.779931934,19.955566588],[-98.779809727,19.955371586],[-98.779793305,19.955345382],[-98.779786972,19.955335278],[-98.77976571,19.95530135],[-98.77974835,19.955274651],[-98.779685679,19.95517815],[-98.77955402,19.95497547],[-98.779392,19.95472605],[-98.77923612,19.95455194],[-98.77880226,19.95414103],[-98.77840026,19.95371445],[-98.77787628,19.95338757],[-98.777593216,19.953100984],[-98.77750586,19.95301254],[-98.77722497,19.95263763],[-98.77708471,19.95232331],[-98.77682946,19.95191217],[-98.776633245,19.951694005],[-98.77653572,19.95158557],[-98.77630572,19.95141612],[-98.776217233,19.951392782],[-98.77607557,19.95135542],[-98.77594802,19.95110152],[-98.77591034,19.95060608],[-98.77580878,19.95006223],[-98.775765318,19.949984433],[-98.77557912,19.94965114],[-98.775365681,19.949558349],[-98.775256877,19.949511047],[-98.77496069,19.94938228],[-98.7746364,19.94907511],[-98.77444463,19.94899122],[-98.77406091,19.94896285],[-98.77402377,19.94894595],[-98.77369214,19.94879505],[-98.77332368,19.94841812],[-98.77289608,19.94809689],[-98.772652438,19.947834627],[-98.77257186,19.94774789],[-98.772393015,19.947688875],[-98.77223254,19.94763592],[-98.772053237,19.947522853],[-98.77182329,19.94737785],[-98.771774903,19.947353283],[-98.77141031,19.94716817],[-98.771358159,19.947196817],[-98.77123305,19.94726554],[-98.77053977,19.94695789],[-98.77053702,19.946956821],[-98.770177947,19.946817264],[-98.76963991,19.94660815],[-98.769126228,19.94643171],[-98.76878426,19.94631425],[-98.76846465,19.9461744],[-98.76833132,19.94612191],[-98.768019522,19.945999176],[-98.7676828,19.94586663],[-98.767693262,19.945857126],[-98.76797259,19.945603393],[-98.768244196,19.94535667],[-98.76828212,19.945322221],[-98.768498096,19.945126032],[-98.76851537,19.94511034],[-98.769021733,19.944644304],[-98.769411224,19.944285827],[-98.769421348,19.94427651],[-98.769502062,19.944202222],[-98.76957588,19.944134283],[-98.769577177,19.944133089],[-98.769654339,19.944062071],[-98.769781233,19.943945281],[-98.769790523,19.943936731],[-98.76979919,19.943928753],[-98.769934818,19.943803924],[-98.769951273,19.943788779],[-98.769968942,19.943772517],[-98.77000291,19.943741255],[-98.77002194,19.94372374],[-98.769935532,19.943666259],[-98.769856553,19.943613718],[-98.76982395,19.94359203],[-98.769624248,19.943459173],[-98.769239189,19.943203002],[-98.76901629,19.94305471],[-98.768873087,19.94294608],[-98.76853118,19.94268672],[-98.768237821,19.94252508],[-98.76814822,19.94247571],[-98.76807694,19.94243885],[-98.767974922,19.942367615],[-98.767963495,19.942359637],[-98.76767686,19.94215949],[-98.76743398,19.9420442],[-98.76726422,19.94189952],[-98.76704831,19.94179435],[-98.766893347,19.941699446],[-98.766683426,19.941570885],[-98.766679592,19.941568538],[-98.766594527,19.941516441],[-98.766553697,19.941491435],[-98.766491039,19.941453062],[-98.766459214,19.941433571],[-98.766410483,19.941403726],[-98.766373789,19.941381254],[-98.766337458,19.941359003],[-98.76631004,19.941342212],[-98.76626643,19.941315504],[-98.766219598,19.941286822],[-98.766167112,19.941254677],[-98.766107043,19.941217888],[-98.766092473,19.941208965],[-98.766039101,19.941176278],[-98.766025764,19.941168109],[-98.76600875,19.94115769],[-98.765984115,19.941146952],[-98.765983933,19.941146873],[-98.765967312,19.941139629],[-98.765944599,19.94112973],[-98.765931408,19.941123981],[-98.765922152,19.941119946],[-98.76588134,19.941102159],[-98.765872211,19.94109818],[-98.765869189,19.941096862],[-98.7658561,19.941091158],[-98.76584126,19.94108469],[-98.765822188,19.941074869],[-98.76581685,19.94107212],[-98.765745762,19.941035492],[-98.765672387,19.940997684],[-98.765672351,19.940997665],[-98.76567232,19.94099765],[-98.765672275,19.940997625],[-98.765666279,19.940994536],[-98.76560498,19.94096295],[-98.765589843,19.940955151],[-98.765572999,19.940946471],[-98.765491691,19.940904576],[-98.765468594,19.940892675],[-98.765402974,19.940858864],[-98.765400827,19.940857758],[-98.765392746,19.940853594],[-98.765268003,19.940789319],[-98.765262624,19.940786548],[-98.765227116,19.940768251],[-98.765151107,19.940729087],[-98.76505755,19.94068088],[-98.765042318,19.940671785],[-98.764972241,19.940629938],[-98.764953098,19.940618507],[-98.764908495,19.940591873],[-98.764904344,19.940589394],[-98.76483725,19.940549329],[-98.764826523,19.940542924],[-98.76481054,19.94053338],[-98.76476091,19.94049865],[-98.764684969,19.940454929],[-98.764658548,19.940439719],[-98.764624851,19.940420318],[-98.764609175,19.940411294],[-98.764525478,19.940363109],[-98.764480712,19.940337337],[-98.764404332,19.940293364],[-98.76436078,19.940268291],[-98.764274745,19.940215616],[-98.764261271,19.940207367],[-98.76421863,19.94018126],[-98.764206517,19.940173983],[-98.764142974,19.940135808],[-98.7640529,19.940081695],[-98.764008388,19.940054953],[-98.763971251,19.940032642],[-98.763955738,19.940023323],[-98.76392852,19.94000697],[-98.763894334,19.939989863],[-98.76389429,19.93998984],[-98.76386486,19.93997511],[-98.76385917,19.939971762],[-98.763827241,19.939952982],[-98.763771436,19.939920156],[-98.763674443,19.939863103],[-98.76355605,19.93979346],[-98.76351032,19.93976568],[-98.763505189,19.939762563],[-98.763497923,19.939758149],[-98.76330552,19.93964126],[-98.763271784,19.939621633],[-98.763231528,19.939598214],[-98.763110256,19.939527663],[-98.763068768,19.939503527],[-98.763018043,19.939474017],[-98.762951937,19.939435559],[-98.762816714,19.939356891],[-98.76280034,19.939347365],[-98.762646354,19.939257781],[-98.76247019,19.939155295],[-98.762310726,19.939062523],[-98.762302492,19.939057733],[-98.762268665,19.939038053],[-98.762177201,19.938984841],[-98.762090694,19.938934513],[-98.761908994,19.938828805],[-98.76178258,19.93875526],[-98.761760682,19.93874292],[-98.761693825,19.938705241],[-98.761347252,19.938509927],[-98.761251521,19.938455977],[-98.761147445,19.938397325],[-98.761142112,19.938394319],[-98.760939066,19.93827989],[-98.760833837,19.938220587],[-98.760776954,19.938188529],[-98.760649662,19.938116792],[-98.760436987,19.937996934],[-98.76040898,19.93798115],[-98.760067284,19.937785818],[-98.759819653,19.937644257],[-98.759474385,19.93744688],[-98.75941337,19.937412],[-98.759312426,19.937353054],[-98.759068382,19.937210548],[-98.758986906,19.937162971],[-98.758715349,19.937004397],[-98.75872603,19.93698128],[-98.758728449,19.93692635],[-98.758728571,19.936923596],[-98.758728756,19.936919362],[-98.758729811,19.936895313],[-98.7587376,19.93671763],[-98.75878263,19.93646457],[-98.758872478,19.93611665],[-98.75887312,19.93569477],[-98.758918218,19.935410061],[-98.758823581,19.93509634],[-98.758706818,19.934960951],[-98.758560074,19.934752334],[-98.75855023,19.93473834],[-98.758555969,19.93464834],[-98.75854509,19.934431219],[-98.75848692,19.93423551],[-98.758426049,19.934072691],[-98.75832623,19.933936061],[-98.75818189,19.933846631],[-98.75808198,19.933773],[-98.75808765,19.93371002],[-98.75809345,19.93354205],[-98.75802698,19.93340022],[-98.75785497,19.93324249],[-98.75758849,19.93322946],[-98.757498155,19.933191979],[-98.75749054,19.93318882],[-98.757474351,19.933163883],[-98.75744165,19.93311351],[-98.75745411,19.93298042],[-98.75743585,19.93290515],[-98.75735028,19.93277194],[-98.75728923,19.93263295],[-98.7572772,19.93249405],[-98.75716718,19.93232606],[-98.75709395,19.93213497],[-98.7570904,19.93201911],[-98.75703,19.93177018],[-98.75704391,19.93150223],[-98.75706468,19.93117049],[-98.75699074,19.93094069],[-98.756876877,19.930740993],[-98.75685603,19.93070443],[-98.75676975,19.93033183],[-98.75660114,19.93020202],[-98.75631909,19.93011394],[-98.75617706,19.93009609],[-98.75602765,19.93003585],[-98.75593434,19.92994037],[-98.75591983,19.92988331],[-98.75587178,19.92979222],[-98.75577189,19.92968705],[-98.75568318,19.92953988],[-98.75565011,19.92935778],[-98.75563931,19.92914771],[-98.75565386,19.92903612],[-98.75567018,19.92897786],[-98.75566382,19.92888889],[-98.75562822,19.92881522],[-98.75564455,19.92875082],[-98.75565763,19.92869562],[-98.75564148,19.92863423],[-98.75563182,19.92858208],[-98.75560915,19.92853909],[-98.75556058,19.92845006],[-98.75557106,19.92838772],[-98.75563146,19.928274],[-98.75563154,19.92823226],[-98.75561954,19.92819431],[-98.75558343,19.92817909],[-98.75549917,19.92814103],[-98.75542698,19.92807645],[-98.75540397,19.92804725],[-98.75539902,19.92798535],[-98.7554272,19.92793988],[-98.75546745,19.92787545],[-98.75547554,19.92784131],[-98.75543148,19.92776537],[-98.75527509,19.92762858],[-98.75506652,19.92747655],[-98.75485388,19.92736625],[-98.75468237,19.92729309],[-98.75459726,19.92724938],[-98.75446954,19.92722238],[-98.75426383,19.92713828],[-98.75400838,19.92709434],[-98.75378848,19.92700351],[-98.7536892,19.92694972],[-98.75362191,19.92685574],[-98.75356886,19.92673497],[-98.75354051,19.92670811],[-98.75344475,19.92666438],[-98.7533136,19.92656362],[-98.75313672,19.9264452],[-98.75302268,19.92640357],[-98.75285157,19.92637431],[-98.75274629,19.92633685],[-98.75263225,19.92629523],[-98.75247869,19.92627014],[-98.75237351,19.92617463],[-98.75229465,19.92608745],[-98.75211057,19.92592548],[-98.75197043,19.92573869],[-98.75170729,19.92561394],[-98.75158435,19.92565523],[-98.75141275,19.92573022],[-98.75131505,19.92579925],[-98.75116857,19.92584054],[-98.75107091,19.92587729],[-98.75097814,19.92590022],[-98.75086586,19.92591389],[-98.75075351,19.92598289],[-98.75057768,19.92607026],[-98.75044089,19.92615768],[-98.75035286,19.92627282],[-98.75023058,19.92644325],[-98.75013275,19.92658143],[-98.74992725,19.92668862],[-98.74928491,19.92667012],[-98.74870805,19.92652982],[-98.74681498,19.92668057],[-98.74634686,19.92656952],[-98.74606282,19.92651557],[-98.74590337,19.9264076],[-98.74583915,19.92573483],[-98.74583202,19.92566383],[-98.74538754,19.92473785],[-98.74500405,19.9241146],[-98.74448994,19.92334825],[-98.74387866,19.92288818],[-98.74297418,19.92263275],[-98.74257283,19.92098911],[-98.74251915,19.91891303],[-98.74200783,19.91867012],[-98.74180046,19.91816165],[-98.74197494,19.91758815],[-98.74271792,19.91733538],[-98.74369383,19.91745442],[-98.74352335,19.91700468],[-98.74256589,19.9164674],[-98.74199786,19.91602474],[-98.74173294,19.91570192],[-98.74202423,19.91535603],[-98.74250511,19.91497462],[-98.74312494,19.91468891],[-98.7437192,19.91453451],[-98.74409774,19.91442422],[-98.74416731,19.91438054],[-98.74427397,19.91432378],[-98.74432498,19.9142932],[-98.74438535,19.91421012],[-98.744492,19.91415774],[-98.74460328,19.91410974],[-98.74475623,19.91407932],[-98.74492771,19.91404892],[-98.7450158,19.91400965],[-98.74514554,19.91400546],[-98.74530772,19.91399255],[-98.74541429,19.91398832],[-98.74551626,19.91397097],[-98.74564386,19.91385542],[-98.74576443,19.91379431],[-98.74594526,19.91371577],[-98.74608895,19.91366782],[-98.74620017,19.91365922],[-98.74631597,19.91368565],[-98.74646883,19.91370775],[-98.74663566,19.91368172],[-98.74685351,19.91363826],[-98.74696943,19.91357277],[-98.74704369,19.91349406],[-98.74707626,19.91340657],[-98.74717378,19.91327098],[-98.74731283,19.91323617],[-98.74745652,19.91320135],[-98.74750298,19.91312262],[-98.74754018,19.91303074],[-98.74763855,19.91296769],[-98.74786574,19.91287608],[-98.74811197,19.91281951],[-98.74826482,19.91285475],[-98.74830178,19.91291609],[-98.74845931,19.91292069],[-98.74866782,19.91291662],[-98.74903385,19.91290837],[-98.74910803,19.91287783],[-98.74918694,19.91278602],[-98.74925657,19.91270731],[-98.74937718,19.91261117],[-98.74946998,19.91251937],[-98.74951182,19.91243625],[-98.74952588,19.91233558],[-98.74952602,19.91224803],[-98.74961423,19.91213434],[-98.74971738,19.91201857],[-98.74981935,19.91189463],[-98.74990489,19.91178309],[-98.75001995,19.91167778],[-98.75012182,19.91161898],[-98.7501908,19.91158808],[-98.75022692,19.91158192],[-98.75030237,19.91161925],[-98.75044194,19.91167037],[-98.75061397,19.91167062],[-98.75093262,19.91162289],[-98.75120169,19.9115012],[-98.75129754,19.91142685],[-98.75138209,19.91137375],[-98.75156231,19.91136869],[-98.75168622,19.91135291],[-98.75185529,19.911268],[-98.75200189,19.91115115],[-98.75213154,19.9110662],[-98.75232866,19.91105051],[-98.75252575,19.91105611],[-98.75272286,19.91104042],[-98.7528018,19.910982],[-98.75291472,19.9107906],[-98.75302843,19.91064737],[-98.75314315,19.91048294],[-98.75326794,19.91025268],[-98.75335782,19.91006469],[-98.75340783,19.90990488],[-98.75343789,19.90977794],[-98.75351274,19.90966048],[-98.75372183,19.90961845],[-98.75394086,19.90959994],[-98.75407162,19.90952365],[-98.75414925,19.90929558],[-98.75437186,19.90900383],[-98.75460429,19.90845649],[-98.7546708,19.90802112],[-98.75489809,19.90737992],[-98.75527626,19.90673894],[-98.7556542,19.90624051],[-98.75588126,19.90574186],[-98.75610877,19.90495811],[-98.75680654,19.90336369],[-98.75660437,19.90228026],[-98.75633026,19.90127546],[-98.75554215,19.90160918],[-98.75446445,19.90018132],[-98.75412671,19.89972728],[-98.75365448,19.89920877],[-98.75364015,19.89920262],[-98.7531724,19.89877551],[-98.75261977,19.89832326],[-98.75171532,19.89765669],[-98.7513124,19.89736298],[-98.751593,19.89688649],[-98.75199989,19.89613094],[-98.75206812,19.895737],[-98.75238554,19.89452218],[-98.75267883,19.89412751],[-98.75297214,19.89370649],[-98.75356397,19.89280989],[-98.75337617,19.89181282],[-98.75297563,19.89113943],[-98.75264258,19.89104169],[-98.7526944,19.89078206],[-98.75249405,19.89012455],[-98.75222489,19.88996052],[-98.75223505,19.88962412],[-98.75220468,19.88905305],[-98.75192875,19.88860195],[-98.75190069,19.88825037],[-98.75220028,19.88794017],[-98.75245597,19.88769925],[-98.75265138,19.88744783],[-98.75271729,19.88726188],[-98.75273583,19.88701688],[-98.75273626,19.88670835],[-98.75274792,19.88636269],[-98.75278846,19.88578125],[-98.75276649,19.88530568],[-98.75270666,19.88469308],[-98.75259272,19.88405208],[-98.75262772,19.88371542],[-98.75271875,19.88355403],[-98.75270895,19.88332362],[-98.75282126,19.88295898],[-98.75302671,19.88235494],[-98.75307202,19.88209198],[-98.75310869,19.88159145],[-98.75317674,19.88135238],[-98.75321266,19.88114215],[-98.75330234,19.88071328],[-98.75345428,19.88030974],[-98.75365054,19.8800156],[-98.75381071,19.87969431],[-98.75392989,19.87931114],[-98.75402023,19.87920143],[-98.75418311,19.87881315],[-98.7541548,19.87823632],[-98.75455232,19.87783534],[-98.75454514,19.87759272],[-98.75473208,19.8772438],[-98.75476612,19.87706228],[-98.75469905,19.87679046],[-98.75477622,19.8767754],[-98.75517651,19.8766864],[-98.75533575,19.87658077],[-98.75591946,19.87646528],[-98.75620632,19.87638718],[-98.75635609,19.87626345],[-98.75677683,19.87615192],[-98.75713398,19.87610343],[-98.75778186,19.87591588],[-98.7588554,19.87557614],[-98.76042597,19.87514994],[-98.76098528,19.87501628],[-98.76125332,19.8750172],[-98.76135565,19.87498823],[-98.76145097,19.87490238],[-98.76317231,19.87545105],[-98.76471342,19.8758776],[-98.76616817,19.87628845],[-98.76730983,19.87660226],[-98.76908191,19.87753311],[-98.76948668,19.87777594],[-98.76992851,19.87795902],[-98.77038534,19.87819434],[-98.77065935,19.87835317],[-98.77099823,19.87851843],[-98.772578158,19.879040834],[-98.77269909,19.87908082],[-98.772707333,19.879084503],[-98.772746001,19.879101782],[-98.77313282,19.87927463],[-98.77360997,19.87952542],[-98.77400038,19.87977434],[-98.77485383,19.88027934],[-98.77518614,19.88052058],[-98.77556709,19.88074112],[-98.776049355,19.880998425],[-98.776129507,19.881041189],[-98.77622448,19.88109186],[-98.776555765,19.88117884],[-98.776559123,19.881179722],[-98.77659294,19.8811886],[-98.776734541,19.881267811],[-98.7770108,19.88142235],[-98.77739808,19.88166029],[-98.777739965,19.881800669],[-98.77787445,19.88185589],[-98.77782713,19.881934459],[-98.77782145,19.88194389],[-98.77901346,19.88257983],[-98.78057412,19.88354055],[-98.78750514,19.87892095],[-98.79392682,19.87208409],[-98.793753369,19.872058665],[-98.79294717,19.87194049],[-98.79212252,19.87161703],[-98.792039024,19.871554892],[-98.7916212,19.87124394],[-98.79116665,19.87051709],[-98.79116602,19.86969592],[-98.79129922,19.86937632],[-98.79142754,19.86888269],[-98.791292681,19.868858496],[-98.79115948,19.8688346],[-98.790996718,19.868806027],[-98.790902921,19.868789561],[-98.789901231,19.868613708],[-98.78949671,19.86854269],[-98.789504738,19.868525286],[-98.789520337,19.868491465],[-98.79106422,19.86514402],[-98.790933456,19.865088377],[-98.790572828,19.86493492],[-98.79021248,19.86478158],[-98.790229562,19.864763449],[-98.79065378,19.86431317],[-98.79002195,19.86354558],[-98.79079298,19.86228065],[-98.78972154,19.86188685],[-98.79067409,19.86090162],[-98.79098185,19.86070925],[-98.79125069,19.86048758],[-98.79192362,19.85999306],[-98.7923352,19.8598],[-98.79252214,19.85940705],[-98.79272898,19.85914292],[-98.79304205,19.85864374],[-98.79360509,19.85780975],[-98.79376337,19.85756015],[-98.79404211,19.85723291],[-98.79428629,19.85706283],[-98.79458311,19.85689931],[-98.79484969,19.85661108],[-98.79517248,19.85641469],[-98.797082601,19.857244149],[-98.79720392,19.85729683],[-98.79719622,19.85742563],[-98.797387208,19.857577079],[-98.79742962,19.85761071],[-98.79808669,19.85797351],[-98.79903738,19.85853385],[-98.799507579,19.858824805],[-98.79961415,19.85889075],[-98.80000198,19.85919532],[-98.80029171,19.85940525],[-98.80067975,19.85967769],[-98.80083849,19.85999109],[-98.80094306,19.86022054],[-98.801171193,19.860495355],[-98.80117182,19.86049611],[-98.8013668,19.860709858],[-98.80140391,19.86075054],[-98.801414487,19.860768323],[-98.801652375,19.86116829],[-98.801689296,19.861230366],[-98.80169825,19.86124542],[-98.801728676,19.861245126],[-98.80184297,19.86124402],[-98.80208638,19.86130772],[-98.80229934,19.86135372],[-98.80249562,19.86140974],[-98.80293217,19.8616328],[-98.80311382,19.86167531],[-98.80336512,19.8617708],[-98.80370531,19.86188168],[-98.80413322,19.8620374],[-98.80446585,19.86219782],[-98.80461591,19.86225917],[-98.804756555,19.862339138],[-98.80483018,19.862381],[-98.80506585,19.86255691],[-98.80531575,19.86275985],[-98.80565848,19.86305072],[-98.805681651,19.863102546],[-98.805698896,19.863141118],[-98.80579065,19.86334634],[-98.80590911,19.86378437],[-98.8059962,19.86415026],[-98.8060968,19.86448728],[-98.806126629,19.864516065],[-98.80619937,19.86458626],[-98.80652662,19.86462923],[-98.80686146,19.86467488],[-98.80750734,19.86471242],[-98.80799149,19.86460851],[-98.80876328,19.86446626],[-98.80933654,19.86452469],[-98.80959377,19.86461075],[-98.80992374,19.86473405],[-98.81020388,19.86482206],[-98.81046346,19.86484805],[-98.81074442,19.86495914],[-98.81097243,19.86503178],[-98.81123289,19.86508263],[-98.811512,19.86516991],[-98.81187606,19.86531015],[-98.81242025,19.86546051],[-98.81284765,19.8656048],[-98.81316449,19.86566874],[-98.813561728,19.86582652],[-98.81367558,19.86587174],[-98.81378788,19.86644911],[-98.81417642,19.86724649],[-98.814714556,19.867741571],[-98.81482635,19.86784442],[-98.81552997,19.86814928],[-98.81623368,19.86896938],[-98.81713525,19.86728415],[-98.82095857,19.86956211],[-98.82305817,19.87081429],[-98.82336372,19.87087603],[-98.82723377,19.87327303],[-98.8283254,19.87385994],[-98.829304749,19.87438797],[-98.829366909,19.87442008],[-98.830201857,19.87489605],[-98.831150849,19.87546149],[-98.831183385,19.875480876],[-98.8315684,19.87571029],[-98.832441739,19.876240741],[-98.832488939,19.87626938],[-98.83818214,19.87942054],[-98.83665426,19.88121952],[-98.84008774,19.88160278],[-98.84186297,19.88162922],[-98.84245034,19.88165357],[-98.84322752,19.88174935],[-98.84403368,19.88198826],[-98.84399534,19.88222328],[-98.84356337,19.88369478],[-98.84257332,19.88701317],[-98.84219682,19.88826737],[-98.84155965,19.89036948],[-98.84152708,19.89044635],[-98.84095155,19.89230886],[-98.84119148,19.89237178],[-98.85126128,19.90060545],[-98.85583002,19.90428015],[-98.85862737,19.90097091],[-98.86149211,19.89776154],[-98.86564155,19.89331028],[-98.86589594,19.89258689],[-98.86602505,19.89265318],[-98.86612165,19.89270278],[-98.87061995,19.89495803],[-98.86376565,19.902393031],[-98.86073289,19.90581862],[-98.85914088,19.90769086],[-98.85689175,19.910158751],[-98.857109879,19.91033782],[-98.854824089,19.91288255],[-98.85513446,19.913164691],[-98.855451089,19.913452091],[-98.855766689,19.91374086],[-98.85608162,19.914029921],[-98.85639745,19.914318781],[-98.856714629,19.914605171],[-98.857030259,19.914892881],[-98.85734846,19.915179741],[-98.857664459,19.915467911],[-98.85798232,19.915755651],[-98.858298799,19.916042921],[-98.858613939,19.91633169],[-98.858928909,19.91662114],[-98.859244089,19.916910051],[-98.8595608,19.91719755],[-98.859878549,19.917483941],[-98.86019323,19.917774171],[-98.860510059,19.91806123],[-98.860828079,19.918347521],[-98.861142679,19.91863623],[-98.86146037,19.9189238],[-98.861775309,19.919212461],[-98.86208898,19.919502311],[-98.86232477,19.919704351],[-98.864055119,19.921530261],[-98.86889423,19.925978911],[-98.873276059,19.929861051],[-98.87617475,19.93259626],[-98.87585608,19.93340683],[-98.87420086,19.93704931],[-98.87372228,19.937956],[-98.87275042,19.93952663],[-98.87166262,19.94153329],[-98.87125554,19.94226325],[-98.86328857,19.93753325],[-98.86325785,19.93757962],[-98.863022,19.93789166],[-98.86154017,19.93703358],[-98.86151552,19.93701755],[-98.86182528,19.93655717],[-98.86179535,19.93653342],[-98.860376,19.93563237],[-98.86028483,19.93578578],[-98.84298295,19.92572475],[-98.83835603,19.93073991],[-98.83392434,19.93575154],[-98.82892158,19.94128085],[-98.82416226,19.94646928],[-98.82077238,19.95031098],[-98.81362695,19.95832534],[-98.80983443,19.96265158],[-98.80590886,19.96691483],[-98.80320278,19.97003215],[-98.80279357,19.97040288],[-98.80268645,19.97041886],[-98.80232854,19.97083666],[-98.80230262,19.97085511],[-98.80087497,19.97238691],[-98.80027631,19.97125842]]]]},"properties":{"municipality":"Villa de Tezontepec","official_key":"13066","CVE_ENT":"13","CVE_MUN":"066","geometry_kind":"municipality","source":"INEGI Gaia — Servicio vectorial del Marco Geoestadístico"}},"features":[{"type":"Feature","geometry":{"type":"MultiPolygon","crs":{"type":"name","properties":{"name":"EPSG:6365"}},"coordinates":[[[[-98.811340006,19.889854005],[-98.811296967,19.88937344],[-98.811232594,19.889151485],[-98.811244614,19.889031323],[-98.811112523,19.889012538],[-98.811076973,19.889013181],[-98.810983107,19.889014878],[-98.810015015,19.888974462],[-98.808988953,19.88890937],[-98.807936246,19.888588031],[-98.80714803,19.888334538],[-98.806556076,19.888146846],[-98.80646325,19.888117105],[-98.806029803,19.887978225],[-98.805728182,19.887881581],[-98.805314322,19.887734923],[-98.805522027,19.88716615],[-98.805738168,19.886574269],[-98.806222778,19.885247194],[-98.807572212,19.885129119],[-98.808406661,19.885081664],[-98.809020559,19.885257861],[-98.809394185,19.884453524],[-98.809802831,19.883601785],[-98.809318215,19.883405601],[-98.809530492,19.882986492],[-98.810229169,19.881618754],[-98.810592292,19.880937909],[-98.810734953,19.880964092],[-98.811141076,19.880062308],[-98.811524107,19.879169492],[-98.809055985,19.878283415],[-98.808914785,19.878222877],[-98.809522153,19.876571939],[-98.809775322,19.875930723],[-98.810273122,19.874823509],[-98.810676614,19.873907769],[-98.810865,19.873487924],[-98.812350845,19.874111646],[-98.812859707,19.874318708],[-98.813589399,19.873584077],[-98.813375415,19.873327692],[-98.812896815,19.872743447],[-98.813045953,19.872736693],[-98.813343092,19.872870492],[-98.813679076,19.873003062],[-98.814340537,19.873301754],[-98.814651508,19.873304355],[-98.815302785,19.873618154],[-98.815049784,19.874296815],[-98.815366185,19.874428538],[-98.815151692,19.875112293],[-98.815081923,19.875279647],[-98.815256215,19.875362338],[-98.816717014,19.875914892],[-98.817443954,19.876061216],[-98.817743369,19.876074324],[-98.81799271,19.876093876],[-98.818639369,19.876148692],[-98.818523108,19.874975462],[-98.819475883,19.874245729],[-98.819504167,19.874224067],[-98.81941898,19.874162074],[-98.819328107,19.874078105],[-98.819258692,19.873984048],[-98.819193104,19.873861748],[-98.819133488,19.873745105],[-98.819074175,19.873626244],[-98.818993558,19.873470959],[-98.81895597,19.87334259],[-98.818939837,19.873153682],[-98.819039041,19.873201885],[-98.819209343,19.873357157],[-98.819345796,19.87347291],[-98.819450062,19.873538213],[-98.820061265,19.87394405],[-98.820645648,19.874261599],[-98.821266338,19.874583801],[-98.821794262,19.873831523],[-98.822116722,19.873997355],[-98.822180738,19.873896646],[-98.823258431,19.874135555],[-98.824336122,19.874374478],[-98.825413814,19.87461337],[-98.826491523,19.874852262],[-98.826480184,19.874894938],[-98.826363938,19.875006032],[-98.826430615,19.874990878],[-98.827208369,19.874833354],[-98.828231,19.874619554],[-98.829304749,19.87438797],[-98.829366909,19.87442008],[-98.830201859,19.87489605],[-98.831150849,19.87546149],[-98.831183385,19.875480876],[-98.831568399,19.87571029],[-98.832441739,19.876240741],[-98.832488939,19.87626938],[-98.83174943,19.877813938],[-98.831539568,19.878308493],[-98.831429599,19.878585523],[-98.830107599,19.878085969],[-98.830132137,19.878015538],[-98.829835399,19.877904724],[-98.829461985,19.878827878],[-98.829088584,19.879751047],[-98.829349445,19.880319677],[-98.829616584,19.880411308],[-98.829882445,19.8804592],[-98.830081323,19.880472785],[-98.830324814,19.880467724],[-98.830548646,19.880438831],[-98.830829322,19.880425939],[-98.831214062,19.88040277],[-98.83201903,19.88037817],[-98.832659261,19.880490954],[-98.83214123,19.88137137],[-98.831623168,19.882251785],[-98.832383645,19.882566231],[-98.831750708,19.883554446],[-98.831117753,19.884542678],[-98.831213307,19.884542755],[-98.831317061,19.884547524],[-98.831460322,19.884596001],[-98.831709399,19.884716415],[-98.832074446,19.884905585],[-98.832469938,19.885085615],[-98.832600908,19.885063816],[-98.8327296,19.884841277],[-98.8328324,19.884729278],[-98.833098246,19.884614431],[-98.833211937,19.884614538],[-98.833305322,19.884648046],[-98.833472461,19.884784046],[-98.833605722,19.88485277],[-98.833811261,19.884977386],[-98.833862891,19.885052831],[-98.834007015,19.885193663],[-98.834109999,19.885259215],[-98.834096954,19.885330123],[-98.833951137,19.886280123],[-98.833805291,19.887230138],[-98.833505399,19.887050154],[-98.833271538,19.887507],[-98.832512985,19.889162554],[-98.831878907,19.888679693],[-98.831579892,19.888454646],[-98.830624722,19.889629908],[-98.830118876,19.889378662],[-98.829995491,19.888127109],[-98.829032568,19.887406969],[-98.828514877,19.887019739],[-98.828514857,19.88701978],[-98.82827174,19.887528753],[-98.827983824,19.888062343],[-98.827592668,19.888890824],[-98.827459003,19.889212335],[-98.827400106,19.889245422],[-98.827322434,19.889230584],[-98.827207321,19.88916308],[-98.827131101,19.889099358],[-98.827092434,19.889023025],[-98.826471946,19.890452831],[-98.82639863,19.890513074],[-98.826315926,19.890524983],[-98.826243954,19.890526803],[-98.826141134,19.890518533],[-98.826057091,19.890469909],[-98.824970876,19.885523155],[-98.824012645,19.885228415],[-98.823054415,19.884933692],[-98.822096169,19.884638938],[-98.821731722,19.885510755],[-98.821367276,19.886382586],[-98.821002846,19.887254416],[-98.820638385,19.888126246],[-98.820273923,19.888998063],[-98.819909472,19.889869877],[-98.819306765,19.889817886],[-98.819282045,19.889815754],[-98.81847821,19.889737161],[-98.818454062,19.889734801],[-98.817789137,19.88966957],[-98.817725784,19.889663355],[-98.817281492,19.889612756],[-98.817256892,19.889609954],[-98.816789092,19.889558708],[-98.81629813,19.889514183],[-98.815413284,19.892517538],[-98.813226709,19.891594845],[-98.81085463,19.890501447],[-98.811307694,19.88995355],[-98.811340006,19.889854005]]]]},"properties":{"locality":"Tezontepec","municipality":null,"official_key":"130660001","CVE_ENT":"13","CVE_MUN":"066","CVE_LOC":"0001","ambito":"URBANO","geometry_kind":"locality","source":"INEGI Gaia — Servicio vectorial del Marco Geoestadístico"}},{"type":"Feature","geometry":{"type":"MultiPolygon","crs":{"type":"name","properties":{"name":"EPSG:6365"}},"coordinates":[[[[-98.763854864,19.920911941],[-98.765392393,19.920853342],[-98.765766013,19.920843322],[-98.765849989,19.920896237],[-98.765912506,19.920989499],[-98.765994992,19.921216999],[-98.766002771,19.921607194],[-98.766005058,19.921721885],[-98.766011685,19.92192798],[-98.766014065,19.922001977],[-98.766068715,19.922199208],[-98.766069721,19.922288003],[-98.766044911,19.922435338],[-98.766048933,19.922936781],[-98.765648503,19.922819511],[-98.765479234,19.923475552],[-98.763682394,19.922875851],[-98.763690815,19.922523371],[-98.763002861,19.922286635],[-98.763138824,19.921850522],[-98.763207745,19.921899001],[-98.763265477,19.921724064],[-98.763566244,19.920930721],[-98.763854864,19.920911941]]]]},"properties":{"locality":"Acozac","municipality":null,"official_key":"130660002","CVE_ENT":"13","CVE_MUN":"066","CVE_LOC":"0002","ambito":"RURAL","geometry_kind":"locality","source":"INEGI Gaia — Servicio vectorial del Marco Geoestadístico"}},{"type":"Feature","geometry":{"type":"MultiPolygon","crs":{"type":"name","properties":{"name":"EPSG:6365"}},"coordinates":[[[[-98.795399924,19.944489465],[-98.795011053,19.944090204],[-98.794929173,19.94411966],[-98.794858286,19.944113364],[-98.794591926,19.944318989],[-98.794246941,19.943788567],[-98.79462441,19.94348947],[-98.79415715,19.942825078],[-98.793812306,19.942320766],[-98.793472753,19.941933975],[-98.793210341,19.941656308],[-98.792400055,19.940717484],[-98.79228554,19.940682941],[-98.792120799,19.940640222],[-98.791779113,19.94059304],[-98.791470777,19.940580191],[-98.791438633,19.940694404],[-98.791277609,19.940745893],[-98.791075961,19.940766548],[-98.790784605,19.940692243],[-98.79041884,19.940593496],[-98.79019292,19.94049699],[-98.790232886,19.94029986],[-98.79027823,19.940072973],[-98.790302116,19.939987286],[-98.790315181,19.939897779],[-98.790296059,19.939808275],[-98.790338586,19.939725589],[-98.790231946,19.939711646],[-98.790200405,19.939687617],[-98.789846412,19.939704841],[-98.789606194,19.93909085],[-98.78964528,19.938767381],[-98.789201497,19.938470141],[-98.789301435,19.938178896],[-98.789027005,19.937957394],[-98.788632286,19.937721557],[-98.788529758,19.937651492],[-98.788442015,19.93763152],[-98.788177895,19.937567274],[-98.787974861,19.937510258],[-98.787794283,19.937450389],[-98.787676434,19.937391671],[-98.787558631,19.937310869],[-98.787411234,19.937164576],[-98.787342316,19.937035902],[-98.78759575,19.936662426],[-98.787873108,19.936271243],[-98.788192362,19.936445448],[-98.788420325,19.936610078],[-98.789013396,19.936936403],[-98.789495453,19.937174512],[-98.789841192,19.937358393],[-98.790113054,19.937555866],[-98.790372106,19.937191566],[-98.789665562,19.93664572],[-98.790580629,19.936103705],[-98.79223114,19.936725321],[-98.792885365,19.937079628],[-98.793088978,19.937136403],[-98.793539298,19.937106865],[-98.79335867,19.937869402],[-98.793116345,19.938649358],[-98.79293008,19.939131988],[-98.792969551,19.939156332],[-98.794596387,19.940164122],[-98.794496648,19.94039442],[-98.794379354,19.940634242],[-98.794268378,19.940821419],[-98.794576201,19.941011073],[-98.79482533,19.941170972],[-98.794959742,19.941070344],[-98.795397367,19.941171378],[-98.795402805,19.941173397],[-98.795004205,19.94163479],[-98.795691701,19.942341299],[-98.795135661,19.943111633],[-98.795352234,19.943403386],[-98.795693654,19.943055791],[-98.796092301,19.943229149],[-98.796205258,19.943414461],[-98.795754235,19.944006632],[-98.795839383,19.944143693],[-98.795399924,19.944489465]]]]},"properties":{"locality":"La Cantera","municipality":null,"official_key":"130660003","CVE_ENT":"13","CVE_MUN":"066","CVE_LOC":"0003","ambito":"RURAL","geometry_kind":"locality","source":"INEGI Gaia — Servicio vectorial del Marco Geoestadístico"}},{"type":"Feature","geometry":{"type":"MultiPolygon","crs":{"type":"name","properties":{"name":"EPSG:6365"}},"coordinates":[[[[-98.797504521,19.867096368],[-98.797166563,19.867684126],[-98.797230937,19.867721964],[-98.796013214,19.869734956],[-98.79521928,19.86927081],[-98.794629193,19.869084143],[-98.793344416,19.868828104],[-98.793073513,19.868809186],[-98.792370773,19.868882339],[-98.792027451,19.86889243],[-98.790965297,19.868756211],[-98.792022087,19.866712935],[-98.79144273,19.866536356],[-98.79166267,19.866031838],[-98.791228152,19.865764443],[-98.791501737,19.865374701],[-98.791582204,19.865285149],[-98.790343023,19.864727655],[-98.790748036,19.864276106],[-98.791153052,19.864568729],[-98.791384476,19.864263966],[-98.791406687,19.864120649],[-98.791590587,19.863834016],[-98.791797451,19.863815726],[-98.791900047,19.863647972],[-98.791809521,19.863053893],[-98.791890322,19.862766943],[-98.791885293,19.862712075],[-98.791877247,19.862651531],[-98.792327857,19.861960326],[-98.79381112,19.864339171],[-98.794639922,19.865481912],[-98.79535339,19.865744262],[-98.795964933,19.866087335],[-98.796820558,19.8666196],[-98.797504521,19.867096368]]],[[[-98.803809348,19.867925344],[-98.803197805,19.868278501],[-98.802275125,19.869736531],[-98.802012268,19.869610404],[-98.801824514,19.869600313],[-98.801803056,19.869549862],[-98.801744047,19.869580134],[-98.800622884,19.869121031],[-98.800622884,19.869065536],[-98.800579968,19.868989859],[-98.799442712,19.868470214],[-98.798525396,19.867847143],[-98.798871402,19.867359026],[-98.800246034,19.867639663],[-98.800740901,19.867617589],[-98.802044455,19.868187688],[-98.802602354,19.867990928],[-98.802698915,19.868081741],[-98.803294364,19.86762768],[-98.803809348,19.867925344]]]]},"properties":{"locality":"El Capulín","municipality":null,"official_key":"130660004","CVE_ENT":"13","CVE_MUN":"066","CVE_LOC":"0004","ambito":"RURAL","geometry_kind":"locality","source":"INEGI Gaia — Servicio vectorial del Marco Geoestadístico"}},{"type":"Feature","geometry":{"type":"MultiPolygon","crs":{"type":"name","properties":{"name":"EPSG:6365"}},"coordinates":[[[[-98.802136853,19.887554533],[-98.802319229,19.887151001],[-98.8016456,19.887017831],[-98.80054783,19.886815981],[-98.79960891,19.88663366],[-98.799608811,19.88663364],[-98.799308275,19.886572564],[-98.799663307,19.885102105],[-98.801640509,19.885523628],[-98.802075145,19.884390226],[-98.80252662,19.884512586],[-98.802843399,19.88458643],[-98.803116979,19.88465037],[-98.803406719,19.88470402],[-98.80366529,19.88477585],[-98.803699979,19.88478802],[-98.803796539,19.884821891],[-98.80388466,19.88484635],[-98.803932569,19.88485577],[-98.80403569,19.88487602],[-98.804315169,19.88493352],[-98.804581709,19.88499088],[-98.80499043,19.885073741],[-98.805384479,19.88517042],[-98.805705289,19.885231951],[-98.80587331,19.885274491],[-98.806114649,19.885286171],[-98.80618187,19.885288094],[-98.806222778,19.885247194],[-98.805738168,19.886574269],[-98.805522027,19.88716615],[-98.805314322,19.887734923],[-98.804756045,19.887578601],[-98.804462722,19.888446169],[-98.804129615,19.889394815],[-98.803938937,19.889960815],[-98.8036375,19.890808554],[-98.803489935,19.891247518],[-98.803351592,19.891659046],[-98.803059031,19.892529277],[-98.802786046,19.893300185],[-98.802667954,19.8936336],[-98.802260345,19.893595625],[-98.801432669,19.893422413],[-98.800965255,19.893339331],[-98.800447682,19.893226563],[-98.799955336,19.893133443],[-98.800359387,19.892146947],[-98.800616763,19.89148493],[-98.800947068,19.890649573],[-98.801173044,19.890069695],[-98.801563611,19.889078946],[-98.801896808,19.888135101],[-98.802008784,19.887832206],[-98.802136853,19.887554533]]]]},"properties":{"locality":"Chamberluco","municipality":null,"official_key":"130660005","CVE_ENT":"13","CVE_MUN":"066","CVE_LOC":"0005","ambito":"RURAL","geometry_kind":"locality","source":"INEGI Gaia — Servicio vectorial del Marco Geoestadístico"}},{"type":"Feature","geometry":{"type":"MultiPolygon","crs":{"type":"name","properties":{"name":"EPSG:6365"}},"coordinates":[[[[-98.802532557,19.89404636],[-98.802667954,19.8936336],[-98.802786046,19.893300185],[-98.803059031,19.892529277],[-98.803351592,19.891659046],[-98.803489935,19.891247518],[-98.8036375,19.890808554],[-98.803938937,19.889960815],[-98.804129615,19.889394815],[-98.804462722,19.888446169],[-98.804756045,19.887578601],[-98.805314322,19.887734923],[-98.805728182,19.887881581],[-98.806029803,19.887978225],[-98.80646325,19.888117105],[-98.806556076,19.888146846],[-98.80714803,19.888334538],[-98.807936246,19.888588031],[-98.808988953,19.88890937],[-98.810015015,19.888974462],[-98.810983107,19.889014878],[-98.811076973,19.889013181],[-98.811112523,19.889012538],[-98.811244614,19.889031323],[-98.811232594,19.889151485],[-98.811296967,19.88937344],[-98.811340006,19.889854005],[-98.811307694,19.88995355],[-98.81085463,19.890501447],[-98.810627907,19.890756032],[-98.809925999,19.891595815],[-98.809836015,19.891707554],[-98.809574768,19.8921232],[-98.809474677,19.892287354],[-98.809519046,19.892318431],[-98.810477904,19.892824083],[-98.809193978,19.894551091],[-98.808374877,19.894154169],[-98.808520046,19.894935985],[-98.8084582,19.895634462],[-98.808376948,19.89576377],[-98.808357674,19.895765141],[-98.808340421,19.895766369],[-98.804987169,19.894066031],[-98.802328062,19.896002538],[-98.8022861,19.895753169],[-98.802273395,19.895388806],[-98.802261484,19.895047215],[-98.802258246,19.894804877],[-98.802440154,19.894331154],[-98.802532557,19.89404636]]]]},"properties":{"locality":"Benito Juárez","municipality":null,"official_key":"130660008","CVE_ENT":"13","CVE_MUN":"066","CVE_LOC":"0008","ambito":"URBANO","geometry_kind":"locality","source":"INEGI Gaia — Servicio vectorial del Marco Geoestadístico"}},{"type":"Feature","geometry":{"type":"MultiPolygon","crs":{"type":"name","properties":{"name":"EPSG:6365"}},"coordinates":[[[[-98.787275642,19.950261404],[-98.787955179,19.950652839],[-98.788089177,19.951062448],[-98.788202808,19.951737521],[-98.788272498,19.952258557],[-98.78844154,19.952596118],[-98.788330759,19.952610653],[-98.787810245,19.952359723],[-98.787405738,19.952165226],[-98.786900794,19.951926618],[-98.786664139,19.952143517],[-98.786587769,19.952114461],[-98.785870179,19.951783311],[-98.785588349,19.951672],[-98.785403779,19.951619481],[-98.78529311,19.95158483],[-98.785267139,19.951581581],[-98.78513058,19.951599461],[-98.78505817,19.951644291],[-98.784903709,19.95174846],[-98.784835079,19.95175306],[-98.784717709,19.951710821],[-98.78460742,19.951659231],[-98.78445449,19.95159943],[-98.783797709,19.951311511],[-98.78375818,19.95129382],[-98.783656079,19.951248061],[-98.783356489,19.95111471],[-98.782975136,19.950965521],[-98.782646666,19.95083609],[-98.782432309,19.95095405],[-98.78237137,19.95099826],[-98.782324259,19.951032431],[-98.78223855,19.951110111],[-98.782048079,19.951290231],[-98.78183512,19.95148643],[-98.781725739,19.95157338],[-98.781550419,19.951696571],[-98.78140646,19.95182292],[-98.78126057,19.95194275],[-98.781204199,19.952004951],[-98.781138049,19.952093021],[-98.781006279,19.95229462],[-98.780922659,19.95248134],[-98.780848429,19.95266931],[-98.780746029,19.952951661],[-98.78066515,19.95321188],[-98.780577749,19.95353508],[-98.78051412,19.953771451],[-98.78037568,19.9541578],[-98.78028622,19.95443482],[-98.780239949,19.95463311],[-98.78016857,19.95480498],[-98.77996825,19.95518629],[-98.779952629,19.955204481],[-98.779846705,19.955240866],[-98.77965545,19.95491077],[-98.779572679,19.954305231],[-98.779473459,19.954075721],[-98.77930786,19.95373525],[-98.778818889,19.95294546],[-98.77867214,19.95269663],[-98.778327889,19.95204712],[-98.77794238,19.951384001],[-98.777709779,19.950969891],[-98.77746214,19.95054595],[-98.776972619,19.949900381],[-98.77690983,19.949832601],[-98.777236659,19.94968322],[-98.777450149,19.949610341],[-98.777684719,19.94953772],[-98.777895249,19.949457921],[-98.778132679,19.94938935],[-98.778938889,19.949099341],[-98.77985677,19.94872778],[-98.781042709,19.948224711],[-98.781411398,19.947999389],[-98.781868938,19.947768739],[-98.7822304,19.947606873],[-98.782425686,19.947500866],[-98.782618409,19.947397708],[-98.78285278,19.947269051],[-98.783197859,19.947019451],[-98.783540909,19.946786091],[-98.78394997,19.9465298],[-98.784440656,19.946244569],[-98.784593169,19.946176173],[-98.784702228,19.946210533],[-98.784748624,19.946289551],[-98.784809855,19.946409748],[-98.784894396,19.946526613],[-98.785920725,19.947050873],[-98.785585529,19.947460042],[-98.784641745,19.948652223],[-98.786063305,19.949557616],[-98.786516587,19.949811182],[-98.787275642,19.950261404]]]]},"properties":{"locality":"El Tejocote","municipality":null,"official_key":"130660011","CVE_ENT":"13","CVE_MUN":"066","CVE_LOC":"0011","ambito":"RURAL","geometry_kind":"locality","source":"INEGI Gaia — Servicio vectorial del Marco Geoestadístico"}},{"type":"Feature","geometry":{"type":"MultiPolygon","crs":{"type":"name","properties":{"name":"EPSG:6365"}},"coordinates":[[[[-98.792731555,19.877747114],[-98.793210501,19.876816511],[-98.794287964,19.877263661],[-98.794324894,19.877516833],[-98.794641624,19.877638739],[-98.794680769,19.87785502],[-98.794998904,19.878013493],[-98.79474292,19.878551651],[-98.795152124,19.878751809],[-98.795105032,19.878824371],[-98.793932364,19.880631293],[-98.793929805,19.880635236],[-98.791859195,19.879477197],[-98.792317879,19.8782392],[-98.792458803,19.877986839],[-98.792552418,19.877919182],[-98.792645347,19.877880524],[-98.792780373,19.877877579],[-98.792731555,19.877747114]]]]},"properties":{"locality":"Tlexpa","municipality":null,"official_key":"130660013","CVE_ENT":"13","CVE_MUN":"066","CVE_LOC":"0013","ambito":"RURAL","geometry_kind":"locality","source":"INEGI Gaia — Servicio vectorial del Marco Geoestadístico"}},{"type":"Feature","geometry":{"type":"MultiPolygon","crs":{"type":"name","properties":{"name":"EPSG:6365"}},"coordinates":[[[[-98.769971308,19.9429342],[-98.769919907,19.94279357],[-98.769861907,19.942852154],[-98.769851922,19.943266138],[-98.769858385,19.943500339],[-98.769856553,19.943613718],[-98.76982395,19.94359203],[-98.769624248,19.943459173],[-98.769239189,19.943203002],[-98.769152477,19.943145314],[-98.76901629,19.94305471],[-98.768873087,19.94294608],[-98.768788908,19.942882225],[-98.76853118,19.94268672],[-98.768237821,19.94252508],[-98.768164405,19.942484628],[-98.76814822,19.94247571],[-98.768076939,19.942438851],[-98.767974922,19.942367615],[-98.767963494,19.942359637],[-98.767676859,19.942159491],[-98.767433979,19.9420442],[-98.76726422,19.94189952],[-98.76704831,19.941794351],[-98.766939389,19.941727645],[-98.766893347,19.941699447],[-98.766683426,19.941570885],[-98.766679592,19.941568538],[-98.766594527,19.941516441],[-98.766553697,19.941491435],[-98.766491039,19.941453062],[-98.766459214,19.941433571],[-98.766410483,19.941403726],[-98.766373789,19.941381254],[-98.766337458,19.941359003],[-98.76631004,19.941342212],[-98.76626643,19.941315504],[-98.766219598,19.941286822],[-98.766167112,19.941254677],[-98.766107043,19.941217888],[-98.766092473,19.941208965],[-98.766039101,19.941176278],[-98.766025764,19.941168109],[-98.76600875,19.94115769],[-98.765984115,19.941146952],[-98.765983933,19.941146873],[-98.765967312,19.941139629],[-98.765944599,19.94112973],[-98.765931408,19.941123981],[-98.765922152,19.941119946],[-98.76588134,19.941102159],[-98.765872211,19.94109818],[-98.765869189,19.941096862],[-98.7658561,19.941091158],[-98.76584126,19.94108469],[-98.765822188,19.941074869],[-98.76581685,19.94107212],[-98.765745762,19.941035492],[-98.765672386,19.940997685],[-98.76567235,19.940997666],[-98.765672319,19.940997651],[-98.765672274,19.940997625],[-98.765666279,19.940994536],[-98.76560498,19.94096295],[-98.765589843,19.940955151],[-98.765572999,19.940946471],[-98.765491691,19.940904576],[-98.765468594,19.940892675],[-98.765402974,19.940858864],[-98.765400827,19.940857758],[-98.765392746,19.940853594],[-98.765268003,19.940789319],[-98.765262624,19.940786548],[-98.765227116,19.940768251],[-98.765151107,19.940729087],[-98.76505755,19.94068088],[-98.765042318,19.940671785],[-98.764972241,19.940629938],[-98.764953098,19.940618507],[-98.764908495,19.940591873],[-98.764904344,19.940589394],[-98.76483725,19.940549329],[-98.764826523,19.940542924],[-98.76481054,19.94053338],[-98.76476091,19.94049865],[-98.764684969,19.940454929],[-98.764658548,19.940439719],[-98.764624851,19.940420318],[-98.764609175,19.940411294],[-98.764525478,19.940363109],[-98.764480712,19.940337337],[-98.764404332,19.940293364],[-98.76436078,19.940268292],[-98.764004652,19.940041723],[-98.763902641,19.93997909],[-98.763515516,19.939744838],[-98.763247074,19.939587911],[-98.762762666,19.939285425],[-98.76174351,19.93867709],[-98.7608998,19.938196447],[-98.760453985,19.937947493],[-98.760127691,19.937757401],[-98.759208585,19.937221939],[-98.759170276,19.937145478],[-98.759202168,19.937115955],[-98.759248215,19.937097138],[-98.759309077,19.937030801],[-98.759422354,19.936638847],[-98.759556861,19.936476755],[-98.759604831,19.936431646],[-98.759879876,19.936108078],[-98.759985661,19.935988046],[-98.760146922,19.935774155],[-98.760350677,19.935649385],[-98.760732061,19.935414001],[-98.761102462,19.935158969],[-98.761315262,19.935017693],[-98.760836369,19.934675647],[-98.760580969,19.934483139],[-98.760679522,19.934350432],[-98.760985107,19.933933309],[-98.761223322,19.933636077],[-98.761384045,19.933428831],[-98.761671477,19.933644401],[-98.761882491,19.933758047],[-98.762077523,19.933826846],[-98.762350768,19.933989354],[-98.76265283,19.934180585],[-98.762847292,19.934180847],[-98.763059568,19.934104724],[-98.763859953,19.933800985],[-98.764275661,19.933645569],[-98.764208799,19.933579586],[-98.764064477,19.93346057],[-98.763244569,19.932872016],[-98.763138584,19.932707923],[-98.763999076,19.932026185],[-98.764109138,19.932169954],[-98.764527523,19.932676169],[-98.764933754,19.933118415],[-98.765115799,19.933319571],[-98.765154414,19.933362232],[-98.765708031,19.933186],[-98.766730168,19.932828493],[-98.767596891,19.932529769],[-98.767958031,19.932439785],[-98.768079154,19.932457292],[-98.768614522,19.932457985],[-98.768882737,19.932384031],[-98.769176476,19.9324622],[-98.769513123,19.932596323],[-98.769630723,19.932785492],[-98.7697202,19.932995692],[-98.769818076,19.933240508],[-98.769937123,19.933466801],[-98.77020803,19.933985554],[-98.770488785,19.934486463],[-98.770573122,19.934782985],[-98.770709246,19.935051863],[-98.770941169,19.935354738],[-98.771161846,19.935803601],[-98.771197168,19.936000786],[-98.771147661,19.936167462],[-98.771177985,19.936424938],[-98.771275062,19.936590693],[-98.771569522,19.93695477],[-98.771837122,19.937154047],[-98.771881261,19.937500323],[-98.772200185,19.937683954],[-98.772199845,19.937912447],[-98.772350276,19.938414386],[-98.772519785,19.938604738],[-98.77278703,19.939043308],[-98.772962091,19.939511738],[-98.772977691,19.939769201],[-98.773036523,19.939921155],[-98.773141676,19.940237877],[-98.773267092,19.940397015],[-98.773525754,19.940703492],[-98.773664523,19.940957862],[-98.773939277,19.941424401],[-98.774245877,19.9419328],[-98.774497337,19.942359724],[-98.774796662,19.942572308],[-98.775015185,19.942813693],[-98.775092246,19.943029478],[-98.775288862,19.943265954],[-98.775461708,19.943483016],[-98.775419615,19.943603616],[-98.77531603,19.943859769],[-98.775315723,19.94408],[-98.775375292,19.944484739],[-98.775374662,19.9449288],[-98.775374061,19.945350646],[-98.775295031,19.945659016],[-98.775255477,19.945776031],[-98.775132231,19.946086663],[-98.775092462,19.946302463],[-98.775029631,19.946441539],[-98.774502641,19.946365686],[-98.774403831,19.946351463],[-98.773416354,19.945756586],[-98.772446723,19.945191462],[-98.771917291,19.944899986],[-98.771339677,19.944568047],[-98.770820954,19.944256339],[-98.770568722,19.944096923],[-98.770399785,19.943949386],[-98.770336181,19.943863592],[-98.770297476,19.943811385],[-98.770005384,19.943023785],[-98.769971308,19.9429342]]]]},"properties":{"locality":"Guadalupe [Colonia]","municipality":null,"official_key":"130660018","CVE_ENT":"13","CVE_MUN":"066","CVE_LOC":"0018","ambito":"RURAL","geometry_kind":"locality","source":"INEGI Gaia — Servicio vectorial del Marco Geoestadístico"}},{"type":"Feature","geometry":{"type":"MultiPolygon","crs":{"type":"name","properties":{"name":"EPSG:6365"}},"coordinates":[[[[-98.815413284,19.892517538],[-98.81629813,19.889514183],[-98.816789092,19.889558708],[-98.817256892,19.889609954],[-98.817281492,19.889612756],[-98.817725784,19.889663355],[-98.817789137,19.88966957],[-98.818454062,19.889734801],[-98.81847821,19.889737161],[-98.819282045,19.889815754],[-98.819037923,19.890312231],[-98.818814692,19.890734908],[-98.818453815,19.891462369],[-98.818402415,19.891594923],[-98.817871815,19.892603646],[-98.817811723,19.892702708],[-98.817731154,19.892840523],[-98.817635646,19.892992046],[-98.817308908,19.893665908],[-98.816813292,19.894653323],[-98.816799154,19.894713892],[-98.816733277,19.894880554],[-98.816290615,19.895773292],[-98.815966,19.896420123],[-98.815899938,19.895357077],[-98.815864815,19.894507462],[-98.815857754,19.894274077],[-98.815545877,19.894115385],[-98.815522292,19.8941042],[-98.814996445,19.893855123],[-98.815211046,19.893178724],[-98.815248768,19.893111647],[-98.815406122,19.892627154],[-98.815413284,19.892517538]]]]},"properties":{"locality":"Morelos [Colonia]","municipality":null,"official_key":"130660031","CVE_ENT":"13","CVE_MUN":"066","CVE_LOC":"0031","ambito":"RURAL","geometry_kind":"locality","source":"INEGI Gaia — Servicio vectorial del Marco Geoestadístico"}},{"type":"Feature","geometry":{"type":"MultiPolygon","crs":{"type":"name","properties":{"name":"EPSG:6365"}},"coordinates":[[[[-98.844206337,19.905418345],[-98.839271074,19.909413083],[-98.836224084,19.910381489],[-98.836145599,19.910284798],[-98.83386374,19.907516604],[-98.835288339,19.904820804],[-98.838155273,19.899890105],[-98.838713174,19.899708517],[-98.839356904,19.899930458],[-98.841834466,19.902743624],[-98.844099668,19.905298183],[-98.844206337,19.905418345]]]]},"properties":{"locality":"PLATAH [Parque Industrial]","municipality":null,"official_key":"130660032","CVE_ENT":"13","CVE_MUN":"066","CVE_LOC":"0032","ambito":"RURAL","geometry_kind":"locality","source":"INEGI Gaia — Servicio vectorial del Marco Geoestadístico"}},{"type":"Feature","geometry":{"type":"Polygon","coordinates":[[[-98.8226585,19.8848119],[-98.8229329,19.8840435],[-98.8242642,19.8844914],[-98.8248013,19.8846905],[-98.8249709,19.8855232],[-98.8240126,19.8852284],[-98.8230544,19.8849337],[-98.8226585,19.8848119]]]},"properties":{"locality":"SAN JERÓNIMO","official_key":"1306600010001","CVE_ENT":"13","CVE_MUN":"066","CVE_LOC":"0001","CVE_ASEN":"0001","settlement_type":"BARRIO","source":"INEGI DCAH 2025"}},{"type":"Feature","geometry":{"type":"Polygon","coordinates":[[[-98.8108546,19.8905014],[-98.8113077,19.8899536],[-98.81134,19.889854],[-98.811297,19.8893734],[-98.8112326,19.8891515],[-98.8112446,19.8890313],[-98.8111125,19.8890125],[-98.811077,19.8890132],[-98.8109831,19.8890149],[-98.810015,19.8889745],[-98.808989,19.8889094],[-98.8079362,19.888588],[-98.807148,19.8883345],[-98.8065561,19.8881468],[-98.8057282,19.8878816],[-98.8053143,19.8877349],[-98.805522,19.8871661],[-98.8057382,19.8865743],[-98.8062228,19.8852472],[-98.8075722,19.8851291],[-98.8084067,19.8850817],[-98.8090206,19.8852579],[-98.8093942,19.8844535],[-98.8098028,19.8836018],[-98.8093182,19.8834056],[-98.8095305,19.8829865],[-98.8102292,19.8816188],[-98.8105923,19.8809379],[-98.810735,19.8809641],[-98.8111411,19.8800623],[-98.8115241,19.8791695],[-98.809056,19.8782834],[-98.8089148,19.8782229],[-98.8095222,19.8765719],[-98.8098207,19.8766548],[-98.810276,19.8768102],[-98.8107011,19.8769579],[-98.8115073,19.8772348],[-98.8119527,19.8773841],[-98.8122807,19.877505],[-98.8123821,19.8775387],[-98.8129048,19.8777129],[-98.8141948,19.8781731],[-98.8153871,19.8785919],[-98.8161946,19.878885],[-98.8171331,19.8792062],[-98.8172807,19.8792769],[-98.8175908,19.8793862],[-98.8173929,19.8797752],[-98.8171967,19.88016],[-98.8171484,19.8802796],[-98.8171102,19.8803688],[-98.816698,19.8813026],[-98.8166841,19.8813706],[-98.8161767,19.8813814],[-98.8161523,19.8814123],[-98.8160972,19.8814823],[-98.8159944,19.8816121],[-98.8159355,19.8816757],[-98.8159405,19.881712],[-98.8170949,19.8820914],[-98.8167843,19.8829811],[-98.8167527,19.8830989],[-98.8165134,19.8837476],[-98.8164204,19.8839836],[-98.8163728,19.8841043],[-98.8163333,19.8841889],[-98.8162596,19.8843469],[-98.8159933,19.8848399],[-98.8158825,19.8850455],[-98.8158572,19.885089],[-98.8156864,19.8854091],[-98.8150043,19.8866875],[-98.8148027,19.8871153],[-98.8142644,19.8882572],[-98.81422,19.8883526],[-98.8138622,19.889121],[-98.8138272,19.8892782],[-98.8140106,19.8892976],[-98.8143933,19.8893379],[-98.8147663,19.8893772],[-98.8150279,19.8894048],[-98.8151584,19.8894185],[-98.8155696,19.8894618],[-98.8162287,19.8895313],[-98.8162981,19.8895142],[-98.8154133,19.8925175],[-98.8132267,19.8915948],[-98.8108546,19.8905014]],[[-98.8118207,19.8843656],[-98.8118027,19.8841611],[-98.8117423,19.8841953],[-98.8114732,19.8843144],[-98.8112755,19.8844065],[-98.8111945,19.8844469],[-98.8108538,19.8846176],[-98.8104783,19.8848161],[-98.8102795,19.8849273],[-98.8100741,19.885048],[-98.8099183,19.8851736],[-98.8101812,19.8854916],[-98.8104117,19.885729],[-98.8106178,19.885878],[-98.8108245,19.8859803],[-98.8109839,19.8860591],[-98.8115312,19.8861933],[-98.8116816,19.8857692],[-98.8117056,19.8856087],[-98.8117494,19.8853171],[-98.8117857,19.8848783],[-98.8118207,19.8843656]]]},"properties":{"locality":"SAN JUAN","official_key":"1306600010002","CVE_ENT":"13","CVE_MUN":"066","CVE_LOC":"0001","CVE_ASEN":"0002","settlement_type":"BARRIO","source":"INEGI DCAH 2025"}},{"type":"Feature","geometry":{"type":"Polygon","coordinates":[[[-98.826521,19.8765834],[-98.8259635,19.8762958],[-98.825354,19.8776924],[-98.8248481,19.8775397],[-98.8247887,19.8775209],[-98.8243758,19.8773976],[-98.8238521,19.8772346],[-98.8237892,19.8770842],[-98.8239124,19.8767685],[-98.8231434,19.8764001],[-98.8222922,19.8759927],[-98.8221678,19.8758995],[-98.8220242,19.8759314],[-98.8214497,19.876059],[-98.8209959,19.8761597],[-98.8209158,19.8761697],[-98.8206702,19.8762004],[-98.8204339,19.8762275],[-98.8202991,19.8762422],[-98.8191096,19.8761957],[-98.8186394,19.8761487],[-98.8185231,19.8749755],[-98.8194747,19.8742443],[-98.8194759,19.8742457],[-98.8195042,19.8742241],[-98.819419,19.8741621],[-98.8193281,19.8740781],[-98.8192587,19.873984],[-98.8191931,19.8738617],[-98.8191335,19.8737451],[-98.8190742,19.8736262],[-98.8189936,19.873471],[-98.818956,19.8733426],[-98.8189398,19.8731537],[-98.819039,19.8732019],[-98.8192093,19.8733572],[-98.8193458,19.8734729],[-98.8194501,19.8735382],[-98.8200613,19.8739441],[-98.8206456,19.8742616],[-98.8212663,19.8745838],[-98.8217943,19.8738315],[-98.8221167,19.8739974],[-98.8221807,19.8738966],[-98.8232584,19.8741356],[-98.8243361,19.8743745],[-98.8254138,19.8746134],[-98.8264915,19.8748523],[-98.8264802,19.8748949],[-98.8263639,19.875006],[-98.8260103,19.8757607],[-98.8277304,19.8763724],[-98.8275854,19.8769355],[-98.827757,19.8769679],[-98.8272991,19.8778986],[-98.8271754,19.8775506],[-98.8270379,19.8771715],[-98.8268757,19.8768737],[-98.8267845,19.8767552],[-98.826727,19.8767008],[-98.826521,19.8765834]]]},"properties":{"locality":"BARRIO DEL CALVARIO","official_key":"1306600010004","CVE_ENT":"13","CVE_MUN":"066","CVE_LOC":"0001","CVE_ASEN":"0004","settlement_type":"BARRIO","source":"INEGI DCAH 2025"}},{"type":"Feature","geometry":{"type":"Polygon","coordinates":[[[-98.8311834,19.8754809],[-98.8305424,19.8770064],[-98.8303626,19.8774402],[-98.8301904,19.877872],[-98.8301321,19.8780155],[-98.8298354,19.8779047],[-98.8297894,19.8778831],[-98.828836,19.8775183],[-98.8288427,19.8774911],[-98.8289076,19.8772979],[-98.8289181,19.8772739],[-98.8290066,19.8772572],[-98.8290758,19.8772081],[-98.829273,19.8767945],[-98.8294459,19.8764206],[-98.8296082,19.8760914],[-98.8297595,19.8757625],[-98.8299212,19.875422],[-98.8300812,19.8750991],[-98.8301544,19.8749314],[-98.8302019,19.874896],[-98.8311834,19.8754809]]]},"properties":{"locality":"FORJADORES DE VILLA DE TEZONTEPEC","official_key":"1306600010005","CVE_ENT":"13","CVE_MUN":"066","CVE_LOC":"0001","CVE_ASEN":"0005","settlement_type":"FRACCIONAMIENTO","source":"INEGI DCAH 2025"}},{"type":"Feature","geometry":{"type":"Polygon","coordinates":[[[-98.8123821,19.8775387],[-98.8122807,19.877505],[-98.8119527,19.8773841],[-98.8115073,19.8772348],[-98.8107011,19.8769579],[-98.810276,19.8768102],[-98.8098207,19.8766548],[-98.8095222,19.8765719],[-98.8097753,19.8759307],[-98.809804,19.8759375],[-98.8100274,19.8760192],[-98.8104872,19.8761883],[-98.8109372,19.8763576],[-98.8117537,19.8766646],[-98.8122067,19.8768276],[-98.8126548,19.8769905],[-98.8131461,19.8771675],[-98.8129048,19.8777129],[-98.8123821,19.8775387]]]},"properties":{"locality":"VILLAS DE SAN JUANITA","official_key":"1306600010007","CVE_ENT":"13","CVE_MUN":"066","CVE_LOC":"0001","CVE_ASEN":"0007","settlement_type":"FRACCIONAMIENTO","source":"INEGI DCAH 2025"}},{"type":"Feature","geometry":{"type":"Polygon","coordinates":[[[-98.8162596,19.8843469],[-98.8163333,19.8841889],[-98.81638,19.8841996],[-98.8165452,19.8842348],[-98.8165794,19.8842506],[-98.8166117,19.8842624],[-98.8168148,19.8843446],[-98.8164783,19.8850064],[-98.8170556,19.8852019],[-98.8173136,19.8852892],[-98.8177459,19.8854356],[-98.8177789,19.8854465],[-98.8177119,19.885627],[-98.8174258,19.8864037],[-98.817197,19.8870298],[-98.8169757,19.887643],[-98.8167995,19.8881314],[-98.816559,19.8887824],[-98.8163271,19.8894102],[-98.8162981,19.8895142],[-98.8162287,19.8895313],[-98.8155696,19.8894618],[-98.8151584,19.8894185],[-98.8150279,19.8894048],[-98.8147663,19.8893772],[-98.8143933,19.8893379],[-98.8140106,19.8892976],[-98.8138272,19.8892782],[-98.8138622,19.889121],[-98.81422,19.8883526],[-98.8142644,19.8882572],[-98.8148027,19.8871153],[-98.8150043,19.8866875],[-98.8156864,19.8854091],[-98.8158572,19.885089],[-98.8158825,19.8850455],[-98.8159933,19.8848399],[-98.8162596,19.8843469]]]},"properties":{"locality":"LOS AMORES DE DON JUAN","official_key":"1306600010008","CVE_ENT":"13","CVE_MUN":"066","CVE_LOC":"0001","CVE_ASEN":"0008","settlement_type":"FRACCIONAMIENTO","source":"INEGI DCAH 2025"}},{"type":"Feature","geometry":{"type":"Polygon","coordinates":[[[-98.819282,19.8898158],[-98.8184782,19.8897372],[-98.8184541,19.8897348],[-98.8177891,19.8896696],[-98.8177258,19.8896634],[-98.8172815,19.8896128],[-98.8172569,19.88961],[-98.8167891,19.8895587],[-98.8162981,19.8895142],[-98.8163271,19.8894102],[-98.816559,19.8887824],[-98.8167995,19.8881314],[-98.8169757,19.887643],[-98.817197,19.8870298],[-98.8174258,19.8864037],[-98.8177119,19.885627],[-98.8177789,19.8854465],[-98.8178596,19.885229],[-98.8180402,19.8847961],[-98.8181254,19.8845722],[-98.8176419,19.8843982],[-98.8172139,19.8842442],[-98.8173682,19.8838816],[-98.8170038,19.883742],[-98.8168491,19.8841226],[-98.8164204,19.8839836],[-98.8165134,19.8837476],[-98.8167527,19.8830989],[-98.8167843,19.8829811],[-98.8170949,19.8820914],[-98.8159405,19.881712],[-98.8159355,19.8816757],[-98.8159944,19.8816121],[-98.8160972,19.8814823],[-98.8161523,19.8814123],[-98.8161767,19.8813814],[-98.8166841,19.8813706],[-98.816698,19.8813026],[-98.8171102,19.8803688],[-98.8171484,19.8802796],[-98.8171967,19.88016],[-98.8173929,19.8797752],[-98.8175908,19.8793862],[-98.8172807,19.8792769],[-98.8171331,19.8792062],[-98.8161946,19.878885],[-98.8153871,19.8785919],[-98.8141948,19.8781731],[-98.8129048,19.8777129],[-98.8131461,19.8771675],[-98.813253,19.8769479],[-98.8152655,19.8777144],[-98.8154342,19.8772666],[-98.8155697,19.8768882],[-98.815627,19.8767621],[-98.8152073,19.8761968],[-98.8150131,19.8758991],[-98.8147823,19.87545],[-98.8146166,19.8750993],[-98.8146212,19.8751008],[-98.8148837,19.8751856],[-98.8150819,19.8752796],[-98.8152562,19.8753623],[-98.816717,19.8759149],[-98.8174439,19.8760612],[-98.8177434,19.8760743],[-98.8179927,19.8760939],[-98.8186394,19.8761487],[-98.8191096,19.8761957],[-98.8202991,19.8762422],[-98.8204339,19.8762275],[-98.8206702,19.8762004],[-98.8209158,19.8761697],[-98.8209959,19.8761597],[-98.8214497,19.876059],[-98.8220242,19.8759314],[-98.8221678,19.8758995],[-98.8222922,19.8759927],[-98.8231434,19.8764001],[-98.8239124,19.8767685],[-98.8237892,19.8770842],[-98.8238521,19.8772346],[-98.8243758,19.8773976],[-98.8247887,19.8775209],[-98.8248481,19.8775397],[-98.8246687,19.8780277],[-98.8246541,19.8782463],[-98.824644,19.87854],[-98.8246273,19.8787135],[-98.8245749,19.8789193],[-98.8241083,19.880169],[-98.8240259,19.880439],[-98.8240167,19.880524],[-98.8241041,19.8804752],[-98.8242413,19.8803869],[-98.8243332,19.8803285],[-98.8245215,19.8802136],[-98.8246049,19.8801438],[-98.8247909,19.8799954],[-98.8249138,19.8799032],[-98.8250008,19.8798711],[-98.8249436,19.8799647],[-98.8247352,19.8801892],[-98.8246727,19.8803006],[-98.8245688,19.8804133],[-98.8243492,19.8806331],[-98.8242433,19.8807804],[-98.8241778,19.880889],[-98.8238786,19.8813083],[-98.8247486,19.8818495],[-98.8244741,19.8821863],[-98.8243201,19.8823459],[-98.8242794,19.8823783],[-98.8235804,19.8831501],[-98.8246028,19.8835095],[-98.8246688,19.8835224],[-98.825012,19.8836536],[-98.8264517,19.884232],[-98.8267267,19.8844057],[-98.8268998,19.8845672],[-98.8275021,19.8852225],[-98.8277238,19.8854687],[-98.8282122,19.8858807],[-98.8248013,19.8846905],[-98.8242642,19.8844914],[-98.8229329,19.8840435],[-98.8226585,19.8848119],[-98.8220962,19.8846389],[-98.8217317,19.8855108],[-98.8213673,19.8863826],[-98.8210028,19.8872544],[-98.8206384,19.8881262],[-98.8202739,19.8889981],[-98.8199095,19.8898699],[-98.8193068,19.8898179],[-98.819282,19.8898158]]]},"properties":{"locality":"CENTRO","official_key":"1306600010009","CVE_ENT":"13","CVE_MUN":"066","CVE_LOC":"0001","CVE_ASEN":"0009","settlement_type":"COLONIA","source":"INEGI DCAH 2025"}},{"type":"Feature","geometry":{"type":"Polygon","coordinates":[[[-98.8131461,19.8771675],[-98.8126548,19.8769905],[-98.8122067,19.8768276],[-98.8117537,19.8766646],[-98.8109372,19.8763576],[-98.8104872,19.8761883],[-98.8100274,19.8760192],[-98.809804,19.8759375],[-98.8097753,19.8759307],[-98.8102731,19.8748235],[-98.8106766,19.8739078],[-98.810865,19.8734879],[-98.8123508,19.8741117],[-98.8128597,19.8743187],[-98.813146,19.8744392],[-98.8140717,19.874873],[-98.8144024,19.8750207],[-98.8145008,19.875053],[-98.8146166,19.8750993],[-98.8147823,19.87545],[-98.8150131,19.8758991],[-98.8152073,19.8761968],[-98.815627,19.8767621],[-98.8155697,19.8768882],[-98.8154342,19.8772666],[-98.8152655,19.8777144],[-98.813253,19.8769479],[-98.8131461,19.8771675]]]},"properties":{"locality":"NUEVA","official_key":"1306600010010","CVE_ENT":"13","CVE_MUN":"066","CVE_LOC":"0001","CVE_ASEN":"0010","settlement_type":"COLONIA","source":"INEGI DCAH 2025"}},{"type":"Feature","geometry":{"type":"Polygon","coordinates":[[[-98.8241778,19.880889],[-98.8242433,19.8807804],[-98.8243492,19.8806331],[-98.8245688,19.8804133],[-98.8246727,19.8803006],[-98.8247352,19.8801892],[-98.8249436,19.8799647],[-98.8250172,19.8799452],[-98.8251851,19.8799539],[-98.8253294,19.8800042],[-98.825524,19.8800784],[-98.8256817,19.8801053],[-98.8259243,19.8800701],[-98.8260714,19.880068],[-98.8260442,19.880127],[-98.8259785,19.8802332],[-98.8258531,19.8803921],[-98.825738,19.8805557],[-98.8255802,19.8807449],[-98.8249599,19.8815903],[-98.8247486,19.8818495],[-98.8238786,19.8813083],[-98.8241778,19.880889]]]},"properties":{"locality":"RANCHO NEVADO","official_key":"1306600010011","CVE_ENT":"13","CVE_MUN":"066","CVE_LOC":"0001","CVE_ASEN":"0011","settlement_type":"COLONIA","source":"INEGI DCAH 2025"}},{"type":"Feature","geometry":{"type":"Polygon","coordinates":[[[-98.8146166,19.8750993],[-98.8145008,19.875053],[-98.8144024,19.8750207],[-98.8140717,19.874873],[-98.813146,19.8744392],[-98.8128597,19.8743187],[-98.8135894,19.8735841],[-98.8133754,19.8733277],[-98.8128968,19.8727434],[-98.813046,19.8727367],[-98.8133431,19.8728705],[-98.8136791,19.8730031],[-98.8143405,19.8733017],[-98.8146515,19.8733044],[-98.8153028,19.8736182],[-98.8150498,19.8742968],[-98.8153662,19.8744285],[-98.8151517,19.8751123],[-98.8150819,19.8752796],[-98.8148837,19.8751856],[-98.8146212,19.8751008],[-98.8146166,19.8750993]]]},"properties":{"locality":"BARRIO DE LA VIRGEN","official_key":"1306600010015","CVE_ENT":"13","CVE_MUN":"066","CVE_LOC":"0001","CVE_ASEN":"0015","settlement_type":"BARRIO","source":"INEGI DCAH 2025"}},{"type":"Feature","geometry":{"type":"Polygon","coordinates":[[[-98.8176419,19.8843982],[-98.8173136,19.8852892],[-98.8170556,19.8852019],[-98.8164783,19.8850064],[-98.8168148,19.8843446],[-98.8166117,19.8842624],[-98.8165794,19.8842506],[-98.8165452,19.8842348],[-98.81638,19.8841996],[-98.8163333,19.8841889],[-98.8163728,19.8841043],[-98.8164204,19.8839836],[-98.8168491,19.8841226],[-98.8170038,19.883742],[-98.8173682,19.8838816],[-98.8172139,19.8842442],[-98.8176419,19.8843982]]]},"properties":{"locality":"EL CORTIJO","official_key":"1306600010016","CVE_ENT":"13","CVE_MUN":"066","CVE_LOC":"0001","CVE_ASEN":"0016","settlement_type":"FRACCIONAMIENTO","source":"INEGI DCAH 2025"}},{"type":"Feature","geometry":{"type":"Polygon","coordinates":[[[-98.8115312,19.8861933],[-98.8109839,19.8860591],[-98.8108245,19.8859803],[-98.8106178,19.885878],[-98.8104117,19.885729],[-98.8101812,19.8854916],[-98.8099183,19.8851736],[-98.8100741,19.885048],[-98.8102795,19.8849273],[-98.8104783,19.8848161],[-98.8108538,19.8846176],[-98.8111945,19.8844469],[-98.8112755,19.8844065],[-98.8114732,19.8843144],[-98.8117423,19.8841953],[-98.8118027,19.8841611],[-98.8118207,19.8843656],[-98.8117857,19.8848783],[-98.8117494,19.8853171],[-98.8117056,19.8856087],[-98.8116816,19.8857692],[-98.8115312,19.8861933]]]},"properties":{"locality":"EL FRESNO","official_key":"1306600010017","CVE_ENT":"13","CVE_MUN":"066","CVE_LOC":"0001","CVE_ASEN":"0017","settlement_type":"COLONIA","source":"INEGI DCAH 2025"}},{"type":"Feature","geometry":{"type":"Polygon","coordinates":[[[-98.7638549,19.9209119],[-98.7653924,19.9208533],[-98.765766,19.9208433],[-98.76585,19.9208962],[-98.7659125,19.9209895],[-98.765995,19.921217],[-98.7660028,19.9216072],[-98.7660051,19.9217219],[-98.7660117,19.921928],[-98.7660141,19.922002],[-98.7660687,19.9221992],[-98.7660697,19.922288],[-98.7660449,19.9224353],[-98.7660489,19.9229368],[-98.7656485,19.9228195],[-98.7654792,19.9234756],[-98.7636824,19.9228759],[-98.7636908,19.9225234],[-98.7630029,19.9222866],[-98.7631388,19.9218505],[-98.7632077,19.921899],[-98.7632655,19.9217241],[-98.7635662,19.9209307],[-98.7638549,19.9209119]]]},"properties":{"locality":"ACOZAC","official_key":"1306600020001","CVE_ENT":"13","CVE_MUN":"066","CVE_LOC":"0002","CVE_ASEN":"0001","settlement_type":"RANCHERÍA","source":"INEGI DCAH 2025"}},{"type":"Feature","geometry":{"type":"Polygon","coordinates":[[[-98.7951002,19.9441372],[-98.7950111,19.9440373],[-98.7949177,19.9440693],[-98.7949099,19.9441234],[-98.7947815,19.9443075],[-98.7946974,19.9443582],[-98.7946164,19.9443665],[-98.794273,19.9438325],[-98.7946954,19.9435311],[-98.7941357,19.9428251],[-98.7938301,19.9423628],[-98.7934936,19.941956],[-98.7932103,19.9416563],[-98.7924001,19.9407175],[-98.7922855,19.9406829],[-98.7921208,19.9406402],[-98.7917791,19.940593],[-98.7914708,19.9405802],[-98.7914386,19.9406944],[-98.7912776,19.9407459],[-98.791076,19.9407665],[-98.7907846,19.9406922],[-98.7904188,19.9405935],[-98.7901929,19.940497],[-98.7902329,19.9402999],[-98.7902782,19.940073],[-98.7903021,19.9399873],[-98.7903152,19.9398978],[-98.7902961,19.9398083],[-98.7903386,19.9397256],[-98.7902319,19.9397116],[-98.7902004,19.9396876],[-98.7898464,19.9397048],[-98.7896062,19.9390908],[-98.7896453,19.9387674],[-98.7892015,19.9384701],[-98.7893014,19.9381789],[-98.789027,19.9379574],[-98.7886323,19.9377216],[-98.7885298,19.9376515],[-98.788442,19.9376315],[-98.7881779,19.9375673],[-98.7879749,19.9375103],[-98.7877943,19.9374504],[-98.7876764,19.9373917],[-98.7875586,19.9373109],[-98.7874112,19.9371646],[-98.7873423,19.9370359],[-98.7875957,19.9366624],[-98.7878731,19.9362712],[-98.7881924,19.9364454],[-98.7884203,19.9366101],[-98.7890134,19.9369364],[-98.7894955,19.9371745],[-98.7898412,19.9373584],[-98.7901131,19.9375559],[-98.7903721,19.9371916],[-98.7896656,19.9366457],[-98.7905806,19.9361037],[-98.7922311,19.9367253],[-98.7928854,19.9370796],[-98.793089,19.9371364],[-98.7935874,19.9371037],[-98.7934195,19.9378488],[-98.793198,19.938594],[-98.7929696,19.9391563],[-98.7946463,19.940195],[-98.7945777,19.9404672],[-98.7943789,19.9409285],[-98.7945762,19.9410111],[-98.7948253,19.941171],[-98.7949597,19.9410703],[-98.7953974,19.9411714],[-98.7954851,19.9412039],[-98.7950782,19.941656],[-98.7958317,19.9424192],[-98.7956671,19.9426662],[-98.7952134,19.9431102],[-98.7954045,19.9433521],[-98.7957008,19.9430931],[-98.7960916,19.9432292],[-98.7962474,19.9434507],[-98.7957833,19.943878],[-98.7959043,19.9440576],[-98.7959748,19.9442115],[-98.7956586,19.9444233],[-98.7953477,19.9445288],[-98.7951999,19.9443057],[-98.7951002,19.9441372]]]},"properties":{"locality":"LA CANTERA","official_key":"1306600030001","CVE_ENT":"13","CVE_MUN":"066","CVE_LOC":"0003","CVE_ASEN":"0001","settlement_type":"PUEBLO","source":"INEGI DCAH 2025"}},{"type":"Feature","geometry":{"type":"MultiPolygon","coordinates":[[[[-98.8018245,19.8696003],[-98.8018031,19.8695499],[-98.801744,19.8695801],[-98.8006229,19.869121],[-98.8006229,19.8690655],[-98.80058,19.8689899],[-98.7994427,19.8684702],[-98.7985254,19.8678471],[-98.7988714,19.867359],[-98.800246,19.8676397],[-98.8007409,19.8676176],[-98.8020445,19.8681877],[-98.8026024,19.8679909],[-98.8026989,19.8680817],[-98.8032944,19.8676277],[-98.8038093,19.8679253],[-98.8031978,19.8682785],[-98.8022751,19.8697365],[-98.8020123,19.8696104],[-98.8018245,19.8696003]]],[[[-98.7933444,19.8688281],[-98.7930735,19.8688092],[-98.7923708,19.8688823],[-98.7920275,19.8688924],[-98.7909653,19.8687562],[-98.7920221,19.8667129],[-98.7914427,19.8665364],[-98.7916627,19.8660318],[-98.7912282,19.8657644],[-98.7915017,19.8653747],[-98.7915822,19.8652851],[-98.790343,19.8647277],[-98.790748,19.8642761],[-98.7911531,19.8645687],[-98.7913845,19.864264],[-98.7914067,19.8641206],[-98.7915906,19.863834],[-98.7917975,19.8638157],[-98.7919,19.863648],[-98.7918095,19.8630539],[-98.7918903,19.8627669],[-98.7918853,19.8627121],[-98.7918772,19.8626515],[-98.7923279,19.8619603],[-98.7938111,19.8643392],[-98.7946399,19.8654819],[-98.7953534,19.8657443],[-98.7959649,19.8660873],[-98.7968206,19.8666196],[-98.7975045,19.8670964],[-98.7971666,19.8676841],[-98.7972309,19.867722],[-98.7960132,19.869735],[-98.7952193,19.8692708],[-98.7946292,19.8690841],[-98.7933444,19.8688281]]]]},"properties":{"locality":"EL CAPULIN","official_key":"1306600040001","CVE_ENT":"13","CVE_MUN":"066","CVE_LOC":"0004","CVE_ASEN":"0001","settlement_type":"PUEBLO","source":"INEGI DCAH 2025"}},{"type":"Feature","geometry":{"type":"Polygon","coordinates":[[[-98.8021369,19.8875545],[-98.8023192,19.887151],[-98.8016456,19.8870178],[-98.8005478,19.886816],[-98.7996089,19.8866337],[-98.7996088,19.8866336],[-98.7993083,19.8865726],[-98.7996633,19.8851021],[-98.8016405,19.8855236],[-98.8020751,19.8843902],[-98.8025266,19.8845126],[-98.8028434,19.8845864],[-98.803117,19.8846504],[-98.8034067,19.884704],[-98.8036653,19.8847758],[-98.8037,19.884788],[-98.8037965,19.8848219],[-98.8038847,19.8848464],[-98.8039326,19.8848558],[-98.8040357,19.884876],[-98.8043152,19.8849335],[-98.8045817,19.8849909],[-98.8049904,19.8850737],[-98.8053845,19.8851704],[-98.8057053,19.885232],[-98.8058733,19.8852745],[-98.8061146,19.8852862],[-98.8061819,19.8852881],[-98.8062228,19.8852472],[-98.8057382,19.8865743],[-98.805522,19.8871661],[-98.8053143,19.8877349],[-98.804756,19.8875786],[-98.8044627,19.8884462],[-98.8041296,19.8893948],[-98.8039389,19.8899608],[-98.8036375,19.8908086],[-98.8034899,19.8912475],[-98.8033516,19.891659],[-98.803059,19.8925293],[-98.802786,19.8933002],[-98.802668,19.8936336],[-98.8022603,19.8935956],[-98.8014327,19.8934224],[-98.8009653,19.8933393],[-98.8004477,19.8932266],[-98.7999553,19.8931334],[-98.8003594,19.8921469],[-98.8006168,19.8914849],[-98.8009471,19.8906496],[-98.801173,19.8900697],[-98.8015636,19.8890789],[-98.8018968,19.8881351],[-98.8020088,19.8878322],[-98.8021369,19.8875545]]]},"properties":{"locality":"CHAMBERLUCO","official_key":"1306600050001","CVE_ENT":"13","CVE_MUN":"066","CVE_LOC":"0005","CVE_ASEN":"0001","settlement_type":"COLONIA","source":"INEGI DCAH 2025"}},{"type":"Feature","geometry":{"type":"Polygon","coordinates":[[[-98.8025326,19.8940464],[-98.802668,19.8936336],[-98.802786,19.8933002],[-98.803059,19.8925293],[-98.8033516,19.891659],[-98.8034899,19.8912475],[-98.8036375,19.8908086],[-98.8039389,19.8899608],[-98.8041296,19.8893948],[-98.8044627,19.8884462],[-98.804756,19.8875786],[-98.8053143,19.8877349],[-98.8057282,19.8878816],[-98.8065561,19.8881468],[-98.807148,19.8883345],[-98.8079362,19.888588],[-98.808989,19.8889094],[-98.810015,19.8889745],[-98.8109831,19.8890149],[-98.811077,19.8890132],[-98.8111125,19.8890125],[-98.8112446,19.8890313],[-98.8112326,19.8891515],[-98.811297,19.8893734],[-98.81134,19.889854],[-98.8113077,19.8899536],[-98.8108546,19.8905014],[-98.8106279,19.890756],[-98.809926,19.8915958],[-98.809836,19.8917076],[-98.8095748,19.8921232],[-98.8094747,19.8922874],[-98.809519,19.8923184],[-98.8104779,19.8928241],[-98.809194,19.8945511],[-98.8083749,19.8941542],[-98.80852,19.894936],[-98.8084582,19.8956345],[-98.8083769,19.8957638],[-98.8083577,19.8957651],[-98.8083404,19.8957664],[-98.8049872,19.894066],[-98.8023281,19.8960025],[-98.8022861,19.8957532],[-98.8022734,19.8953888],[-98.8022615,19.8950472],[-98.8022582,19.8948049],[-98.8024402,19.8943312],[-98.8025326,19.8940464]]]},"properties":{"locality":"BENITO JUÁREZ","official_key":"1306600080001","CVE_ENT":"13","CVE_MUN":"066","CVE_LOC":"0008","CVE_ASEN":"0001","settlement_type":"COLONIA","source":"INEGI DCAH 2025"}},{"type":"Feature","geometry":{"type":"Polygon","coordinates":[[[-98.7872756,19.9502614],[-98.7879552,19.9506528],[-98.7880892,19.9510624],[-98.7882028,19.9517375],[-98.7882725,19.9522586],[-98.7884415,19.9525961],[-98.7883308,19.9526107],[-98.7878102,19.9523597],[-98.7874057,19.9521652],[-98.7869008,19.9519266],[-98.7866641,19.9521435],[-98.7865878,19.9521145],[-98.7858702,19.9517833],[-98.7855883,19.951672],[-98.7854038,19.9516195],[-98.7852931,19.9515848],[-98.7852671,19.9515816],[-98.7851306,19.9515995],[-98.7850582,19.9516443],[-98.7849037,19.9517485],[-98.7848351,19.9517531],[-98.7847177,19.9517108],[-98.7846074,19.9516592],[-98.7844545,19.9515994],[-98.7837977,19.9513115],[-98.7837582,19.9512938],[-98.7836561,19.9512481],[-98.7833565,19.9511147],[-98.7829751,19.9509655],[-98.7826467,19.9508361],[-98.7824323,19.9509541],[-98.7823714,19.9509983],[-98.7823243,19.9510324],[-98.7822385,19.9511101],[-98.7820481,19.9512902],[-98.7818351,19.9514864],[-98.7817257,19.9515734],[-98.7815504,19.9516966],[-98.7814065,19.9518229],[-98.7812606,19.9519428],[-98.7812042,19.952005],[-98.781138,19.952093],[-98.7810063,19.9522946],[-98.7809227,19.9524813],[-98.7808484,19.9526693],[-98.780746,19.9529517],[-98.7806652,19.9532119],[-98.7805777,19.9535351],[-98.7805141,19.9537715],[-98.7803757,19.9541578],[-98.7802862,19.9544348],[-98.7802399,19.9546331],[-98.7801686,19.954805],[-98.7799683,19.9551863],[-98.7799526,19.9552045],[-98.7798467,19.9552409],[-98.7796555,19.9549108],[-98.7795727,19.9543052],[-98.7794735,19.9540757],[-98.7793079,19.9537353],[-98.7788189,19.9529455],[-98.7786721,19.9526966],[-98.7783279,19.9520471],[-98.7779424,19.951384],[-98.7777098,19.9509699],[-98.7774621,19.950546],[-98.7769726,19.9499004],[-98.7769098,19.9498326],[-98.7772367,19.9496832],[-98.7774501,19.9496103],[-98.7776847,19.9495377],[-98.7778952,19.9494579],[-98.7781327,19.9493894],[-98.7789389,19.9490993],[-98.7798568,19.9487278],[-98.7810427,19.9482247],[-98.7814114,19.9479994],[-98.7818689,19.9477687],[-98.7822304,19.9476069],[-98.7824257,19.9475009],[-98.7826184,19.9473977],[-98.7828528,19.9472691],[-98.7831979,19.9470195],[-98.7835409,19.9467861],[-98.78395,19.9465298],[-98.7844407,19.9462446],[-98.7845932,19.9461762],[-98.7847022,19.9462105],[-98.7847486,19.9462896],[-98.7848099,19.9464097],[-98.7848944,19.9465266],[-98.7859207,19.9470509],[-98.7855855,19.94746],[-98.7846417,19.9486522],[-98.7860633,19.9495576],[-98.7865166,19.9498112],[-98.7872756,19.9502614]]]},"properties":{"locality":"EL TEJOCOTE","official_key":"1306600110001","CVE_ENT":"13","CVE_MUN":"066","CVE_LOC":"0011","CVE_ASEN":"0001","settlement_type":"PUEBLO","source":"INEGI DCAH 2025"}},{"type":"Feature","geometry":{"type":"Polygon","coordinates":[[[-98.7927316,19.8777471],[-98.7932105,19.8768165],[-98.794288,19.8772637],[-98.7943249,19.8775168],[-98.7946416,19.8776387],[-98.7946808,19.877855],[-98.7949989,19.8780135],[-98.7947429,19.8785517],[-98.7951521,19.8787518],[-98.795105,19.8788244],[-98.7939324,19.8806313],[-98.7939298,19.8806352],[-98.7918592,19.8794772],[-98.7923179,19.8782392],[-98.7924588,19.8779868],[-98.7925524,19.8779192],[-98.7926453,19.8778805],[-98.7927804,19.8778776],[-98.7927316,19.8777471]]]},"properties":{"locality":"TLEXPA","official_key":"1306600130001","CVE_ENT":"13","CVE_MUN":"066","CVE_LOC":"0013","CVE_ASEN":"0001","settlement_type":"RANCHERÍA","source":"INEGI DCAH 2025"}},{"type":"Feature","geometry":{"type":"Polygon","coordinates":[[[-98.7699713,19.9429342],[-98.7699199,19.9427936],[-98.7698619,19.9428522],[-98.7698519,19.9432661],[-98.7698584,19.9435003],[-98.7698566,19.9436137],[-98.769824,19.943592],[-98.7696242,19.9434592],[-98.7692392,19.943203],[-98.7691525,19.9431453],[-98.7690163,19.9430547],[-98.7688731,19.9429461],[-98.7687889,19.9428822],[-98.7685312,19.9426867],[-98.7682378,19.9425251],[-98.7681644,19.9424846],[-98.7681482,19.9424757],[-98.7680769,19.9424389],[-98.7679749,19.9423676],[-98.7679635,19.9423596],[-98.7676769,19.9421595],[-98.767434,19.9420442],[-98.7672642,19.9418995],[-98.7670483,19.9417944],[-98.7669394,19.9417276],[-98.7668933,19.9416994],[-98.7666834,19.9415709],[-98.7666796,19.9415685],[-98.7665945,19.9415164],[-98.7665537,19.9414914],[-98.766491,19.9414531],[-98.7664592,19.9414336],[-98.7664105,19.9414037],[-98.7663738,19.9413813],[-98.7663375,19.941359],[-98.76631,19.9413422],[-98.7662664,19.9413155],[-98.7662196,19.9412868],[-98.7661671,19.9412547],[-98.766107,19.9412179],[-98.7660925,19.941209],[-98.7660391,19.9411763],[-98.7660258,19.9411681],[-98.7660087,19.9411577],[-98.7659841,19.941147],[-98.7659839,19.9411469],[-98.7659673,19.9411396],[-98.7659446,19.9411297],[-98.7659314,19.941124],[-98.7659222,19.9411199],[-98.7658813,19.9411022],[-98.7658722,19.9410982],[-98.7658692,19.9410969],[-98.7658561,19.9410912],[-98.7658413,19.9410847],[-98.7658222,19.9410749],[-98.7658168,19.9410721],[-98.7657458,19.9410355],[-98.7656724,19.9409977],[-98.7656724,19.9409977],[-98.7656723,19.9409977],[-98.7656723,19.9409976],[-98.7656663,19.9409945],[-98.765605,19.940963],[-98.7655898,19.9409552],[-98.765573,19.9409465],[-98.7654917,19.9409046],[-98.7654686,19.9408927],[-98.765403,19.9408589],[-98.7654008,19.9408578],[-98.7653927,19.9408536],[-98.765268,19.9407893],[-98.7652626,19.9407865],[-98.7652271,19.9407683],[-98.7651511,19.9407291],[-98.7650575,19.9406809],[-98.7650423,19.9406718],[-98.7649722,19.9406299],[-98.7649531,19.9406185],[-98.7649085,19.9405919],[-98.7649043,19.9405894],[-98.7648373,19.9405493],[-98.7648265,19.9405429],[-98.7648105,19.9405334],[-98.7647609,19.9404986],[-98.764685,19.9404549],[-98.7646585,19.9404397],[-98.7646249,19.9404203],[-98.7646092,19.9404113],[-98.7645255,19.9403631],[-98.7644807,19.9403373],[-98.7644043,19.9402934],[-98.7643608,19.9402683],[-98.7640047,19.9400417],[-98.7639026,19.9399791],[-98.7635155,19.9397448],[-98.7632471,19.9395879],[-98.7627627,19.9392854],[-98.7617435,19.9386771],[-98.7608998,19.9381964],[-98.760454,19.9379475],[-98.7601277,19.9377574],[-98.7592086,19.9372219],[-98.7591703,19.9371455],[-98.7592022,19.937116],[-98.7592482,19.9370971],[-98.7593091,19.9370308],[-98.7594224,19.9366388],[-98.7595569,19.9364768],[-98.7596048,19.9364316],[-98.7598799,19.9361081],[-98.7599857,19.935988],[-98.7601469,19.9357742],[-98.7603507,19.9356494],[-98.7607321,19.935414],[-98.7611025,19.935159],[-98.7613153,19.9350177],[-98.7608364,19.9346756],[-98.760581,19.9344831],[-98.7606795,19.9343504],[-98.7609851,19.9339333],[-98.7612233,19.9336361],[-98.761384,19.9334288],[-98.7616715,19.9336444],[-98.7618825,19.933758],[-98.7620775,19.9338268],[-98.7623508,19.9339894],[-98.7626528,19.9341806],[-98.7628473,19.9341808],[-98.7630596,19.9341047],[-98.76386,19.933801],[-98.7642757,19.9336456],[-98.7642088,19.9335796],[-98.7640645,19.9334606],[-98.7632446,19.932872],[-98.7631386,19.9327079],[-98.7639991,19.9320262],[-98.7641091,19.93217],[-98.7645275,19.9326762],[-98.7649338,19.9331184],[-98.7651158,19.9333196],[-98.7651544,19.9333622],[-98.765708,19.933186],[-98.7667302,19.9328285],[-98.7675969,19.9325298],[-98.767958,19.9324398],[-98.7680792,19.9324573],[-98.7686145,19.932458],[-98.7688827,19.932384],[-98.7691765,19.9324622],[-98.7695131,19.9325963],[-98.7696307,19.9327855],[-98.7697202,19.9329957],[-98.7698181,19.9332405],[-98.7699371,19.9334668],[-98.770208,19.9339856],[-98.7704888,19.9344865],[-98.7705731,19.934783],[-98.7707092,19.9350519],[-98.7709412,19.9353547],[-98.7711618,19.9358036],[-98.7711972,19.9360008],[-98.7711477,19.9361675],[-98.771178,19.9364249],[-98.7712751,19.9365907],[-98.7715695,19.9369548],[-98.7718371,19.937154],[-98.7718813,19.9375003],[-98.7722002,19.937684],[-98.7721998,19.9379124],[-98.7723503,19.9384144],[-98.7725198,19.9386047],[-98.772787,19.9390433],[-98.7729621,19.9395117],[-98.7729777,19.9397692],[-98.7730365,19.9399212],[-98.7731417,19.9402379],[-98.7732671,19.940397],[-98.7735258,19.9407035],[-98.7736645,19.9409579],[-98.7739393,19.9414244],[-98.7742459,19.9419328],[-98.7744973,19.9423597],[-98.7747967,19.9425723],[-98.7750152,19.9428137],[-98.7750922,19.9430295],[-98.7752889,19.943266],[-98.7754617,19.943483],[-98.7754196,19.9436036],[-98.775316,19.9438598],[-98.7753157,19.94408],[-98.7753753,19.9444847],[-98.7753747,19.9449288],[-98.7753741,19.9453506],[-98.775295,19.945659],[-98.7752555,19.945776],[-98.7751322,19.9460867],[-98.7750925,19.9463025],[-98.7750296,19.9464415],[-98.7745026,19.9463657],[-98.7744038,19.9463515],[-98.7734164,19.9457566],[-98.7724467,19.9451915],[-98.7719173,19.9449],[-98.7713397,19.944568],[-98.770821,19.9442563],[-98.7705687,19.9440969],[-98.7703998,19.9439494],[-98.7703362,19.9438636],[-98.7702975,19.9438114],[-98.7700054,19.9430238],[-98.7699713,19.9429342]]]},"properties":{"locality":"GUADALUPE","official_key":"1306600180001","CVE_ENT":"13","CVE_MUN":"066","CVE_LOC":"0018","CVE_ASEN":"0001","settlement_type":"COLONIA","source":"INEGI DCAH 2025"}},{"type":"Feature","geometry":{"type":"Polygon","coordinates":[[[-98.8154133,19.8925175],[-98.8162981,19.8895142],[-98.8167891,19.8895587],[-98.8172569,19.88961],[-98.8172815,19.8896128],[-98.8177258,19.8896634],[-98.8177891,19.8896696],[-98.8184541,19.8897348],[-98.8184782,19.8897372],[-98.819282,19.8898158],[-98.8190379,19.8903122],[-98.8188147,19.8907349],[-98.8184538,19.8914624],[-98.8184024,19.8915949],[-98.8178718,19.8926036],[-98.8178117,19.8927027],[-98.8177312,19.8928405],[-98.8176356,19.892992],[-98.8173089,19.8936659],[-98.8168133,19.8946533],[-98.8167992,19.8947139],[-98.8167333,19.8948806],[-98.8162906,19.8957733],[-98.815966,19.8964201],[-98.8158999,19.8953571],[-98.8158648,19.8945075],[-98.8158578,19.8942741],[-98.8155459,19.8941154],[-98.8155223,19.8941042],[-98.8149964,19.8938551],[-98.815211,19.8931787],[-98.8152488,19.8931116],[-98.8154061,19.8926272],[-98.8154133,19.8925175]]]},"properties":{"locality":"MORELOS","official_key":"1306600310001","CVE_ENT":"13","CVE_MUN":"066","CVE_LOC":"0031","CVE_ASEN":"0001","settlement_type":"COLONIA","source":"INEGI DCAH 2025"}},{"type":"Feature","geometry":{"type":"Polygon","coordinates":[[[-98.8442063,19.9054183],[-98.8392711,19.9094131],[-98.8362241,19.9103815],[-98.8361456,19.9102848],[-98.8338637,19.9075166],[-98.8352883,19.9048208],[-98.8381553,19.8998901],[-98.8387132,19.8997085],[-98.8393569,19.8999305],[-98.8418345,19.9027436],[-98.8440997,19.9052982],[-98.8442063,19.9054183]]]},"properties":{"locality":"PLATAH","official_key":"1306600320001","CVE_ENT":"13","CVE_MUN":"066","CVE_LOC":"0032","CVE_ASEN":"0001","settlement_type":"ZONA INDUSTRIAL","source":"INEGI DCAH 2025"}}]}