{"type":"FeatureCollection","name":"inegi-hidalgo-070","metadata":{"state":"Hidalgo","CVE_ENT":"13","CVE_MUN":"070","municipality":"Tlahuelilpan","sources":["INEGI Gaia — Servicio vectorial del Marco Geoestadístico","INEGI DCAH 2025"],"source_urls":["https://gaia.inegi.org.mx/wscatgeo/v2/geo/mgem/13","https://gaia.inegi.org.mx/wscatgeo/v2/geo/localidades/pol/13/070","https://www.inegi.org.mx/contenidos/productos/prod_serv/contenidos/espanol/bvinegi/productos/geografia/delimitaciones/794551163078/13_hidalgo.zip"],"geometry_policy":"Solo se publican polígonos de INEGI; no se generan puntos ni geometrías sintéticas.","locality_polygon_count":10,"settlement_polygon_count":18},"municipality":{"type":"Feature","geometry":{"type":"MultiPolygon","crs":{"type":"name","properties":{"name":"EPSG:6365"}},"coordinates":[[[[-99.20863148,20.16046945],[-99.20320038,20.158271321],[-99.19658966,20.15571826],[-99.195688029,20.15554258],[-99.19381842,20.15527334],[-99.192901569,20.15512172],[-99.19193066,20.15485146],[-99.19024054,20.154361541],[-99.19004268,20.1542458],[-99.19036517,20.153380621],[-99.190687859,20.152701981],[-99.19090309,20.15232868],[-99.191208289,20.15204006],[-99.19122388,20.15192971],[-99.190194429,20.15193082],[-99.189328818,20.151603545],[-99.189323293,20.151601457],[-99.189093056,20.151514405],[-99.189068756,20.151505217],[-99.189038045,20.151493606],[-99.18896109,20.151464511],[-99.189059018,20.151369402],[-99.1891389,20.151291822],[-99.189266151,20.151168239],[-99.189430779,20.15100835],[-99.18964743,20.15054355],[-99.189830674,20.150398464],[-99.19126791,20.149260509],[-99.19132377,20.14921628],[-99.191550599,20.14904482],[-99.19248178,20.14825269],[-99.19253518,20.14819466],[-99.192944849,20.147842911],[-99.193067919,20.14772768],[-99.193136549,20.147633781],[-99.19181963,20.14705955],[-99.19182209,20.147016891],[-99.19083845,20.14643031],[-99.19016722,20.14615505],[-99.18954131,20.14585805],[-99.18847102,20.14560245],[-99.18749697,20.14520583],[-99.186425309,20.1446032],[-99.18571594,20.14409832],[-99.185344229,20.143851261],[-99.184900849,20.14318458],[-99.184747799,20.142599751],[-99.18402848,20.142821381],[-99.184261619,20.14234618],[-99.18438283,20.14224003],[-99.184593859,20.141890511],[-99.184382619,20.14187377],[-99.184089399,20.14158508],[-99.18410008,20.141312421],[-99.18405257,20.1410078],[-99.183783859,20.14077874],[-99.18277794,20.140142831],[-99.18190945,20.139286311],[-99.18106854,20.138830541],[-99.180156489,20.138451521],[-99.17974554,20.13829871],[-99.179462089,20.137890581],[-99.179301109,20.137869341],[-99.178302379,20.1376298],[-99.17826448,20.13762488],[-99.17756065,20.136949711],[-99.177545479,20.13694383],[-99.17672175,20.136278061],[-99.17591863,20.13580388],[-99.17512191,20.135347521],[-99.175076769,20.1353166],[-99.174542349,20.13500268],[-99.17465862,20.13493183],[-99.17439563,20.13474998],[-99.174350139,20.13475306],[-99.174021109,20.13463088],[-99.173718019,20.13450868],[-99.173258909,20.13417428],[-99.173111599,20.134019251],[-99.173059459,20.13383145],[-99.1731112,20.13366805],[-99.173111,20.1334802],[-99.173067539,20.13330874],[-99.17296358,20.133235341],[-99.172677879,20.133153941],[-99.17236635,20.133227751],[-99.17210698,20.13348935],[-99.171783289,20.13379318],[-99.171298659,20.133859],[-99.170978419,20.13385931],[-99.170294449,20.133696631],[-99.17004334,20.133598861],[-99.16925383,20.13308983],[-99.16643046,20.13149175],[-99.16605635,20.1312934],[-99.166070489,20.131225651],[-99.166132528,20.130589996],[-99.175113699,20.127475116],[-99.182715678,20.124721916],[-99.188367527,20.122708073],[-99.192046624,20.122294291],[-99.1960191,20.122078239],[-99.199229969,20.12172539],[-99.200631825,20.122080251],[-99.203324551,20.121621451],[-99.205544571,20.121036401],[-99.205135465,20.120186667],[-99.204405653,20.116808861],[-99.20627337,20.11734359],[-99.208396395,20.117398838],[-99.208881243,20.117411616],[-99.212667247,20.117029238],[-99.213637585,20.116887109],[-99.214251207,20.116927931],[-99.215725908,20.116964094],[-99.217816915,20.117300116],[-99.222557395,20.116561928],[-99.222329263,20.113026176],[-99.226866745,20.112530944],[-99.227040807,20.108615296],[-99.22874593,20.108943232],[-99.231647996,20.109090259],[-99.233723203,20.107727483],[-99.235479773,20.106784561],[-99.235531516,20.107739374],[-99.235843773,20.108291787],[-99.236098121,20.108293089],[-99.240382225,20.108402704],[-99.246692484,20.108603044],[-99.245639748,20.105974516],[-99.247136312,20.106037543],[-99.249746155,20.106126556],[-99.251920966,20.106171492],[-99.254297881,20.106204799],[-99.256191479,20.10624551],[-99.260931119,20.106290914],[-99.264313933,20.100410798],[-99.269659858,20.10073478],[-99.275224722,20.101042876],[-99.275234883,20.103848597],[-99.27424675,20.104458971],[-99.272057979,20.10577032],[-99.270954379,20.10646945],[-99.27003177,20.10724318],[-99.26841065,20.10862837],[-99.26699931,20.10980202],[-99.265575879,20.11104985],[-99.263429549,20.11289052],[-99.261624449,20.11447469],[-99.258889059,20.11684537],[-99.257715909,20.117843631],[-99.25647223,20.118883831],[-99.25599771,20.119295601],[-99.25453457,20.12058075],[-99.253301739,20.121648461],[-99.252695289,20.12213514],[-99.251271579,20.123345481],[-99.25037515,20.124106621],[-99.24987731,20.124392971],[-99.248930719,20.12485202],[-99.246899219,20.125739291],[-99.24461698,20.12670165],[-99.24341674,20.127190231],[-99.242143539,20.12773875],[-99.242132,20.12783806],[-99.242129249,20.12785909],[-99.242123664,20.127901768],[-99.24211578,20.127962021],[-99.242076319,20.128128752],[-99.241969,20.128582201],[-99.24190363,20.12878366],[-99.241763652,20.129027539],[-99.241698969,20.12914023],[-99.24166632,20.12925646],[-99.241646866,20.129345231],[-99.241625569,20.129442401],[-99.24158475,20.12958962],[-99.241561643,20.129677375],[-99.241552109,20.12971358],[-99.241519509,20.129860781],[-99.241412889,20.129922911],[-99.24131452,20.13000049],[-99.24119162,20.13014206],[-99.241117909,20.130258341],[-99.241093579,20.130444261],[-99.241077419,20.13061468],[-99.240995509,20.13072323],[-99.240979259,20.130831681],[-99.24094671,20.13102535],[-99.240988229,20.131335481],[-99.24107049,20.13145154],[-99.24128417,20.13162165],[-99.24133357,20.131722281],[-99.24138303,20.13185388],[-99.241384366,20.131875996],[-99.241391449,20.131993281],[-99.24137528,20.1321482],[-99.24138366,20.132264371],[-99.241387723,20.132302172],[-99.241400309,20.132419261],[-99.241540289,20.13270925],[-99.24165554,20.132918221],[-99.24185288,20.13313482],[-99.24196808,20.13332829],[-99.242074969,20.133444321],[-99.242089501,20.133645689],[-99.24210012,20.133792831],[-99.24210041,20.133803359],[-99.242115289,20.134342222],[-99.242124656,20.134681444],[-99.242126219,20.13473808],[-99.242192079,20.134869661],[-99.24233191,20.13505535],[-99.24243298,20.135321455],[-99.24245554,20.13538085],[-99.24255437,20.135589851],[-99.242645109,20.13587629],[-99.24266998,20.136046661],[-99.242670199,20.13618608],[-99.242604709,20.1362946],[-99.24253911,20.136341171],[-99.242399659,20.136403311],[-99.242251979,20.13644998],[-99.242161879,20.13657405],[-99.24212105,20.13671063],[-99.24212942,20.136811311],[-99.242146059,20.1369662],[-99.242135361,20.136960991],[-99.242072679,20.13693046],[-99.242072258,20.136935017],[-99.242069128,20.136968783],[-99.24203225,20.137366721],[-99.24219132,20.13739289],[-99.242157349,20.137460311],[-99.242147889,20.137458742],[-99.241934969,20.137423461],[-99.241935614,20.137425066],[-99.241952404,20.137466895],[-99.242041676,20.13768929],[-99.24204182,20.13768965],[-99.24207571,20.137697511],[-99.242075309,20.13822065],[-99.24203595,20.138793822],[-99.242014418,20.139303006],[-99.242008119,20.139451551],[-99.241992249,20.140003952],[-99.24198446,20.14012629],[-99.242155999,20.140157681],[-99.242235479,20.140364003],[-99.242333708,20.140576201],[-99.242336018,20.14071674],[-99.242282217,20.14094291],[-99.242244459,20.141067834],[-99.24215966,20.141463121],[-99.24204938,20.14182625],[-99.241979521,20.142006153],[-99.241924879,20.14214688],[-99.241783059,20.142514091],[-99.241716052,20.142690984],[-99.24167727,20.142793366],[-99.24163509,20.14290472],[-99.241545739,20.14304445],[-99.241495615,20.143102139],[-99.24146878,20.14313302],[-99.241463924,20.143136383],[-99.24132937,20.14322954],[-99.241178128,20.143283729],[-99.241130937,20.143300636],[-99.241123948,20.143303141],[-99.241121891,20.143303504],[-99.24071991,20.14337446],[-99.240377344,20.143462757],[-99.24034982,20.14346985],[-99.240346928,20.143470383],[-99.2401638,20.143504086],[-99.24014438,20.14350766],[-99.240058278,20.143514859],[-99.240010707,20.143518835],[-99.2399714,20.143522119],[-99.239970375,20.143522202],[-99.239960083,20.143523063],[-99.239933738,20.143525265],[-99.239921003,20.143526329],[-99.239918052,20.143526576],[-99.239901547,20.143527955],[-99.239853748,20.14353195],[-99.239791279,20.14355169],[-99.239368168,20.143645596],[-99.239344886,20.143650788],[-99.239344637,20.143650849],[-99.239120222,20.143707751],[-99.239119479,20.143707941],[-99.239107805,20.143711593],[-99.238983319,20.143750551],[-99.238879715,20.14378297],[-99.238846252,20.143793443],[-99.23867948,20.14384563],[-99.238402707,20.143920227],[-99.238376553,20.143927276],[-99.238360014,20.143931734],[-99.23834526,20.14393571],[-99.237861479,20.144066105],[-99.237829888,20.14407462],[-99.23771189,20.144106415],[-99.237682721,20.144114276],[-99.23763286,20.144127711],[-99.237049049,20.144284],[-99.236534214,20.144421821],[-99.236144908,20.144526028],[-99.236044459,20.1445685],[-99.236004623,20.144585349],[-99.236001577,20.144586637],[-99.235734631,20.144699481],[-99.235285375,20.144889391],[-99.235242873,20.144907355],[-99.235112484,20.144962474],[-99.235111528,20.144962878],[-99.235110029,20.144963511],[-99.235110033,20.144965609],[-99.235110035,20.144966973],[-99.235110449,20.14522214],[-99.235114849,20.145371601],[-99.235124872,20.145452567],[-99.235126887,20.145468831],[-99.235127509,20.14547385],[-99.235127373,20.145483204],[-99.235125975,20.14558034],[-99.235125976,20.145580424],[-99.235126548,20.14559609],[-99.235130963,20.145717],[-99.23513431,20.14580866],[-99.235123392,20.146020706],[-99.235119109,20.14610388],[-99.235065182,20.146387729],[-99.23504357,20.146501481],[-99.235022251,20.146586766],[-99.234543374,20.148502435],[-99.234479999,20.14875595],[-99.234267911,20.149577387],[-99.234144372,20.150055864],[-99.23407737,20.15031537],[-99.234061583,20.150382951],[-99.233969402,20.150777606],[-99.23353011,20.152658311],[-99.233016324,20.154693248],[-99.232851218,20.155347157],[-99.23285117,20.155347351],[-99.232843624,20.15537722],[-99.232843538,20.155377568],[-99.232843509,20.155377666],[-99.232843422,20.155377605],[-99.232835387,20.15536948],[-99.232808775,20.155342587],[-99.232717249,20.155250091],[-99.232541319,20.155138751],[-99.232300179,20.155024837],[-99.232272349,20.15501169],[-99.232196692,20.155000004],[-99.232094778,20.154984265],[-99.232076318,20.154981413],[-99.232005223,20.154970434],[-99.231991596,20.154968328],[-99.231978399,20.15496629],[-99.231937606,20.154977152],[-99.231785173,20.155017741],[-99.23176722,20.155022521],[-99.231680833,20.155075472],[-99.231360108,20.155272063],[-99.231349445,20.155278597],[-99.23076149,20.155638987],[-99.23075868,20.155640711],[-99.23024328,20.15603929],[-99.230141704,20.156078722],[-99.228963436,20.156536109],[-99.22879135,20.15660291],[-99.228743085,20.15661051],[-99.228246946,20.156688619],[-99.22713654,20.156863431],[-99.225037519,20.157038951],[-99.224019379,20.15714063],[-99.22181548,20.15704305],[-99.220918599,20.156915121],[-99.22026503,20.15688726],[-99.21986971,20.15677305],[-99.218532229,20.15645926],[-99.217315999,20.156188321],[-99.21561346,20.15594666],[-99.21366785,20.155776951],[-99.213534819,20.15576254],[-99.2115768,20.159333061],[-99.21134935,20.16022246],[-99.20900125,20.160500971],[-99.20863148,20.16046945]]]]},"properties":{"municipality":"Tlahuelilpan","official_key":"13070","CVE_ENT":"13","CVE_MUN":"070","geometry_kind":"municipality","source":"INEGI Gaia — Servicio vectorial del Marco Geoestadístico"}},"features":[{"type":"Feature","geometry":{"type":"MultiPolygon","crs":{"type":"name","properties":{"name":"EPSG:6365"}},"coordinates":[[[[-99.234101915,20.144257377],[-99.233726134,20.143327763],[-99.233438498,20.143446055],[-99.233303208,20.143107849],[-99.233301501,20.143103581],[-99.232462877,20.143139416],[-99.231972385,20.143154309],[-99.231269772,20.143181686],[-99.230084239,20.141274194],[-99.231542953,20.141003281],[-99.231595707,20.140908269],[-99.228602768,20.139190663],[-99.228381045,20.138962785],[-99.228313415,20.138824585],[-99.228176061,20.138514123],[-99.228111908,20.138185077],[-99.227994645,20.137717232],[-99.227936006,20.137452231],[-99.227944492,20.137411432],[-99.228021076,20.137300786],[-99.228037045,20.137163539],[-99.228016925,20.13707745],[-99.228016845,20.137077109],[-99.2280154,20.137077423],[-99.227372427,20.137217221],[-99.227371008,20.13721753],[-99.227181954,20.136246593],[-99.227068412,20.136241512],[-99.227066938,20.136241446],[-99.227066887,20.136241485],[-99.227031051,20.136267919],[-99.226835971,20.136429653],[-99.226258708,20.136889462],[-99.225117538,20.137761062],[-99.225056032,20.13780682],[-99.225055239,20.137807409],[-99.225054507,20.137806792],[-99.225000686,20.137761411],[-99.224975735,20.137740366],[-99.224829135,20.137558901],[-99.224463353,20.136554872],[-99.2244632,20.136554454],[-99.224461828,20.136554845],[-99.224160062,20.136640585],[-99.223399969,20.136892862],[-99.222360668,20.137189716],[-99.221802877,20.137368039],[-99.221260969,20.137546231],[-99.220965292,20.137677485],[-99.220526215,20.1377522],[-99.220497923,20.137981908],[-99.220143277,20.138043815],[-99.219499335,20.138098501],[-99.2194978,20.138098631],[-99.219497809,20.138098473],[-99.219547862,20.137210523],[-99.2195574,20.136201923],[-99.219556823,20.1357936],[-99.219560292,20.135439785],[-99.219737862,20.135131785],[-99.220118631,20.134703446],[-99.220437262,20.1342936],[-99.220598092,20.133895077],[-99.220696862,20.133508338],[-99.220846292,20.133025246],[-99.220931169,20.132684769],[-99.221262138,20.131376046],[-99.221428061,20.130704479],[-99.221445078,20.130319043],[-99.221523351,20.129926723],[-99.221635705,20.12940117],[-99.221700399,20.129023448],[-99.22176972,20.128573584],[-99.22184729,20.128052184],[-99.221890061,20.12763197],[-99.221889848,20.127485384],[-99.221903378,20.127374521],[-99.221903382,20.127374492],[-99.221901854,20.127374493],[-99.221331164,20.127375205],[-99.22077369,20.127388952],[-99.22061849,20.127389151],[-99.220616969,20.127389152],[-99.220616964,20.127389123],[-99.22049963,20.126482249],[-99.220382281,20.125575353],[-99.22030652,20.124762598],[-99.220332799,20.12476274],[-99.220618951,20.124753522],[-99.220802277,20.1247532],[-99.220987291,20.12472008],[-99.221044224,20.124709599],[-99.221180035,20.124645281],[-99.222088217,20.124580091],[-99.222218238,20.123653146],[-99.222387892,20.122539169],[-99.222475831,20.122043692],[-99.2224994,20.121596677],[-99.222463592,20.120957662],[-99.222460625,20.120915728],[-99.2224606,20.120915385],[-99.222459101,20.1209157],[-99.222174492,20.120975431],[-99.22214531,20.120980407],[-99.222143815,20.120980662],[-99.222143785,20.120980379],[-99.222068077,20.1202492],[-99.222167207,20.120244969],[-99.222192523,20.119945169],[-99.222225169,20.119881],[-99.221959769,20.119710585],[-99.222287346,20.119186646],[-99.222393323,20.119186508],[-99.222580492,20.119179023],[-99.222471732,20.116671222],[-99.22251385,20.116661196],[-99.22260226,20.116623226],[-99.222686641,20.116595977],[-99.22684482,20.11970725],[-99.227245227,20.119534024],[-99.227538801,20.11980626],[-99.227539695,20.119807089],[-99.227540325,20.119806288],[-99.228000668,20.119222397],[-99.228001478,20.119221371],[-99.228002192,20.119222425],[-99.228289131,20.119645942],[-99.228289599,20.119646632],[-99.228290657,20.11964597],[-99.228952359,20.119231156],[-99.228953442,20.119230477],[-99.228838645,20.119046438],[-99.229466665,20.118552701],[-99.229902324,20.118351346],[-99.231032301,20.118052589],[-99.232107971,20.121527176],[-99.231742161,20.121628368],[-99.231794777,20.121759782],[-99.232211492,20.122892012],[-99.232688228,20.124115384],[-99.232788863,20.124343206],[-99.232906507,20.124494055],[-99.233046087,20.124647239],[-99.233325251,20.124953607],[-99.234180617,20.125895722],[-99.234203029,20.12592677],[-99.234307048,20.126037971],[-99.234436552,20.126210824],[-99.234788168,20.127122],[-99.235155979,20.128106832],[-99.235332951,20.128507339],[-99.23536935,20.12862865],[-99.235368216,20.128679575],[-99.235366168,20.128771552],[-99.235366295,20.128771723],[-99.23539125,20.128805221],[-99.235501259,20.128952922],[-99.23562451,20.129165708],[-99.236096583,20.130051353],[-99.236183454,20.130189603],[-99.236248879,20.130293737],[-99.236351738,20.130381236],[-99.236592543,20.130282449],[-99.236555768,20.130341762],[-99.23652622,20.1304204],[-99.236517477,20.130475426],[-99.236519037,20.13052344],[-99.236601489,20.13121354],[-99.236680766,20.131934774],[-99.236684959,20.1321028],[-99.236676259,20.132280191],[-99.236581797,20.132676756],[-99.23649251,20.133068617],[-99.236439455,20.133282499],[-99.236139915,20.134578672],[-99.236015599,20.135224222],[-99.235997218,20.135346852],[-99.235991046,20.135493697],[-99.23600685,20.13565294],[-99.236072157,20.135876065],[-99.236185074,20.136256011],[-99.236262834,20.13649136],[-99.236329061,20.136669515],[-99.236373902,20.136781419],[-99.23640966,20.136882098],[-99.23640919,20.137045825],[-99.23640824,20.137376954],[-99.234846989,20.137380091],[-99.234902631,20.138686332],[-99.235047949,20.141081581],[-99.235093638,20.141531567],[-99.235117676,20.142289231],[-99.235154218,20.142988101],[-99.235171382,20.143516265],[-99.235192369,20.144728309],[-99.235261039,20.144790351],[-99.235222375,20.144834687],[-99.235111484,20.144961844],[-99.235110959,20.144962446],[-99.235110029,20.144963511],[-99.235110033,20.144965609],[-99.235110035,20.144966973],[-99.23511045,20.14522214],[-99.235114849,20.145371601],[-99.235124872,20.145452567],[-99.235126887,20.145468831],[-99.235127509,20.14547385],[-99.235127373,20.145483204],[-99.235125976,20.14558034],[-99.235020802,20.145540958],[-99.234690994,20.145258369],[-99.234334153,20.144952613],[-99.234101915,20.144257377]]]]},"properties":{"locality":"Tlahuelilpan","municipality":null,"official_key":"130700001","CVE_ENT":"13","CVE_MUN":"070","CVE_LOC":"0001","ambito":"URBANO","geometry_kind":"locality","source":"INEGI Gaia — Servicio vectorial del Marco Geoestadístico"}},{"type":"Feature","geometry":{"type":"MultiPolygon","crs":{"type":"name","properties":{"name":"EPSG:6365"}},"coordinates":[[[[-99.203562626,20.135561412],[-99.20356238,20.13556092],[-99.203561101,20.135561384],[-99.203100638,20.135728481],[-99.20309943,20.13572892],[-99.203099113,20.135728454],[-99.20225946,20.134498163],[-99.202249321,20.134483308],[-99.20224903,20.13448288],[-99.202247797,20.134483279],[-99.20069498,20.13498549],[-99.19986225,20.13524288],[-99.19924414,20.135457228],[-99.19924298,20.135457631],[-99.199242615,20.135457199],[-99.198509695,20.134594139],[-99.197411832,20.133318064],[-99.197304649,20.133186211],[-99.196757201,20.132530647],[-99.196557285,20.132298764],[-99.196128938,20.131792493],[-99.19551451,20.131056702],[-99.195021137,20.130479339],[-99.194709062,20.130170037],[-99.194271836,20.129709015],[-99.193789996,20.129185534],[-99.193638305,20.129036817],[-99.193483689,20.128866545],[-99.19323232,20.128583862],[-99.193175029,20.128522401],[-99.191789761,20.126961135],[-99.191411597,20.12647531],[-99.193794457,20.125497766],[-99.194344708,20.125387716],[-99.193970474,20.124970301],[-99.19349968,20.124381631],[-99.193370172,20.123839031],[-99.194866795,20.123526633],[-99.19429875,20.12227866],[-99.19428229,20.122172712],[-99.19411662,20.12110606],[-99.194194419,20.12104225],[-99.19454052,20.121164911],[-99.194863119,20.12122208],[-99.19492855,20.121771081],[-99.195565799,20.12179023],[-99.195851049,20.12187523],[-99.195944723,20.121936583],[-99.196038799,20.1219982],[-99.196048315,20.122000847],[-99.1962395,20.122054022],[-99.196254299,20.122058139],[-99.196272679,20.122063251],[-99.19645518,20.12226118],[-99.19661892,20.12234603],[-99.196749059,20.12234554],[-99.19721254,20.122281651],[-99.197327019,20.122232711],[-99.197483999,20.121923009],[-99.197487081,20.121916928],[-99.19751285,20.121866091],[-99.19752861,20.121838181],[-99.197690737,20.121551076],[-99.1977002,20.12153432],[-99.19781098,20.121458511],[-99.1980368,20.12141265],[-99.198222681,20.121455594],[-99.198265649,20.12146552],[-99.19867017,20.12164078],[-99.19892214,20.121672251],[-99.1993434,20.12156751],[-99.199567089,20.121433431],[-99.199713219,20.12141777],[-99.19994005,20.121413281],[-99.20013097,20.121438491],[-99.200174681,20.121453286],[-99.200355649,20.12151454],[-99.200553451,20.12164998],[-99.200554424,20.121651241],[-99.20062458,20.12174191],[-99.20071908,20.121875341],[-99.200797779,20.12195157],[-99.200825851,20.121973781],[-99.200902195,20.122034186],[-99.20090816,20.122038905],[-99.201009109,20.12211878],[-99.201138049,20.12219349],[-99.20123915,20.122218821],[-99.20150415,20.12222275],[-99.201752539,20.12223946],[-99.201929889,20.122179911],[-99.20269875,20.121775721],[-99.202814485,20.121726432],[-99.202862758,20.121705873],[-99.2028842,20.121696741],[-99.20306608,20.12166897],[-99.203075608,20.121669604],[-99.203347829,20.121687741],[-99.203375685,20.121691393],[-99.20358817,20.12171926],[-99.203839769,20.12177197],[-99.204020819,20.121737751],[-99.20486852,20.12151595],[-99.205249179,20.12142632],[-99.20539731,20.121351951],[-99.20542135,20.121334261],[-99.205477944,20.121292619],[-99.20547809,20.121292511],[-99.205479469,20.121292647],[-99.20561208,20.12130574],[-99.20564505,20.12136395],[-99.20592269,20.121848],[-99.20617848,20.12288595],[-99.20635278,20.12394445],[-99.20698094,20.12614237],[-99.20732305,20.12749665],[-99.207581159,20.12753067],[-99.20920383,20.12774454],[-99.20913566,20.128392597],[-99.210993816,20.128400484],[-99.21099534,20.128400494],[-99.21104074,20.13043017],[-99.20894962,20.130615574],[-99.208708792,20.130636924],[-99.20661111,20.13081102],[-99.20634002,20.13100617],[-99.20689826,20.13292231],[-99.20529514,20.13346892],[-99.20486757,20.13361471],[-99.20630163,20.13564162],[-99.204122868,20.136680206],[-99.204121647,20.136680788],[-99.204121343,20.136680178],[-99.203562626,20.135561412]]]]},"properties":{"locality":"Munitepec de Madero","municipality":null,"official_key":"130700002","CVE_ENT":"13","CVE_MUN":"070","CVE_LOC":"0002","ambito":"URBANO","geometry_kind":"locality","source":"INEGI Gaia — Servicio vectorial del Marco Geoestadístico"}},{"type":"Feature","geometry":{"type":"MultiPolygon","crs":{"type":"name","properties":{"name":"EPSG:6365"}},"coordinates":[[[[-99.23640824,20.137376954],[-99.23640919,20.137045825],[-99.23640966,20.136882098],[-99.236568461,20.136907805],[-99.236795961,20.136913865],[-99.238406243,20.136943641],[-99.238431598,20.136944102],[-99.238505283,20.136945442],[-99.239106629,20.136981571],[-99.240373274,20.137094572],[-99.240874775,20.137168467],[-99.241638015,20.1373011],[-99.241966269,20.137351143],[-99.24203225,20.137366721],[-99.24219132,20.13739289],[-99.242157349,20.137460311],[-99.242147889,20.137458742],[-99.241934969,20.137423461],[-99.241935614,20.137425066],[-99.241952404,20.137466895],[-99.242041676,20.13768929],[-99.24204182,20.13768965],[-99.24207571,20.13769751],[-99.24207531,20.13822065],[-99.24203595,20.13879382],[-99.242014418,20.139303006],[-99.242008119,20.139451551],[-99.241992249,20.140003952],[-99.24198446,20.14012629],[-99.242155999,20.140157681],[-99.242235479,20.140364003],[-99.242333708,20.140576201],[-99.242336018,20.14071674],[-99.242282217,20.14094291],[-99.242244459,20.141067834],[-99.24215966,20.141463121],[-99.24204938,20.14182625],[-99.241979521,20.142006153],[-99.241924879,20.14214688],[-99.241783059,20.142514091],[-99.241716052,20.142690984],[-99.24167727,20.142793366],[-99.24163509,20.14290472],[-99.241545739,20.14304445],[-99.241495615,20.143102139],[-99.24146878,20.14313302],[-99.241463924,20.143136383],[-99.24132937,20.14322954],[-99.241178128,20.143283729],[-99.241130937,20.143300636],[-99.241123948,20.143303141],[-99.241121891,20.143303504],[-99.24071991,20.14337446],[-99.240377344,20.143462757],[-99.24034982,20.14346985],[-99.240346928,20.143470383],[-99.2401638,20.143504086],[-99.24014438,20.14350766],[-99.240058278,20.143514859],[-99.240010707,20.143518835],[-99.2399714,20.143522119],[-99.239970375,20.143522202],[-99.239960083,20.143523063],[-99.239933738,20.143525265],[-99.239921003,20.143526329],[-99.239918052,20.143526576],[-99.239901547,20.143527955],[-99.239853749,20.14353195],[-99.239791279,20.14355169],[-99.239368168,20.143645596],[-99.239344886,20.143650788],[-99.239344637,20.143650849],[-99.239120222,20.143707751],[-99.239119479,20.143707941],[-99.239107805,20.143711593],[-99.238983319,20.143750551],[-99.238879715,20.14378297],[-99.238846252,20.143793443],[-99.23867948,20.14384563],[-99.238402707,20.143920227],[-99.238376553,20.143927276],[-99.238360014,20.143931734],[-99.23834526,20.14393571],[-99.237861479,20.144066105],[-99.237829889,20.14407462],[-99.23771189,20.144106415],[-99.237682721,20.144114276],[-99.23763286,20.144127711],[-99.23704905,20.144284],[-99.236534214,20.144421821],[-99.236144908,20.144526028],[-99.236044459,20.1445685],[-99.236004623,20.144585349],[-99.236000052,20.14458661],[-99.235261039,20.144790351],[-99.235192369,20.144728309],[-99.235171382,20.143516265],[-99.235154218,20.142988101],[-99.235117676,20.142289231],[-99.235093638,20.141531567],[-99.235047949,20.141081581],[-99.234902631,20.138686332],[-99.234846989,20.137380091],[-99.23640824,20.137376954]]]]},"properties":{"locality":"Colonia Cuauhtémoc","municipality":null,"official_key":"130700003","CVE_ENT":"13","CVE_MUN":"070","CVE_LOC":"0003","ambito":"URBANO","geometry_kind":"locality","source":"INEGI Gaia — Servicio vectorial del Marco Geoestadístico"}},{"type":"Feature","geometry":{"type":"MultiPolygon","crs":{"type":"name","properties":{"name":"EPSG:6365"}},"coordinates":[[[[-99.22644208,20.146998315],[-99.226088332,20.147090169],[-99.225657339,20.1472168],[-99.225260877,20.147307329],[-99.224896876,20.1473925],[-99.22487695,20.14734391],[-99.224649655,20.14740845],[-99.223853216,20.147637954],[-99.22382103,20.147516121],[-99.223899916,20.147324513],[-99.224086092,20.1472437],[-99.224076229,20.147192141],[-99.22403623,20.14712377],[-99.22395998,20.14707254],[-99.22386208,20.14708977],[-99.22375685,20.14706595],[-99.223368467,20.147186997],[-99.222906054,20.146300715],[-99.222786965,20.146300804],[-99.22269226,20.145788884],[-99.222533183,20.145417977],[-99.221982188,20.144786749],[-99.221692558,20.144019911],[-99.221533969,20.143687392],[-99.221190745,20.143245644],[-99.221982333,20.142844879],[-99.222419422,20.142738352],[-99.22308563,20.142727121],[-99.22398232,20.14265417],[-99.224530164,20.142541759],[-99.224828285,20.142476777],[-99.224797533,20.142306144],[-99.226206567,20.142043569],[-99.227786976,20.141756059],[-99.228289137,20.14281577],[-99.228006796,20.142923052],[-99.227622531,20.143103361],[-99.227567467,20.143131583],[-99.227089877,20.143379405],[-99.227473119,20.143640858],[-99.228077224,20.144259957],[-99.228413368,20.14490511],[-99.22854878,20.14543085],[-99.228696599,20.14594588],[-99.2287744,20.146207741],[-99.228794544,20.146404909],[-99.22644208,20.146998315]]]]},"properties":{"locality":"Cerro de la Cruz [Colonia]","municipality":null,"official_key":"130700014","CVE_ENT":"13","CVE_MUN":"070","CVE_LOC":"0014","ambito":"RURAL","geometry_kind":"locality","source":"INEGI Gaia — Servicio vectorial del Marco Geoestadístico"}},{"type":"Feature","geometry":{"type":"MultiPolygon","crs":{"type":"name","properties":{"name":"EPSG:6365"}},"coordinates":[[[[-99.238431598,20.136944102],[-99.238406243,20.136943641],[-99.236795961,20.136913865],[-99.236568461,20.136907805],[-99.23640966,20.136882098],[-99.236373902,20.136781419],[-99.236329061,20.136669515],[-99.236262834,20.13649136],[-99.236185074,20.136256011],[-99.236072157,20.135876065],[-99.23600685,20.13565294],[-99.235991046,20.135493697],[-99.235997218,20.135346852],[-99.236015599,20.135224222],[-99.236139915,20.134578672],[-99.236439455,20.133282499],[-99.23649251,20.133068617],[-99.236581797,20.132676756],[-99.236676259,20.132280191],[-99.236684959,20.1321028],[-99.236680766,20.131934774],[-99.236601489,20.13121354],[-99.236519037,20.13052344],[-99.236517477,20.130475426],[-99.23652622,20.1304204],[-99.236555768,20.130341762],[-99.236592543,20.130282449],[-99.237425799,20.129907127],[-99.237968936,20.129681876],[-99.239876448,20.128821629],[-99.241647692,20.128040457],[-99.242129249,20.12785909],[-99.242123664,20.127901768],[-99.24211578,20.127962021],[-99.242076319,20.128128752],[-99.241969,20.128582201],[-99.24190363,20.12878366],[-99.241763652,20.129027539],[-99.241698969,20.12914023],[-99.24166632,20.12925646],[-99.241646866,20.129345231],[-99.241625569,20.129442401],[-99.24158475,20.12958962],[-99.241561643,20.129677375],[-99.241552109,20.12971358],[-99.241519509,20.129860781],[-99.241412889,20.129922911],[-99.24131452,20.13000049],[-99.24119162,20.13014206],[-99.241117909,20.130258341],[-99.241093579,20.130444261],[-99.241077419,20.13061468],[-99.240995509,20.13072323],[-99.240979259,20.130831681],[-99.24094671,20.13102535],[-99.240988229,20.131335481],[-99.24107049,20.13145154],[-99.24128417,20.13162165],[-99.24133357,20.131722281],[-99.24138303,20.13185388],[-99.241384366,20.131875996],[-99.241391449,20.131993281],[-99.24137528,20.1321482],[-99.24138366,20.132264371],[-99.241387723,20.132302172],[-99.241400309,20.132419261],[-99.241540289,20.13270925],[-99.24165554,20.132918221],[-99.24185288,20.13313482],[-99.24196808,20.13332829],[-99.242074969,20.133444321],[-99.242089501,20.133645689],[-99.24210012,20.133792831],[-99.24210041,20.133803359],[-99.242115289,20.134342222],[-99.242124656,20.134681444],[-99.242126219,20.13473808],[-99.242192079,20.134869661],[-99.24233191,20.13505535],[-99.24243298,20.135321455],[-99.24245554,20.13538085],[-99.24255437,20.135589851],[-99.242645109,20.13587629],[-99.24266998,20.136046661],[-99.242670199,20.13618608],[-99.242604709,20.1362946],[-99.24253911,20.136341171],[-99.242399659,20.136403311],[-99.242251979,20.13644998],[-99.242161879,20.13657405],[-99.24212105,20.13671063],[-99.24212942,20.136811311],[-99.242146059,20.1369662],[-99.242135361,20.136960991],[-99.242072679,20.13693046],[-99.242072258,20.136935017],[-99.242069128,20.136968783],[-99.24203225,20.137366721],[-99.241966269,20.137351143],[-99.241638015,20.1373011],[-99.240874775,20.137168467],[-99.240373274,20.137094572],[-99.239106629,20.136981571],[-99.238505283,20.136945442],[-99.238431598,20.136944102]]]]},"properties":{"locality":"La Media Luna","municipality":null,"official_key":"130700015","CVE_ENT":"13","CVE_MUN":"070","CVE_LOC":"0015","ambito":"RURAL","geometry_kind":"locality","source":"INEGI Gaia — Servicio vectorial del Marco Geoestadístico"}},{"type":"Feature","geometry":{"type":"MultiPolygon","crs":{"type":"name","properties":{"name":"EPSG:6365"}},"coordinates":[[[[-99.232788863,20.124343206],[-99.233648369,20.124133368],[-99.235207757,20.123702333],[-99.235963344,20.123511488],[-99.237833262,20.123006345],[-99.237770862,20.12455814],[-99.238700255,20.124250793],[-99.239676187,20.126769956],[-99.24220697,20.125846511],[-99.24236138,20.125844461],[-99.242357339,20.125942581],[-99.24217609,20.126776061],[-99.24203837,20.127473021],[-99.241993438,20.127773019],[-99.242143539,20.12773875],[-99.242132,20.12783806],[-99.242129249,20.12785909],[-99.241647692,20.128040457],[-99.239876448,20.128821629],[-99.237968936,20.129681876],[-99.237425799,20.129907127],[-99.236592543,20.130282449],[-99.236351738,20.130381236],[-99.236248879,20.130293737],[-99.236183454,20.130189603],[-99.236096583,20.130051353],[-99.23562451,20.129165708],[-99.235501259,20.128952922],[-99.23539125,20.128805221],[-99.235366295,20.128771723],[-99.235366168,20.128771552],[-99.235368216,20.128679575],[-99.23536935,20.12862865],[-99.235332951,20.128507339],[-99.235155979,20.128106832],[-99.234788168,20.127122],[-99.234436552,20.126210824],[-99.234307048,20.126037971],[-99.234203029,20.12592677],[-99.234180617,20.125895722],[-99.233325251,20.124953607],[-99.233046087,20.124647239],[-99.232906507,20.124494055],[-99.232788863,20.124343206]]]]},"properties":{"locality":"El Salitre","municipality":null,"official_key":"130700019","CVE_ENT":"13","CVE_MUN":"070","CVE_LOC":"0019","ambito":"RURAL","geometry_kind":"locality","source":"INEGI Gaia — Servicio vectorial del Marco Geoestadístico"}},{"type":"Feature","geometry":{"type":"MultiPolygon","crs":{"type":"name","properties":{"name":"EPSG:6365"}},"coordinates":[[[[-99.232211492,20.122892012],[-99.231794777,20.121759782],[-99.231742161,20.121628368],[-99.232107971,20.121527176],[-99.238013842,20.12007359],[-99.238024548,20.120141404],[-99.238010272,20.120323432],[-99.23797458,20.120562569],[-99.237956734,20.120808843],[-99.237917472,20.121601203],[-99.237833262,20.123006345],[-99.235963344,20.123511488],[-99.235207757,20.123702333],[-99.233648369,20.124133368],[-99.232788863,20.124343206],[-99.232688228,20.124115384],[-99.232211492,20.122892012]]]]},"properties":{"locality":"Dexhe","municipality":null,"official_key":"130700021","CVE_ENT":"13","CVE_MUN":"070","CVE_LOC":"0021","ambito":"RURAL","geometry_kind":"locality","source":"INEGI Gaia — Servicio vectorial del Marco Geoestadístico"}},{"type":"Feature","geometry":{"type":"MultiPolygon","crs":{"type":"name","properties":{"name":"EPSG:6365"}},"coordinates":[[[[-99.203756088,20.142334875],[-99.202152471,20.14338221],[-99.198670119,20.139290077],[-99.197256371,20.140375083],[-99.194731353,20.137671088],[-99.193222767,20.138712148],[-99.192101806,20.137277238],[-99.191493064,20.137746328],[-99.190679001,20.137041182],[-99.18955543,20.135712961],[-99.191113993,20.134555418],[-99.191870747,20.13398529],[-99.193281589,20.132922563],[-99.193335233,20.132831903],[-99.1936541,20.13251267],[-99.194471055,20.131892008],[-99.19470206,20.131718143],[-99.19551451,20.131056702],[-99.196128938,20.131792493],[-99.196557285,20.132298764],[-99.196757201,20.132530647],[-99.197304649,20.133186211],[-99.197411832,20.133318064],[-99.198509695,20.134594139],[-99.199242615,20.135457199],[-99.19924298,20.135457631],[-99.199788709,20.136075881],[-99.200959324,20.137418857],[-99.20213846,20.138815404],[-99.203340749,20.140229733],[-99.204561046,20.141634851],[-99.20579277,20.143071931],[-99.204922978,20.143736599],[-99.203756088,20.142334875]]]]},"properties":{"locality":"Cerro de Gómez [Colonia]","municipality":null,"official_key":"130700023","CVE_ENT":"13","CVE_MUN":"070","CVE_LOC":"0023","ambito":"RURAL","geometry_kind":"locality","source":"INEGI Gaia — Servicio vectorial del Marco Geoestadístico"}},{"type":"Feature","geometry":{"type":"MultiPolygon","crs":{"type":"name","properties":{"name":"EPSG:6365"}},"coordinates":[[[[-99.228126822,20.147497778],[-99.227271197,20.147590946],[-99.227314112,20.146991642],[-99.227252422,20.146838039],[-99.228062449,20.146626519],[-99.228126822,20.147497778]]],[[[-99.225211927,20.148902479],[-99.225333027,20.148025153],[-99.225275634,20.147331585],[-99.226091025,20.147167908],[-99.226189248,20.147858529],[-99.226353459,20.147848026],[-99.226424388,20.148592514],[-99.227199245,20.148359129],[-99.227225436,20.148591691],[-99.227878841,20.148805154],[-99.227406791,20.149586436],[-99.227091629,20.149909433],[-99.2270125,20.1500612],[-99.226662279,20.15017188],[-99.225991732,20.150304597],[-99.225040368,20.150530314],[-99.225211927,20.148902479]]]]},"properties":{"locality":"Guadalupe (Cerro del Tezontle) [Colonia]","municipality":null,"official_key":"130700024","CVE_ENT":"13","CVE_MUN":"070","CVE_LOC":"0024","ambito":"RURAL","geometry_kind":"locality","source":"INEGI Gaia — Servicio vectorial del Marco Geoestadístico"}},{"type":"Feature","geometry":{"type":"MultiPolygon","crs":{"type":"name","properties":{"name":"EPSG:6365"}},"coordinates":[[[[-99.190361249,20.125709574],[-99.190643216,20.12550256],[-99.190672688,20.125539871],[-99.191411597,20.12647531],[-99.191789761,20.126961135],[-99.193175029,20.128522401],[-99.19323232,20.128583862],[-99.193483689,20.128866545],[-99.193638305,20.129036817],[-99.193789996,20.129185534],[-99.194271836,20.129709015],[-99.194709062,20.130170037],[-99.195021137,20.130479339],[-99.19551451,20.131056702],[-99.19470206,20.131718143],[-99.194471055,20.131892008],[-99.1936541,20.13251267],[-99.193294829,20.132793472],[-99.193269902,20.132851407],[-99.193239446,20.132883768],[-99.192978656,20.13308745],[-99.192535125,20.133430092],[-99.192032584,20.133810805],[-99.191806058,20.13398403],[-99.191669002,20.134081112],[-99.191608088,20.134105859],[-99.191581438,20.134122991],[-99.190427875,20.134971982],[-99.189857757,20.135418606],[-99.18921381,20.135915558],[-99.187995903,20.134570013],[-99.188584539,20.134087141],[-99.187313293,20.132733602],[-99.187402465,20.132657978],[-99.186207351,20.131291417],[-99.186934924,20.13072213],[-99.185951431,20.129553495],[-99.185551712,20.129480107],[-99.185851545,20.129160149],[-99.186977657,20.128279392],[-99.187545157,20.127961733],[-99.187819985,20.127765427],[-99.188030568,20.127476324],[-99.188430318,20.127205064],[-99.189090617,20.126683962],[-99.189650981,20.126248522],[-99.190361249,20.125709574]]]]},"properties":{"locality":"Cerro el Gavilán","municipality":null,"official_key":"130700028","CVE_ENT":"13","CVE_MUN":"070","CVE_LOC":"0028","ambito":"RURAL","geometry_kind":"locality","source":"INEGI Gaia — Servicio vectorial del Marco Geoestadístico"}},{"type":"Feature","geometry":{"type":"Polygon","coordinates":[[[-99.2347221,20.1351587],[-99.2346756,20.1344067],[-99.23462,20.1334139],[-99.2346322,20.1333789],[-99.2346321,20.1333131],[-99.2346181,20.1331177],[-99.2345971,20.1324858],[-99.2345847,20.1323933],[-99.2345658,20.1322231],[-99.2345388,20.1320425],[-99.234523,20.1319626],[-99.234465,20.1319775],[-99.2337822,20.1320738],[-99.2338,20.1322206],[-99.2338464,20.1329231],[-99.2338568,20.1333339],[-99.2338128,20.1333354],[-99.2337336,20.1333354],[-99.2332505,20.133375],[-99.2322851,20.133509],[-99.2322198,20.1335233],[-99.2321269,20.1335139],[-99.2312083,20.1336267],[-99.2307656,20.133674],[-99.230756,20.1336421],[-99.2307421,20.1335933],[-99.230524,20.1321281],[-99.2304844,20.1319189],[-99.2304197,20.1315765],[-99.2303984,20.1314615],[-99.2303055,20.1309884],[-99.2302772,20.1308268],[-99.2300713,20.1297633],[-99.2300123,20.1294131],[-99.2306336,20.1293518],[-99.2314252,20.1292752],[-99.2319901,20.1291979],[-99.2328451,20.1290923],[-99.2334601,20.1290229],[-99.2340923,20.1289308],[-99.2345813,20.1288796],[-99.2350588,20.1288029],[-99.2353662,20.1287716],[-99.2353663,20.1287717],[-99.2353912,20.1288052],[-99.2355013,20.1289529],[-99.2356245,20.1291657],[-99.2360966,20.1300514],[-99.2361835,20.1301896],[-99.2362489,20.1302937],[-99.2362661,20.1303677],[-99.2364659,20.1314311],[-99.2364964,20.1321409],[-99.2364817,20.1322405],[-99.2364625,20.1323702],[-99.2362833,20.1329387],[-99.2362303,20.1331067],[-99.2362085,20.1332528],[-99.2362237,20.1334206],[-99.2361703,20.1338592],[-99.2361152,20.1341618],[-99.2360385,20.1345332],[-99.2358548,20.135422],[-99.2358735,20.1357194],[-99.2362714,20.1366657],[-99.2362952,20.1367223],[-99.2363451,20.1367841],[-99.2363457,20.1367849],[-99.2364097,20.1368821],[-99.2364131,20.1373441],[-99.2359602,20.137367],[-99.2354286,20.1373756],[-99.2349853,20.1373809],[-99.2348056,20.1373817],[-99.2347455,20.1358365],[-99.2347221,20.1351587]]]},"properties":{"locality":"Centro","official_key":"1307000010001","CVE_ENT":"13","CVE_MUN":"070","CVE_LOC":"0001","CVE_ASEN":"0001","settlement_type":"COLONIA","source":"INEGI DCAH 2025"}},{"type":"Feature","geometry":{"type":"Polygon","coordinates":[[[-99.2295254,20.1267036],[-99.229368,20.1258495],[-99.2293001,20.1255587],[-99.2292615,20.1254404],[-99.229133,20.1252547],[-99.2290467,20.125202],[-99.2288884,20.1250683],[-99.228389,20.1246619],[-99.2279295,20.1243024],[-99.2267055,20.1234231],[-99.2261733,20.1230462],[-99.2257736,20.1226158],[-99.225096,20.1217904],[-99.2247753,20.1213873],[-99.2245187,20.1212167],[-99.2244807,20.1211294],[-99.2237568,20.1206483],[-99.2234622,20.1204519],[-99.2230401,20.1201758],[-99.2229171,20.1200756],[-99.2228024,20.1199598],[-99.2227114,20.1198356],[-99.2226635,20.1194567],[-99.2226588,20.1192332],[-99.2226365,20.1185796],[-99.2225583,20.1164354],[-99.2268448,20.1197072],[-99.2272452,20.119534],[-99.2275388,20.1198063],[-99.2275397,20.1198071],[-99.2275403,20.1198063],[-99.2280007,20.1192224],[-99.2280015,20.1192214],[-99.2280022,20.1192224],[-99.2282891,20.1196459],[-99.2282896,20.1196466],[-99.2282907,20.119646],[-99.2289524,20.1192312],[-99.2289534,20.1192305],[-99.2288386,20.1190464],[-99.2294667,20.1185527],[-99.2299023,20.1183513],[-99.2310323,20.1180526],[-99.232108,20.1215272],[-99.2317422,20.1216284],[-99.2317948,20.1217598],[-99.2322115,20.122892],[-99.2326882,20.1241154],[-99.2327889,20.1243432],[-99.2329065,20.1244941],[-99.2330461,20.1246472],[-99.2333253,20.1249536],[-99.2341806,20.1258957],[-99.234203,20.1259268],[-99.2341288,20.1259766],[-99.2337511,20.1261324],[-99.2333889,20.1262739],[-99.2330539,20.1264093],[-99.232795,20.1265291],[-99.2323014,20.1267734],[-99.2320482,20.1263992],[-99.2309338,20.1265176],[-99.2299148,20.1266799],[-99.2295207,20.1267516],[-99.2295254,20.1267036]]]},"properties":{"locality":"El Depósito","official_key":"1307000010002","CVE_ENT":"13","CVE_MUN":"070","CVE_LOC":"0001","CVE_ASEN":"0002","settlement_type":"COLONIA","source":"INEGI DCAH 2025"}},{"type":"Feature","geometry":{"type":"Polygon","coordinates":[[[-99.2195479,20.1372105],[-99.2195574,20.1362019],[-99.2195568,20.1357936],[-99.2195603,20.1354398],[-99.2197379,20.1351318],[-99.2201186,20.1347035],[-99.2204373,20.1342936],[-99.2205981,20.1338951],[-99.2206969,20.1335083],[-99.2208463,20.1330252],[-99.2209312,20.1326848],[-99.2212621,20.131376],[-99.2214281,20.1307045],[-99.2219447,20.1306653],[-99.2230194,20.1305157],[-99.2243651,20.1302908],[-99.2244339,20.1302825],[-99.2245258,20.1302569],[-99.2248977,20.1301883],[-99.2255355,20.1300818],[-99.2262257,20.1299838],[-99.2263395,20.1299681],[-99.2266395,20.1299325],[-99.228073,20.129729],[-99.2288688,20.1295959],[-99.2293528,20.1294878],[-99.2300123,20.1294131],[-99.2300713,20.1297633],[-99.2302772,20.1308268],[-99.2303055,20.1309884],[-99.2303984,20.1314615],[-99.2304197,20.1315765],[-99.2304844,20.1319189],[-99.230524,20.1321281],[-99.2307421,20.1335933],[-99.230756,20.1336421],[-99.2307656,20.133674],[-99.2308539,20.1340276],[-99.2309807,20.1346425],[-99.2311455,20.1355012],[-99.2311682,20.1355698],[-99.2306566,20.135632],[-99.2299741,20.1357284],[-99.2295473,20.1357893],[-99.2291257,20.1358578],[-99.2285827,20.1360003],[-99.2282002,20.1360864],[-99.2277982,20.1361667],[-99.2274147,20.1362172],[-99.227182,20.1362466],[-99.2270669,20.1362415],[-99.2270311,20.1362679],[-99.226836,20.1364297],[-99.2262587,20.1368895],[-99.2251175,20.1377611],[-99.2250552,20.1378074],[-99.2249757,20.1377404],[-99.2248291,20.1375589],[-99.2244632,20.1365545],[-99.2241601,20.1366406],[-99.2234,20.1368929],[-99.2223607,20.1371897],[-99.2218029,20.137368],[-99.221261,20.1375462],[-99.2209653,20.1376775],[-99.2205262,20.1377522],[-99.2204979,20.1379819],[-99.2201433,20.1380438],[-99.2194978,20.1380986],[-99.2195479,20.1372105]]]},"properties":{"locality":"Miravalle","official_key":"1307000010003","CVE_ENT":"13","CVE_MUN":"070","CVE_LOC":"0001","CVE_ASEN":"0003","settlement_type":"COLONIA","source":"INEGI DCAH 2025"}},{"type":"Feature","geometry":{"type":"Polygon","coordinates":[[[-99.2307656,20.133674],[-99.2312083,20.1336267],[-99.2321269,20.1335139],[-99.2322198,20.1335233],[-99.2322851,20.133509],[-99.2332505,20.133375],[-99.2337336,20.1333354],[-99.2338128,20.1333354],[-99.2338568,20.1333339],[-99.2338464,20.1329231],[-99.2338,20.1322206],[-99.2337822,20.1320738],[-99.234465,20.1319775],[-99.234523,20.1319626],[-99.2345388,20.1320425],[-99.2345658,20.1322231],[-99.2345847,20.1323933],[-99.2345971,20.1324858],[-99.2346181,20.1331177],[-99.2346321,20.1333131],[-99.2346322,20.1333789],[-99.23462,20.1334139],[-99.2346756,20.1344067],[-99.2347221,20.1351587],[-99.2339667,20.135214],[-99.2329567,20.1353168],[-99.2327998,20.1353419],[-99.2327137,20.1353572],[-99.2316511,20.1355063],[-99.2311682,20.1355698],[-99.2311455,20.1355012],[-99.2309807,20.1346425],[-99.2308539,20.1340276],[-99.2307656,20.133674]]]},"properties":{"locality":"Rancho Viejo","official_key":"1307000010004","CVE_ENT":"13","CVE_MUN":"070","CVE_LOC":"0001","CVE_ASEN":"0004","settlement_type":"COLONIA","source":"INEGI DCAH 2025"}},{"type":"Feature","geometry":{"type":"Polygon","coordinates":[[[-99.2220882,20.1245801],[-99.2222004,20.1245788],[-99.2222835,20.1246284],[-99.2224667,20.1246554],[-99.2233751,20.1247501],[-99.2238646,20.1248082],[-99.2239608,20.1248196],[-99.224702,20.1248953],[-99.2252073,20.1249543],[-99.2253414,20.1250065],[-99.225344,20.1250665],[-99.225416,20.1254093],[-99.2261441,20.1253151],[-99.2270124,20.1252242],[-99.2270673,20.1252181],[-99.2274758,20.1251542],[-99.2283138,20.1250052],[-99.2287802,20.125086],[-99.2288884,20.1250683],[-99.2290467,20.125202],[-99.229133,20.1252547],[-99.2292615,20.1254404],[-99.2293001,20.1255587],[-99.229368,20.1258495],[-99.2295254,20.1267036],[-99.2295207,20.1267516],[-99.2297899,20.1281167],[-99.2299852,20.1292158],[-99.2300123,20.1294131],[-99.2293528,20.1294878],[-99.2288688,20.1295959],[-99.228073,20.129729],[-99.2266395,20.1299325],[-99.2263395,20.1299681],[-99.2262257,20.1299838],[-99.2255355,20.1300818],[-99.2248977,20.1301883],[-99.2245258,20.1302569],[-99.2244339,20.1302825],[-99.2243651,20.1302908],[-99.2230194,20.1305157],[-99.2219447,20.1306653],[-99.2214281,20.1307045],[-99.2214451,20.130319],[-99.2215233,20.1299267],[-99.2216357,20.1294012],[-99.2217004,20.1290235],[-99.2217697,20.1285736],[-99.2218473,20.1280522],[-99.2218901,20.127632],[-99.2218898,20.1274854],[-99.2219034,20.1273745],[-99.2213312,20.1273752],[-99.2207737,20.127389],[-99.220617,20.1273891],[-99.2204996,20.1264822],[-99.2203823,20.1255754],[-99.2203065,20.1247626],[-99.2203328,20.1247627],[-99.220619,20.1247535],[-99.2208023,20.1247532],[-99.2209873,20.1247201],[-99.2210442,20.1247096],[-99.22118,20.1246453],[-99.2220882,20.1245801]]]},"properties":{"locality":"San Francisco","official_key":"1307000010006","CVE_ENT":"13","CVE_MUN":"070","CVE_LOC":"0001","CVE_ASEN":"0006","settlement_type":"COLONIA","source":"INEGI DCAH 2025"}},{"type":"Feature","geometry":{"type":"Polygon","coordinates":[[[-99.2252073,20.1249543],[-99.224702,20.1248953],[-99.2239608,20.1248196],[-99.2238646,20.1248082],[-99.2233751,20.1247501],[-99.2224667,20.1246554],[-99.2222835,20.1246284],[-99.2222004,20.1245788],[-99.2220882,20.1245801],[-99.2222182,20.1236531],[-99.2223879,20.1225392],[-99.2224758,20.1220437],[-99.2224994,20.1215967],[-99.2224636,20.1209577],[-99.2224606,20.1209154],[-99.2221745,20.1209754],[-99.2221438,20.1209807],[-99.2220681,20.1202492],[-99.2221672,20.120245],[-99.2221925,20.1199452],[-99.2222252,20.119881],[-99.2219598,20.1197106],[-99.2222873,20.1191867],[-99.2223933,20.1191865],[-99.2225805,20.119179],[-99.2226588,20.1192332],[-99.2226635,20.1194567],[-99.2227114,20.1198356],[-99.2228024,20.1199598],[-99.2229171,20.1200756],[-99.2230401,20.1201758],[-99.2234622,20.1204519],[-99.2237568,20.1206483],[-99.2244807,20.1211294],[-99.2245187,20.1212167],[-99.2247753,20.1213873],[-99.225096,20.1217904],[-99.2257736,20.1226158],[-99.2261733,20.1230462],[-99.2267055,20.1234231],[-99.2279295,20.1243024],[-99.228389,20.1246619],[-99.2288884,20.1250683],[-99.2287802,20.125086],[-99.2283138,20.1250052],[-99.2274758,20.1251542],[-99.2270673,20.1252181],[-99.2270124,20.1252242],[-99.2261441,20.1253151],[-99.225416,20.1254093],[-99.225344,20.1250665],[-99.2253414,20.1250065],[-99.2252073,20.1249543]]]},"properties":{"locality":"San Primitivo","official_key":"1307000010007","CVE_ENT":"13","CVE_MUN":"070","CVE_LOC":"0001","CVE_ASEN":"0007","settlement_type":"COLONIA","source":"INEGI DCAH 2025"}},{"type":"Feature","geometry":{"type":"Polygon","coordinates":[[[-99.2337843,20.143421],[-99.2337261,20.1433278],[-99.2334385,20.1434461],[-99.2333015,20.1431036],[-99.2335871,20.1430732],[-99.2339347,20.1430422],[-99.2339722,20.1430329],[-99.2339978,20.1430188],[-99.2340713,20.1429728],[-99.2342232,20.1428746],[-99.2343059,20.1428145],[-99.2343326,20.1428042],[-99.2349224,20.1427137],[-99.2350039,20.1427171],[-99.2350216,20.1430362],[-99.2350496,20.1435397],[-99.23511,20.1449618],[-99.23511,20.1449629],[-99.23511,20.1449635],[-99.2351104,20.1452222],[-99.2351148,20.1453716],[-99.2351275,20.1454738],[-99.235126,20.1455803],[-99.2350157,20.1455843],[-99.2348434,20.1454709],[-99.2344401,20.1449084],[-99.2342855,20.1447392],[-99.2339808,20.1438889],[-99.2337843,20.143421]]]},"properties":{"locality":"El Sifón","official_key":"1307000010008","CVE_ENT":"13","CVE_MUN":"070","CVE_LOC":"0001","CVE_ASEN":"0008","settlement_type":"COLONIA","source":"INEGI DCAH 2025"}},{"type":"Feature","geometry":{"type":"Polygon","coordinates":[[[-99.2295207,20.1267516],[-99.2299148,20.1266799],[-99.2309338,20.1265176],[-99.2320482,20.1263992],[-99.2323014,20.1267734],[-99.232795,20.1265291],[-99.2330539,20.1264093],[-99.2333889,20.1262739],[-99.2337511,20.1261324],[-99.2341288,20.1259766],[-99.234203,20.1259268],[-99.234307,20.126038],[-99.2344366,20.1262108],[-99.2347882,20.127122],[-99.235156,20.1281068],[-99.235333,20.1285073],[-99.2353694,20.1286286],[-99.2353682,20.1286796],[-99.2353662,20.1287716],[-99.2350588,20.1288029],[-99.2345813,20.1288796],[-99.2340923,20.1289308],[-99.2334601,20.1290229],[-99.2328451,20.1290923],[-99.2319901,20.1291979],[-99.2314252,20.1292752],[-99.2306336,20.1293518],[-99.2300123,20.1294131],[-99.2299852,20.1292158],[-99.2297899,20.1281167],[-99.2295207,20.1267516]]]},"properties":{"locality":"Zaragoza","official_key":"1307000010009","CVE_ENT":"13","CVE_MUN":"070","CVE_LOC":"0001","CVE_ASEN":"0009","settlement_type":"COLONIA","source":"INEGI DCAH 2025"}},{"type":"Feature","geometry":{"type":"Polygon","coordinates":[[[-99.227182,20.1362466],[-99.2274147,20.1362172],[-99.2277982,20.1361667],[-99.2282002,20.1360864],[-99.2285827,20.1360003],[-99.2291257,20.1358578],[-99.2295473,20.1357893],[-99.2299741,20.1357284],[-99.2306566,20.135632],[-99.2311682,20.1355698],[-99.2316511,20.1355063],[-99.2327137,20.1353572],[-99.2327998,20.1353419],[-99.2329567,20.1353168],[-99.2339667,20.135214],[-99.2347221,20.1351587],[-99.2347455,20.1358365],[-99.2348056,20.1373817],[-99.2348067,20.1374251],[-99.2348405,20.1386965],[-99.2349003,20.1400375],[-99.2349428,20.1413162],[-99.2349731,20.1418721],[-99.2349906,20.1423515],[-99.2350039,20.1427171],[-99.2349224,20.1427137],[-99.2343326,20.1428042],[-99.2343059,20.1428145],[-99.2342232,20.1428746],[-99.2340713,20.1429728],[-99.2339978,20.1430188],[-99.2339722,20.1430329],[-99.2339347,20.1430422],[-99.2335871,20.1430732],[-99.2333015,20.1431036],[-99.2324629,20.1431394],[-99.2319724,20.1431543],[-99.2313143,20.1431817],[-99.2304289,20.1432261],[-99.2300943,20.1432421],[-99.2300943,20.1432002],[-99.2300942,20.1431613],[-99.2300599,20.1421935],[-99.2300256,20.1412258],[-99.2299913,20.1402581],[-99.230036,20.1402458],[-99.2300678,20.1401413],[-99.2299423,20.1400205],[-99.2295429,20.1398093],[-99.2291399,20.1395699],[-99.2288279,20.1393807],[-99.2286028,20.1391907],[-99.228381,20.1389628],[-99.2283134,20.1388246],[-99.2281761,20.1385141],[-99.2281119,20.1381851],[-99.2279946,20.1377172],[-99.227936,20.1374522],[-99.2279445,20.1374114],[-99.2280211,20.1373008],[-99.2280371,20.1371635],[-99.2280168,20.1370771],[-99.227371,20.1372175],[-99.227182,20.1362466]]]},"properties":{"locality":"Nueva Reforma","official_key":"1307000010011","CVE_ENT":"13","CVE_MUN":"070","CVE_LOC":"0001","CVE_ASEN":"0011","settlement_type":"COLONIA","source":"INEGI DCAH 2025"}},{"type":"Feature","geometry":{"type":"Polygon","coordinates":[[[-99.2035626,20.1355614],[-99.2035624,20.1355609],[-99.2035611,20.1355614],[-99.2031006,20.1357285],[-99.2030994,20.1357289],[-99.2030991,20.1357285],[-99.2022595,20.1344982],[-99.2022493,20.1344833],[-99.202249,20.1344829],[-99.2022478,20.1344833],[-99.200695,20.1349855],[-99.1998622,20.1352429],[-99.1992441,20.1354572],[-99.199243,20.1354576],[-99.1992426,20.1354572],[-99.1985097,20.1345941],[-99.1974118,20.1333181],[-99.1973046,20.1331862],[-99.1967572,20.1325306],[-99.1965573,20.1322988],[-99.1961289,20.1317925],[-99.1955145,20.1310567],[-99.1950211,20.1304793],[-99.1947091,20.13017],[-99.1942718,20.129709],[-99.19379,20.1291855],[-99.1936383,20.1290368],[-99.1934837,20.1288665],[-99.1932323,20.1285839],[-99.193175,20.1285224],[-99.1917898,20.1269611],[-99.1914116,20.1264753],[-99.1937945,20.1254978],[-99.1943447,20.1253877],[-99.1939705,20.1249703],[-99.1934997,20.1243816],[-99.1933702,20.123839],[-99.1948668,20.1235266],[-99.1942987,20.1222787],[-99.1942823,20.1221727],[-99.1941166,20.1211061],[-99.1941944,20.1210422],[-99.1945405,20.1211649],[-99.1948631,20.1212221],[-99.1949286,20.1217711],[-99.1955658,20.1217902],[-99.195851,20.1218752],[-99.1959447,20.1219366],[-99.1960388,20.1219982],[-99.1962395,20.122054],[-99.1962727,20.1220632],[-99.1964552,20.1222612],[-99.1966189,20.122346],[-99.1967491,20.1223455],[-99.1972125,20.1222817],[-99.197327,20.1222327],[-99.1974871,20.1219169],[-99.1975129,20.1218661],[-99.1976907,20.1215511],[-99.1977002,20.1215343],[-99.197811,20.1214585],[-99.1980368,20.1214126],[-99.1982227,20.1214556],[-99.1982656,20.1214655],[-99.1986702,20.1216408],[-99.1989221,20.1216723],[-99.1993434,20.1215675],[-99.1995671,20.1214334],[-99.1997132,20.1214178],[-99.19994,20.1214133],[-99.200131,20.1214385],[-99.2001747,20.1214533],[-99.2003556,20.1215145],[-99.2005535,20.12165],[-99.2005544,20.1216512],[-99.2006246,20.1217419],[-99.2007191,20.1218753],[-99.2007978,20.1219516],[-99.2009022,20.1220342],[-99.2010091,20.1221188],[-99.201138,20.1221935],[-99.2012391,20.1222188],[-99.2015042,20.1222228],[-99.2017525,20.1222395],[-99.2019299,20.1221799],[-99.2026988,20.1217757],[-99.2028842,20.1216967],[-99.2030661,20.121669],[-99.2033478,20.1216877],[-99.2033757,20.1216914],[-99.2035882,20.1217193],[-99.2038398,20.121772],[-99.2040208,20.1217378],[-99.2048685,20.1215159],[-99.2052492,20.1214263],[-99.2053973,20.121352],[-99.2054213,20.1213343],[-99.2054779,20.1212926],[-99.2054781,20.1212925],[-99.2054795,20.1212926],[-99.2056121,20.1213057],[-99.205645,20.121364],[-99.2059227,20.121848],[-99.2061785,20.122886],[-99.2063528,20.1239445],[-99.2069809,20.1261424],[-99.207323,20.1274967],[-99.2092038,20.1277445],[-99.2091357,20.1283926],[-99.2109938,20.1284005],[-99.2109953,20.1284005],[-99.2110407,20.1304302],[-99.2088112,20.1306284],[-99.2066111,20.130811],[-99.20634,20.1310062],[-99.2068983,20.1329223],[-99.2052951,20.1334689],[-99.2048676,20.1336147],[-99.2063016,20.1356416],[-99.2041229,20.1366802],[-99.2041216,20.1366808],[-99.2041213,20.1366802],[-99.2035626,20.1355614]]]},"properties":{"locality":"Munitepec de Madero","official_key":"1307000020001","CVE_ENT":"13","CVE_MUN":"070","CVE_LOC":"0002","CVE_ASEN":"0001","settlement_type":"COLONIA","source":"INEGI DCAH 2025"}},{"type":"Feature","geometry":{"type":"Polygon","coordinates":[[[-99.2350039,20.1427171],[-99.2349906,20.1423515],[-99.2349731,20.1418721],[-99.2349428,20.1413162],[-99.2349003,20.1400375],[-99.2348405,20.1386965],[-99.2348067,20.1374251],[-99.2348056,20.1373817],[-99.2349853,20.1373809],[-99.2354286,20.1373756],[-99.2359602,20.137367],[-99.2364131,20.1373441],[-99.2364097,20.1368821],[-99.2363457,20.1367849],[-99.2363451,20.1367841],[-99.2363472,20.1367849],[-99.2365526,20.1368658],[-99.2366106,20.1368777],[-99.2367005,20.1368961],[-99.2367006,20.1368961],[-99.2367021,20.1368961],[-99.2383222,20.1369112],[-99.2383236,20.1369112],[-99.2383237,20.1369113],[-99.238426,20.1369347],[-99.2384776,20.137022],[-99.2385276,20.137372],[-99.2386577,20.1374037],[-99.2386581,20.1374038],[-99.2386592,20.1374037],[-99.2387685,20.1373957],[-99.239084,20.1373573],[-99.2396534,20.1373551],[-99.2400083,20.1373462],[-99.2400092,20.1373462],[-99.2400098,20.1373462],[-99.2401945,20.1373612],[-99.2403682,20.1373753],[-99.2409379,20.1374516],[-99.241281,20.1375157],[-99.2413634,20.137531],[-99.241675,20.1376061],[-99.2419385,20.1376656],[-99.2420402,20.1376893],[-99.2420418,20.1376897],[-99.2420757,20.1376975],[-99.2420753,20.1382207],[-99.242036,20.1387938],[-99.2420144,20.139303],[-99.2420081,20.1394516],[-99.2419922,20.140004],[-99.2419845,20.1401263],[-99.242156,20.1401577],[-99.2422355,20.140364],[-99.2423337,20.1405762],[-99.242336,20.1407167],[-99.2422822,20.1409429],[-99.2422445,20.1410678],[-99.2421597,20.1414631],[-99.2420494,20.1418263],[-99.2419795,20.1420062],[-99.2419249,20.1421469],[-99.2417831,20.1425141],[-99.2417161,20.142691],[-99.2416773,20.1427934],[-99.2416351,20.1429047],[-99.2415457,20.1430444],[-99.2414956,20.1431021],[-99.2414688,20.143133],[-99.2414639,20.1431364],[-99.2413294,20.1432295],[-99.2411781,20.1432837],[-99.2411309,20.1433006],[-99.2411239,20.1433031],[-99.2411219,20.1433035],[-99.2407199,20.1433745],[-99.2403773,20.1434628],[-99.2403498,20.1434699],[-99.2403469,20.1434704],[-99.2401638,20.1435041],[-99.2401444,20.1435077],[-99.2400583,20.1435149],[-99.2400107,20.1435188],[-99.2399714,20.1435221],[-99.2399704,20.1435222],[-99.2399601,20.1435231],[-99.2399337,20.1435253],[-99.239921,20.1435263],[-99.2399181,20.1435266],[-99.2399015,20.143528],[-99.2398537,20.143532],[-99.2397913,20.1435517],[-99.2393682,20.1436456],[-99.2393449,20.1436508],[-99.2393446,20.1436508],[-99.2391202,20.1437078],[-99.2391195,20.1437079],[-99.2391078,20.1437116],[-99.2389833,20.1437506],[-99.2388797,20.143783],[-99.2388463,20.1437934],[-99.2386795,20.1438456],[-99.2384027,20.1439202],[-99.2383766,20.1439273],[-99.23836,20.1439317],[-99.2383453,20.1439357],[-99.2378615,20.1440661],[-99.2378299,20.1440746],[-99.2377119,20.1441064],[-99.2376827,20.1441143],[-99.2376329,20.1441277],[-99.237049,20.144284],[-99.2365342,20.1444218],[-99.2361449,20.144526],[-99.2360445,20.1445685],[-99.2360046,20.1445853],[-99.2360001,20.1445866],[-99.235261,20.1447904],[-99.2351115,20.1449618],[-99.235111,20.1449624],[-99.23511,20.1449635],[-99.23511,20.1449629],[-99.23511,20.1449618],[-99.2350496,20.1435397],[-99.2350216,20.1430362],[-99.2350039,20.1427171]]]},"properties":{"locality":"Cuauhtémoc","official_key":"1307000030001","CVE_ENT":"13","CVE_MUN":"070","CVE_LOC":"0003","CVE_ASEN":"0001","settlement_type":"COLONIA","source":"INEGI DCAH 2025"}},{"type":"Feature","geometry":{"type":"Polygon","coordinates":[[[-99.2264421,20.1469983],[-99.2260883,20.1470902],[-99.2256573,20.1472168],[-99.2252609,20.1473073],[-99.2248969,20.1473925],[-99.2248769,20.1473439],[-99.2246497,20.1474085],[-99.2238532,20.147638],[-99.223821,20.1475161],[-99.2238999,20.1473245],[-99.2240861,20.1472437],[-99.2240762,20.1471921],[-99.2240362,20.1471238],[-99.22396,20.1470725],[-99.2238621,20.1470898],[-99.2237569,20.147066],[-99.2233685,20.147187],[-99.2229061,20.1463007],[-99.222787,20.1463008],[-99.2226923,20.1457889],[-99.2225332,20.145418],[-99.2219822,20.1447867],[-99.2216926,20.1440199],[-99.221534,20.1436874],[-99.2211907,20.1432456],[-99.2219823,20.1428449],[-99.2224194,20.1427384],[-99.2230856,20.1427271],[-99.2239823,20.1426542],[-99.2245302,20.1425418],[-99.2248283,20.1424768],[-99.2247975,20.1423061],[-99.2262066,20.1420436],[-99.227787,20.1417561],[-99.2282891,20.1428158],[-99.2280068,20.1429231],[-99.2276225,20.1431034],[-99.2275675,20.1431316],[-99.2270899,20.1433794],[-99.2274731,20.1436409],[-99.2280772,20.14426],[-99.2284134,20.1449051],[-99.2285488,20.1454309],[-99.2286966,20.1459459],[-99.2287744,20.1462077],[-99.2287945,20.1464049],[-99.2264421,20.1469983]]]},"properties":{"locality":"Cerro de la Cruz","official_key":"1307000140001","CVE_ENT":"13","CVE_MUN":"070","CVE_LOC":"0014","CVE_ASEN":"0001","settlement_type":"COLONIA","source":"INEGI DCAH 2025"}},{"type":"Feature","geometry":{"type":"Polygon","coordinates":[[[-99.241935,20.1374235],[-99.2401805,20.1371086],[-99.238426,20.1369347],[-99.2383237,20.1369113],[-99.2383236,20.1369112],[-99.2383222,20.1369112],[-99.2367021,20.1368961],[-99.2367006,20.1368961],[-99.2367005,20.1368961],[-99.2366106,20.1368777],[-99.2365526,20.1368658],[-99.2363472,20.1367849],[-99.2363451,20.1367841],[-99.2362952,20.1367223],[-99.2362714,20.1366657],[-99.2358735,20.1357194],[-99.2358548,20.135422],[-99.2360385,20.1345332],[-99.2361152,20.1341618],[-99.2361703,20.1338592],[-99.2362237,20.1334206],[-99.2362085,20.1332528],[-99.2362303,20.1331067],[-99.2362833,20.1329387],[-99.2364625,20.1323702],[-99.2364817,20.1322405],[-99.2364964,20.1321409],[-99.2364659,20.1314311],[-99.2362661,20.1303677],[-99.2373944,20.1298461],[-99.2379953,20.1295782],[-99.2385408,20.1293446],[-99.2395387,20.1289069],[-99.2411249,20.128238],[-99.2415617,20.1279957],[-99.2419177,20.127842],[-99.2421435,20.1277387],[-99.242132,20.1278381],[-99.2421292,20.1278591],[-99.2421237,20.1279018],[-99.2421158,20.127962],[-99.2420763,20.1281288],[-99.241969,20.1285822],[-99.2419036,20.1287837],[-99.2417637,20.1290275],[-99.241699,20.1291402],[-99.2416663,20.1292565],[-99.2416469,20.1293452],[-99.2416256,20.1294424],[-99.2415848,20.1295896],[-99.2415616,20.1296774],[-99.2415521,20.1297136],[-99.2415195,20.1298608],[-99.2414129,20.1299229],[-99.2413145,20.1300005],[-99.2411916,20.1301421],[-99.2411179,20.1302583],[-99.2410936,20.1304443],[-99.2410774,20.1306147],[-99.2409955,20.1307232],[-99.2409793,20.1308317],[-99.2409467,20.1310254],[-99.2409882,20.1313355],[-99.2410705,20.1314515],[-99.2412842,20.1316216],[-99.2413336,20.1317223],[-99.241383,20.1318539],[-99.2413844,20.131876],[-99.2413914,20.1319933],[-99.2413753,20.1321482],[-99.2413837,20.1322644],[-99.2413877,20.1323022],[-99.2414003,20.1324193],[-99.2415403,20.1327093],[-99.2416555,20.1329182],[-99.2418529,20.1331348],[-99.2419681,20.1333283],[-99.242075,20.1334443],[-99.2420895,20.1336457],[-99.2421001,20.1337928],[-99.2421004,20.1338034],[-99.2421153,20.1343422],[-99.2421247,20.1346814],[-99.2421262,20.1347381],[-99.2421921,20.1348697],[-99.2423319,20.1350553],[-99.242433,20.1353215],[-99.2424555,20.1353809],[-99.2425544,20.1355899],[-99.2426451,20.1358763],[-99.24267,20.1360467],[-99.2426702,20.1361861],[-99.2426047,20.1362946],[-99.2425391,20.1363412],[-99.2423997,20.1364033],[-99.242252,20.13645],[-99.2421619,20.136574],[-99.2421211,20.1367106],[-99.2421294,20.1368113],[-99.2421461,20.1369662],[-99.2421354,20.136961],[-99.2420727,20.1369305],[-99.2420723,20.136935],[-99.2420691,20.1369688],[-99.2420323,20.1373667],[-99.2421913,20.1373929],[-99.2421573,20.1374603],[-99.2421479,20.1374587],[-99.241935,20.1374235]]]},"properties":{"locality":"La Media Luna","official_key":"1307000150001","CVE_ENT":"13","CVE_MUN":"070","CVE_LOC":"0015","CVE_ASEN":"0001","settlement_type":"COLONIA","source":"INEGI DCAH 2025"}},{"type":"Feature","geometry":{"type":"Polygon","coordinates":[[[-99.2353662,20.1287716],[-99.2353682,20.1286796],[-99.2353694,20.1286286],[-99.235333,20.1285073],[-99.235156,20.1281068],[-99.2347882,20.127122],[-99.2344366,20.1262108],[-99.234307,20.126038],[-99.234203,20.1259268],[-99.2341806,20.1258957],[-99.233952,20.1255972],[-99.2337958,20.1248373],[-99.2336849,20.1241433],[-99.2344893,20.1239281],[-99.2347696,20.1238523],[-99.2355877,20.1236312],[-99.2367765,20.1233061],[-99.237114,20.1232181],[-99.2378191,20.1230258],[-99.2377709,20.1245581],[-99.2387003,20.1242508],[-99.2396762,20.12677],[-99.242207,20.1258465],[-99.2423614,20.1258445],[-99.2423573,20.1259426],[-99.2421761,20.1267761],[-99.2420384,20.127473],[-99.2419177,20.127842],[-99.2415617,20.1279957],[-99.2411249,20.128238],[-99.2395387,20.1289069],[-99.2385408,20.1293446],[-99.2379953,20.1295782],[-99.2373944,20.1298461],[-99.2362661,20.1303677],[-99.2362489,20.1302937],[-99.2361835,20.1301896],[-99.2360966,20.1300514],[-99.2356245,20.1291657],[-99.2355013,20.1289529],[-99.2353912,20.1288052],[-99.2353663,20.1287717],[-99.2353662,20.1287716]]]},"properties":{"locality":"El Salitre","official_key":"1307000190001","CVE_ENT":"13","CVE_MUN":"070","CVE_LOC":"0019","CVE_ASEN":"0001","settlement_type":"COLONIA","source":"INEGI DCAH 2025"}},{"type":"Feature","geometry":{"type":"Polygon","coordinates":[[[-99.2322812,20.1228316],[-99.2318591,20.1216187],[-99.2380138,20.1200736],[-99.2380245,20.1201414],[-99.2380103,20.1203234],[-99.2379746,20.1205626],[-99.2379567,20.1208088],[-99.2379175,20.1216012],[-99.2378389,20.1229449],[-99.2338762,20.1240017],[-99.2328103,20.1242525],[-99.2322812,20.1228316]]]},"properties":{"locality":"Dexhe","official_key":"1307000210001","CVE_ENT":"13","CVE_MUN":"070","CVE_LOC":"0021","CVE_ASEN":"0001","settlement_type":"COLONIA","source":"INEGI DCAH 2025"}},{"type":"Feature","geometry":{"type":"Polygon","coordinates":[[[-99.2037561,20.1423349],[-99.2021525,20.1433822],[-99.1986701,20.1392901],[-99.1972564,20.1403751],[-99.1947314,20.1376711],[-99.1932228,20.1387121],[-99.1921018,20.1372772],[-99.1914931,20.1377463],[-99.190679,20.1370412],[-99.1895554,20.135713],[-99.191114,20.1345554],[-99.1918707,20.1339853],[-99.1932816,20.1329226],[-99.1933352,20.1328319],[-99.1936541,20.1325127],[-99.1944711,20.131892],[-99.1947021,20.1317181],[-99.1955145,20.1310567],[-99.1961289,20.1317925],[-99.1965573,20.1322988],[-99.1967572,20.1325306],[-99.1973046,20.1331862],[-99.1974118,20.1333181],[-99.1985097,20.1345941],[-99.1992426,20.1354572],[-99.199243,20.1354576],[-99.1997887,20.1360759],[-99.2009125,20.137204],[-99.2058361,20.1430452],[-99.204923,20.1437366],[-99.2037561,20.1423349]]]},"properties":{"locality":"Cerro de Gómez","official_key":"1307000230001","CVE_ENT":"13","CVE_MUN":"070","CVE_LOC":"0023","CVE_ASEN":"0001","settlement_type":"COLONIA","source":"INEGI DCAH 2025"}},{"type":"Feature","geometry":{"type":"MultiPolygon","coordinates":[[[[-99.2281268,20.1474978],[-99.2272712,20.1475909],[-99.2273141,20.1469916],[-99.2272524,20.146838],[-99.2280624,20.1466265],[-99.2281268,20.1474978]]],[[[-99.2252119,20.1489025],[-99.225333,20.1480252],[-99.2252756,20.1473316],[-99.226091,20.1471679],[-99.2261892,20.1478585],[-99.2263535,20.147848],[-99.2264244,20.1485925],[-99.2271992,20.1483591],[-99.2272254,20.1485917],[-99.2278788,20.1488052],[-99.2274068,20.1495864],[-99.2270916,20.1499094],[-99.2270125,20.1500612],[-99.2266623,20.1501719],[-99.2259917,20.1503046],[-99.2250404,20.1505303],[-99.2252119,20.1489025]]]]},"properties":{"locality":"Guadalupe (Cerro del Tezontle)","official_key":"1307000240001","CVE_ENT":"13","CVE_MUN":"070","CVE_LOC":"0024","CVE_ASEN":"0001","settlement_type":"COLONIA","source":"INEGI DCAH 2025"}},{"type":"Feature","geometry":{"type":"Polygon","coordinates":[[[-99.1903612,20.1257096],[-99.1906432,20.1255026],[-99.1906727,20.1255399],[-99.1914116,20.1264753],[-99.1917898,20.1269611],[-99.193175,20.1285224],[-99.1932323,20.1285839],[-99.1934837,20.1288665],[-99.1936383,20.1290368],[-99.19379,20.1291855],[-99.1942718,20.129709],[-99.1947091,20.13017],[-99.1950211,20.1304793],[-99.1955145,20.1310567],[-99.1947021,20.1317181],[-99.1944711,20.131892],[-99.1936541,20.1325127],[-99.1932948,20.1327935],[-99.1932699,20.1328514],[-99.1932394,20.1328838],[-99.1929787,20.1330874],[-99.1925351,20.1334301],[-99.1920326,20.1338108],[-99.1918061,20.133984],[-99.191669,20.1340811],[-99.1916081,20.1341059],[-99.1915814,20.134123],[-99.1904279,20.134972],[-99.1898578,20.1354186],[-99.1892138,20.1359156],[-99.1879959,20.13457],[-99.1885845,20.1340871],[-99.1873133,20.1327336],[-99.1874025,20.132658],[-99.1862074,20.1312914],[-99.1869349,20.1307221],[-99.1859514,20.1295535],[-99.1855517,20.1294801],[-99.1858515,20.1291601],[-99.1869777,20.1282794],[-99.1875452,20.1279617],[-99.18782,20.1277654],[-99.1880306,20.1274763],[-99.1884303,20.1272051],[-99.1890906,20.126684],[-99.189651,20.1262485],[-99.1903612,20.1257096]]]},"properties":{"locality":"Cerro el Gavilán","official_key":"1307000280001","CVE_ENT":"13","CVE_MUN":"070","CVE_LOC":"0028","CVE_ASEN":"0001","settlement_type":"COLONIA","source":"INEGI DCAH 2025"}}]}