{"type":"FeatureCollection","name":"inegi-hidalgo-072","metadata":{"state":"Hidalgo","CVE_ENT":"13","CVE_MUN":"072","municipality":"Tlanalapa","sources":["INEGI Gaia — Servicio vectorial del Marco Geoestadístico","INEGI DCAH 2025"],"source_urls":["https://gaia.inegi.org.mx/wscatgeo/v2/geo/mgem/13","https://gaia.inegi.org.mx/wscatgeo/v2/geo/localidades/pol/13/072","https://www.inegi.org.mx/contenidos/productos/prod_serv/contenidos/espanol/bvinegi/productos/geografia/delimitaciones/794551163078/13_hidalgo.zip"],"geometry_policy":"Solo se publican polígonos de INEGI; no se generan puntos ni geometrías sintéticas.","locality_polygon_count":7,"settlement_polygon_count":11},"municipality":{"type":"Feature","geometry":{"type":"MultiPolygon","crs":{"type":"name","properties":{"name":"EPSG:6365"}},"coordinates":[[[[-98.5695036,19.891622],[-98.56908742,19.89148454],[-98.56870102,19.89140812],[-98.56806235,19.89118057],[-98.56779622,19.89109017],[-98.56698565,19.89081883],[-98.56688772,19.89077906],[-98.56602748,19.89050046],[-98.56509303,19.89024309],[-98.5642532,19.88998986],[-98.56455694,19.88839875],[-98.56453074,19.88833249],[-98.56362457,19.88802266],[-98.56285869,19.88762668],[-98.56260915,19.88794674],[-98.56174022,19.88762978],[-98.56170194,19.88761637],[-98.56158703,19.88789358],[-98.561392,19.88842005],[-98.56144314,19.88879175],[-98.56128572,19.88897609],[-98.56112775,19.88913851],[-98.56099145,19.889469],[-98.56093355,19.88960842],[-98.56090783,19.88969048],[-98.56086542,19.88977888],[-98.56081725,19.88989448],[-98.56070103,19.89017838],[-98.560517,19.89062371],[-98.56053585,19.89065783],[-98.56016974,19.89055363],[-98.56006945,19.89055991],[-98.55926472,19.89033188],[-98.5553012,19.88896028],[-98.55510975,19.88890785],[-98.55511745,19.88902498],[-98.55501009,19.88916003],[-98.55488248,19.88927497],[-98.55479592,19.88941048],[-98.55474914,19.88961563],[-98.55464258,19.88972122],[-98.55449565,19.88977678],[-98.55438835,19.88991183],[-98.55419917,19.88999589],[-98.55385946,19.88987034],[-98.55366386,19.88979715],[-98.55347917,19.8897046],[-98.55327274,19.8896508],[-98.55301409,19.88960563],[-98.55283906,19.88954272],[-98.55256798,19.88938088],[-98.55224125,19.88925365],[-98.55199349,19.88918911],[-98.5515694,19.88911072],[-98.5512082,19.88901412],[-98.55094762,19.88904748],[-98.55067182,19.88926705],[-98.5502284,19.88954174],[-98.54970118,19.88984394],[-98.5494252,19.89007334],[-98.5491254,19.89042002],[-98.54890782,19.89039545],[-98.54866557,19.890249],[-98.54848006,19.89017328],[-98.54829471,19.89004738],[-98.54800309,19.88997138],[-98.547700364,19.889970608],[-98.547689996,19.889970582],[-98.547260847,19.889969487],[-98.54720718,19.88996935],[-98.54675154,19.89002168],[-98.54640957,19.88998445],[-98.54603695,19.88992685],[-98.54589798,19.889905705],[-98.545896141,19.889905426],[-98.54580922,19.8898922],[-98.54549965,19.88980658],[-98.54518,19.88971092],[-98.54497651,19.88953937],[-98.54468952,19.88938551],[-98.54437406,19.88912302],[-98.54410615,19.88890789],[-98.54378772,19.88893215],[-98.54325698,19.88898097],[-98.54280632,19.88885438],[-98.54239851,19.88852723],[-98.54168271,19.8883498],[-98.5411002,19.88794694],[-98.54070312,19.88764491],[-98.54035917,19.88731791],[-98.53988192,19.88721634],[-98.53948391,19.8872404],[-98.5391388,19.88731475],[-98.53852818,19.88746369],[-98.53820952,19.8875632],[-98.53791777,19.88753735],[-98.53759992,19.88736094],[-98.53733415,19.88761423],[-98.53721826,19.887203421],[-98.53658674,19.886733281],[-98.53640355,19.886622111],[-98.53431311,19.886643651],[-98.53419229,19.887168981],[-98.53381438,19.887359691],[-98.53296731,19.886691881],[-98.53257851,19.886252581],[-98.53228625,19.886081121],[-98.53139426,19.885047171],[-98.53087897,19.883606121],[-98.53065743,19.882859181],[-98.53026668,19.882180981],[-98.52951022,19.881646351],[-98.52923897,19.881460851],[-98.52900798,19.881237461],[-98.52867631,19.880882851],[-98.52846625,19.880686051],[-98.52827478,19.880229921],[-98.52801252,19.879738311],[-98.52786795,19.879317151],[-98.52773995,19.878715681],[-98.52712312,19.878225661],[-98.52624043,19.877619751],[-98.52545714,19.876642691],[-98.52527882,19.876189511],[-98.52501145,19.875664551],[-98.5248768,19.875045031],[-98.52471478,19.874451221],[-98.52466143,19.874038291],[-98.52458092,19.873573711],[-98.52455578,19.872851281],[-98.52444783,19.872438201],[-98.52431195,19.872231451],[-98.52417594,19.872076291],[-98.52510478,19.871820781],[-98.52524211,19.871537351],[-98.52535268,19.871073281],[-98.52538082,19.870789551],[-98.52538335,19.869938201],[-98.52530285,19.869473621],[-98.52524657,19.86928286],[-98.52494548,19.869565851],[-98.52461638,19.870080941],[-98.52428806,19.870338051],[-98.52382348,19.870517401],[-98.52333177,19.870645091],[-98.52297668,19.870721541],[-98.52251218,19.870875081],[-98.52223822,19.871209741],[-98.52215548,19.871493311],[-98.51443688,19.870466541],[-98.51440069,19.870493621],[-98.5143346,19.870484821],[-98.50915088,19.869763171],[-98.50909446,19.869755651],[-98.50039235,19.86856943],[-98.5102138,19.85238743],[-98.51463545,19.84485655],[-98.51504837,19.84432394],[-98.51667129,19.84457966],[-98.51760885,19.84488288],[-98.51820731,19.84491112],[-98.51969882,19.84546748],[-98.52082185,19.84583295],[-98.52086477,19.8458446],[-98.52442505,19.84673897],[-98.52578962,19.84594308],[-98.52540997,19.84532929],[-98.52615169,19.84573788],[-98.52617446,19.84588668],[-98.52658171,19.84588777],[-98.52715505,19.84593858],[-98.52778051,19.84598955],[-98.528267,19.84602371],[-98.52863174,19.84609043],[-98.52894226,19.84618314],[-98.52946965,19.84660083],[-98.53004069,19.84714351],[-98.53149252,19.84777177],[-98.53182555,19.84748042],[-98.53215195,19.84732211],[-98.53237448,19.8478958],[-98.53386811,19.84801049],[-98.53382028,19.84807912],[-98.53403722,19.84890022],[-98.53527215,19.84900431],[-98.53484814,19.84848385],[-98.53483205,19.84843855],[-98.53504217,19.84837558],[-98.53532302,19.84848426],[-98.53544466,19.84866265],[-98.53566365,19.84876946],[-98.53574157,19.84896183],[-98.53599397,19.84905329],[-98.53609245,19.84912997],[-98.53639894,19.84936745],[-98.53648954,19.84943009],[-98.53667455,19.84940271],[-98.53676478,19.84939082],[-98.53834383,19.84999251],[-98.5389026,19.85014266],[-98.53892022,19.85018602],[-98.53923242,19.85029203],[-98.53987937,19.85099409],[-98.53996155,19.85106969],[-98.54010945,19.85109491],[-98.54036466,19.85157188],[-98.54043258,19.85162648],[-98.54116206,19.85185335],[-98.54156828,19.8520144],[-98.54184317,19.85219491],[-98.54207588,19.85239695],[-98.5422168,19.85246763],[-98.54240105,19.85247183],[-98.54263977,19.85243792],[-98.54284155,19.85245377],[-98.54305149,19.85261595],[-98.54317752,19.85280431],[-98.54322149,19.85294585],[-98.54325982,19.853076],[-98.54329175,19.85322286],[-98.54342049,19.85330451],[-98.54367563,19.85332718],[-98.54401637,19.85331305],[-98.54434497,19.85325309],[-98.54464198,19.85326548],[-98.54489188,19.85325994],[-98.54503043,19.85319002],[-98.54519785,19.85315449],[-98.5455838,19.85294408],[-98.5458366,19.85291674],[-98.54603768,19.85296068],[-98.54615168,19.85299589],[-98.54604214,19.85202369],[-98.55082362,19.85250335],[-98.55099086,19.85368298],[-98.55212997,19.85332937],[-98.55269745,19.85348412],[-98.55327577,19.85391245],[-98.553678,19.85410386],[-98.55421462,19.85406543],[-98.55470208,19.85385374],[-98.5561234,19.85387126],[-98.55674605,19.8539118],[-98.55777429,19.85282817],[-98.55840063,19.85229483],[-98.55884677,19.85216575],[-98.55995626,19.85198082],[-98.56040642,19.85122498],[-98.56070255,19.85049574],[-98.56133465,19.84975463],[-98.56023115,19.84896965],[-98.55952846,19.84859971],[-98.56032902,19.84778609],[-98.55950272,19.84773642],[-98.55950771,19.84767946],[-98.56009428,19.84712786],[-98.56059565,19.84665225],[-98.56080698,19.84578369],[-98.56110178,19.84495486],[-98.56135469,19.84416543],[-98.56131583,19.84309875],[-98.56111123,19.84151814],[-98.5604524,19.83921329],[-98.56048726,19.83883428],[-98.5602558,19.83855414],[-98.55998145,19.83851352],[-98.55968588,19.8385128],[-98.55945414,19.83833251],[-98.55922246,19.83813225],[-98.55911738,19.83795228],[-98.55903322,19.83785223],[-98.55998469,19.83733538],[-98.56019637,19.83713623],[-98.56019742,19.83675683],[-98.56024091,19.83629766],[-98.56047385,19.83603863],[-98.56074918,19.83571982],[-98.56096108,19.83544078],[-98.56142674,19.83500262],[-98.56277098,19.83442546],[-98.56449731,19.83334272],[-98.56567389,19.83235314],[-98.56647529,19.83155168],[-98.56700088,19.83115125],[-98.56755214,19.83049095],[-98.56888531,19.82927103],[-98.56909894,19.82914832],[-98.56933012,19.82903589],[-98.56952917,19.82902989],[-98.56979305,19.82906448],[-98.56998309,19.82908611],[-98.57051002,19.82685026],[-98.57131717,19.82774628],[-98.57172603,19.82820526],[-98.57176705,19.82817949],[-98.57242795,19.82778603],[-98.57349168,19.82542529],[-98.57390966,19.82494083],[-98.57458998,19.82431694],[-98.57520442,19.82349863],[-98.57547383,19.82325842],[-98.57543177,19.82406565],[-98.57839355,19.82381908],[-98.58216138,19.8235492],[-98.58502769,19.82335117],[-98.58708978,19.8231872],[-98.58833877,19.8231128],[-98.58821309,19.82293568],[-98.5878874,19.82251825],[-98.58748,19.82190185],[-98.58694705,19.82087318],[-98.58666226,19.82031111],[-98.5863438,19.8193692],[-98.58607945,19.81822306],[-98.58586194,19.81737034],[-98.58565665,19.81647888],[-98.58544203,19.8155226],[-98.58526538,19.81476843],[-98.58512294,19.81418083],[-98.58493626,19.81340449],[-98.5848382,19.81298049],[-98.58474942,19.81252417],[-98.58461832,19.81202208],[-98.58450883,19.81162325],[-98.58439942,19.8112312],[-98.58408263,19.81066322],[-98.58376898,19.8101782],[-98.58340283,19.80925348],[-98.58135546,19.80339712],[-98.5813242,19.80330642],[-98.57977949,19.79884445],[-98.57957175,19.79826249],[-98.578923,19.79564708],[-98.57890891,19.79533872],[-98.57891183,19.79422728],[-98.57881886,19.79381862],[-98.57854925,19.78848943],[-98.57886618,19.78780842],[-98.57886906,19.787804268],[-98.57898218,19.78764109],[-98.57972654,19.78653911],[-98.58028623,19.78565854],[-98.58081865,19.78479331],[-98.58110977,19.78435483],[-98.58131709,19.784100521],[-98.581603599,19.783779061],[-98.581814109,19.783529492],[-98.581909702,19.783414377],[-98.58199455,19.783312201],[-98.582394417,19.78289628],[-98.58248483,19.78274666],[-98.582931883,19.781729254],[-98.58299673,19.781581677],[-98.583038618,19.78148635],[-98.583153249,19.78122546],[-98.58319226,19.781140911],[-98.58347031,19.78053323],[-98.583520379,19.780426521],[-98.583557627,19.780347133],[-98.583666079,19.780116],[-98.58388126,19.779657382],[-98.583975089,19.779445555],[-98.584000843,19.779387414],[-98.584073885,19.779222522],[-98.584389861,19.778509177],[-98.58445298,19.778366681],[-98.58451552,19.77828668],[-98.58453449,19.778283789],[-98.58453672,19.77828345],[-98.584538289,19.778283874],[-98.58462055,19.77830618],[-98.58468211,19.778353851],[-98.5846851,19.778356918],[-98.58472692,19.7783998],[-98.58474918,19.77843434],[-98.584766783,19.778518113],[-98.58477068,19.77853666],[-98.58481234,19.778722521],[-98.58484925,19.778857601],[-98.584853386,19.778866628],[-98.584938019,19.77905128],[-98.58503555,19.77928588],[-98.585052316,19.779337752],[-98.58507494,19.77940775],[-98.585131951,19.779533274],[-98.585134162,19.779538141],[-98.585149834,19.779572645],[-98.58517781,19.779634239],[-98.58527026,19.779837781],[-98.585359605,19.780038519],[-98.585364056,19.780048514],[-98.585374208,19.780071327],[-98.585432169,19.780201551],[-98.5855834,19.78054515],[-98.585634923,19.780659569],[-98.585809309,19.78104683],[-98.585875697,19.781193152],[-98.585893541,19.78123248],[-98.585914611,19.78127892],[-98.58594309,19.78134169],[-98.58605943,19.781605851],[-98.586097491,19.781688705],[-98.58613125,19.78176218],[-98.58621838,19.78194937],[-98.586312843,19.782161381],[-98.586338579,19.782219141],[-98.5864666,19.78250549],[-98.586522461,19.782628473],[-98.58659652,19.78279152],[-98.586605859,19.782812598],[-98.586621453,19.782847794],[-98.586621483,19.782847861],[-98.58672131,19.78307312],[-98.58685335,19.783364],[-98.58693815,19.78356265],[-98.58705934,19.78382475],[-98.58714786,19.78402128],[-98.5872278,19.78415498],[-98.58732268,19.78426975],[-98.58750103,19.78445317],[-98.587585017,19.784488129],[-98.58758663,19.7844888],[-98.587588817,19.784488215],[-98.58767455,19.78446526],[-98.58786223,19.78347148],[-98.58804992,19.78247769],[-98.588081861,19.782308562],[-98.5882376,19.78148392],[-98.58842528,19.78049014],[-98.588753789,19.779614879],[-98.58881703,19.77944638],[-98.58931295,19.77850345],[-98.58988363,19.77752029],[-98.59045429,19.77653714],[-98.590780253,19.775975558],[-98.59102495,19.77555398],[-98.59149851,19.77476035],[-98.59197205,19.77396674],[-98.59248072,19.77312049],[-98.59293788,19.7723576],[-98.59338331,19.7716102],[-98.5938758,19.77077443],[-98.59434223,19.76999766],[-98.595010299,19.768875103],[-98.595027203,19.768846699],[-98.59511058,19.7687066],[-98.59561646,19.7678552],[-98.595929657,19.767328089],[-98.59612234,19.7670038],[-98.59674546,19.76597348],[-98.59686666,19.76583975],[-98.59915452,19.76524417],[-98.60059802,19.76492278],[-98.59942511,19.76822914],[-98.60467023,19.77064249],[-98.60674235,19.77180657],[-98.61045723,19.77349698],[-98.61166368,19.77412895],[-98.60960392,19.77710892],[-98.61130232,19.77798622],[-98.6118188,19.77956585],[-98.6134122,19.78167272],[-98.61342862,19.78405143],[-98.61298934,19.78440722],[-98.61265418,19.78474375],[-98.61245348,19.78495395],[-98.61223637,19.78526892],[-98.61195057,19.78602205],[-98.61223371,19.78636842],[-98.61272949,19.78645478],[-98.61302086,19.78635845],[-98.61285445,19.78664298],[-98.61402374,19.78698694],[-98.61612003,19.78762955],[-98.61747562,19.78805122],[-98.61841223,19.78778306],[-98.61958642,19.78728912],[-98.62048288,19.78702226],[-98.62201669,19.78640408],[-98.62406618,19.78568271],[-98.62526105,19.78518252],[-98.62431386,19.79006386],[-98.62428742,19.79019746],[-98.6236136,19.79360203],[-98.62356192,19.79388869],[-98.62591077,19.79452929],[-98.62714926,19.79498268],[-98.6279928,19.7952028],[-98.62973692,19.79581052],[-98.63059557,19.79559815],[-98.63031525,19.79596052],[-98.63216491,19.79645155],[-98.6324362,19.79641265],[-98.63255817,19.79643317],[-98.63613903,19.79881992],[-98.63617285,19.79885043],[-98.63878785,19.80076963],[-98.63884968,19.80117568],[-98.63871995,19.80123071],[-98.63868852,19.80175658],[-98.63877045,19.80201465],[-98.6387618,19.80210763],[-98.6387338,19.80246823],[-98.63859185,19.80349968],[-98.63828223,19.80553155],[-98.63797545,19.80757625],[-98.63835406,19.80880771],[-98.63861811,19.80923125],[-98.63880034,19.80952866],[-98.63911503,19.80973972],[-98.63925354,19.80992634],[-98.63942308,19.81034911],[-98.63951202,19.81067188],[-98.63976405,19.81087254],[-98.63992954,19.81100431],[-98.63991282,19.81161198],[-98.63990311,19.81196445],[-98.64207675,19.81262986],[-98.64235491,19.81265231],[-98.64220442,19.81350942],[-98.64433638,19.81443795],[-98.64441863,19.81459874],[-98.64369885,19.81752251],[-98.64476392,19.81764098],[-98.64522872,19.81773712],[-98.64549446,19.81788911],[-98.64648918,19.81813302],[-98.64732677,19.81838131],[-98.64656331,19.81954732],[-98.64739262,19.81997115],[-98.64738903,19.81998772],[-98.64699317,19.82088154],[-98.64876252,19.82166185],[-98.64889382,19.82170805],[-98.64867394,19.82266111],[-98.64941703,19.82306417],[-98.65026005,19.82342528],[-98.65027663,19.82347385],[-98.64993475,19.82426995],[-98.65162963,19.8250072],[-98.65238997,19.82531431],[-98.65258494,19.82539303],[-98.65255728,19.82547137],[-98.65228763,19.82628692],[-98.6530568,19.82650394],[-98.65442615,19.82706368],[-98.65545583,19.82755051],[-98.65461091,19.8281012],[-98.65523809,19.82889135],[-98.65583954,19.82960298],[-98.65641534,19.83038911],[-98.65686177,19.83093446],[-98.65756705,19.83170171],[-98.65825642,19.83241425],[-98.65852229,19.8326838],[-98.65893082,19.83301798],[-98.65903077,19.83330342],[-98.65933537,19.83349972],[-98.65977977,19.83390718],[-98.66021095,19.83444468],[-98.66065855,19.83487955],[-98.66054022,19.8349716],[-98.66007762,19.83517766],[-98.65954202,19.83525103],[-98.6592784,19.83525834],[-98.65895514,19.83543472],[-98.65841197,19.83553414],[-98.65782157,19.83558011],[-98.65739695,19.8355908],[-98.65707732,19.83562309],[-98.65660503,19.83565855],[-98.65608843,19.83575291],[-98.65570411,19.83587549],[-98.65527078,19.83601668],[-98.65496962,19.83614109],[-98.65472389,19.83626674],[-98.65446314,19.83643794],[-98.6533662,19.83686991],[-98.65280609,19.83719748],[-98.65323135,19.83756817],[-98.65414455,19.83896414],[-98.65421545,19.83989437],[-98.65434051,19.84119098],[-98.65435877,19.84215928],[-98.65447934,19.84300889],[-98.654466,19.84478431],[-98.65419972,19.84652669],[-98.65400702,19.8472786],[-98.65407069,19.84812808],[-98.65409851,19.84819963],[-98.65390454,19.84975874],[-98.653864711,19.850237838],[-98.65385342,19.85037366],[-98.65378489,19.85033078],[-98.653384,19.85008732],[-98.65343762,19.85023962],[-98.65344874,19.85027162],[-98.653010521,19.850680485],[-98.65281785,19.85086025],[-98.65236472,19.85128065],[-98.65210771,19.851921],[-98.65090908,19.85256202],[-98.65079529,19.85221988],[-98.65049569,19.85248738],[-98.65083406,19.85273372],[-98.650143,19.85369634],[-98.64985466,19.85392292],[-98.64938388,19.85293454],[-98.64911878,19.85242682],[-98.64900872,19.85179918],[-98.64928497,19.85089383],[-98.64854882,19.85021542],[-98.64875134,19.84963071],[-98.64843432,19.84952282],[-98.64804762,19.84927563],[-98.64762182,19.84921511],[-98.64746734,19.84910608],[-98.64687043,19.84961175],[-98.64653903,19.84929103],[-98.64610434,19.84952858],[-98.64570292,19.8491294],[-98.64570249,19.84900863],[-98.64517552,19.84862271],[-98.64499265,19.84881868],[-98.64380003,19.84796632],[-98.64360957,19.84826463],[-98.64310929,19.84793111],[-98.64305411,19.84788335],[-98.6429366,19.84813631],[-98.64289988,19.84811082],[-98.64080066,19.84689425],[-98.64030266,19.84655648],[-98.63973203,19.84682474],[-98.63926837,19.84705954],[-98.63873345,19.8472942],[-98.63863125,19.84735371],[-98.63832385,19.847746],[-98.63799454,19.84818658],[-98.63780389,19.84843134],[-98.63749242,19.84862682],[-98.63711225,19.84862605],[-98.63680098,19.84872346],[-98.63645525,19.84878814],[-98.63607505,19.84880371],[-98.63590232,19.84877066],[-98.63576457,19.84855792],[-98.63554,19.84852478],[-98.6346958,19.8484452],[-98.63356295,19.84814483],[-98.6332878,19.84813734],[-98.63254975,19.84836398],[-98.63215988,19.85062006],[-98.63128117,19.85089838],[-98.63097709,19.85100168],[-98.62970823,19.8516926],[-98.62868777,19.85208922],[-98.62765498,19.85238414],[-98.62698826,19.85248534],[-98.62697378,19.85235128],[-98.62691138,19.85219282],[-98.62691189,19.85197512],[-98.62684929,19.85189583],[-98.62679745,19.85169782],[-98.62683971,19.85151978],[-98.62685062,19.85133178],[-98.62680908,19.85119317],[-98.6267152,19.85107423],[-98.62664229,19.85092565],[-98.62666369,19.85072777],[-98.62662234,19.85050998],[-98.62647734,19.85040434],[-98.62647105,19.85030486],[-98.62647086,19.85022017],[-98.62644252,19.85004346],[-98.62639954,19.84983555],[-98.62638989,19.84934071],[-98.62638448,19.84903017],[-98.62641989,19.84866258],[-98.62633058,19.84839483],[-98.62635866,19.84813142],[-98.62629349,19.84777663],[-98.62618977,19.84739049],[-98.62618042,19.84691549],[-98.62621268,19.84653954],[-98.6262346,19.84611408],[-98.62636077,19.84585706],[-98.62636142,19.84557998],[-98.62649763,19.84518931],[-98.62659238,19.84494212],[-98.62649898,19.84461538],[-98.62638454,19.84433806],[-98.62644815,19.84398197],[-98.626324,19.84337808],[-98.62630411,19.84294265],[-98.62614862,19.84231889],[-98.62598322,19.84179983],[-98.62590977,19.84155645],[-98.62592165,19.84095285],[-98.62609269,19.83983425],[-98.62630386,19.83901337],[-98.62689474,19.83711017],[-98.62582945,19.83677471],[-98.62454185,19.83636078],[-98.62289457,19.83583632],[-98.62046725,19.83507175],[-98.62031566,19.83525692],[-98.62020412,19.83547822],[-98.61989346,19.83605768],[-98.61967009,19.83649694],[-98.61933798,19.83714849],[-98.61891045,19.83798866],[-98.61884394,19.83821169],[-98.61875614,19.83870709],[-98.61860643,19.83961052],[-98.61854915,19.84026472],[-98.61757934,19.84062095],[-98.61726292,19.84117391],[-98.61699903,19.84173898],[-98.61669969,19.84236618],[-98.61649068,19.84277823],[-98.61623918,19.84321145],[-98.61590152,19.84365089],[-98.61543342,19.84412137],[-98.61485752,19.84476983],[-98.61426775,19.84566686],[-98.61362826,19.84672871],[-98.61318175,19.84719309],[-98.61386298,19.84725088],[-98.61407885,19.84731951],[-98.61391615,19.847481],[-98.61360322,19.84769383],[-98.6131652,19.84810955],[-98.61268005,19.84831146],[-98.61208555,19.84838328],[-98.61132734,19.84840178],[-98.60916622,19.84827762],[-98.60646628,19.84813726],[-98.60408748,19.84957582],[-98.60276677,19.84954843],[-98.60271511,19.85035303],[-98.60022968,19.85106551],[-98.59602968,19.85247348],[-98.5958646,19.85252794],[-98.5903816,19.85561152],[-98.58716485,19.86175728],[-98.58693748,19.86177083],[-98.58628925,19.86172386],[-98.58620172,19.86169577],[-98.58574438,19.86164702],[-98.58476557,19.86164026],[-98.58409678,19.86131974],[-98.58359092,19.861263],[-98.58209063,19.86129478],[-98.58129018,19.861336],[-98.57999151,19.86155462],[-98.57963634,19.86171578],[-98.57928826,19.86171163],[-98.57853688,19.86213729],[-98.5778668,19.86258812],[-98.57697878,19.86332272],[-98.57636229,19.86315826],[-98.57592549,19.86481671],[-98.57497745,19.86466289],[-98.57491602,19.86468546],[-98.57472591,19.865557],[-98.57448323,19.86677069],[-98.57441975,19.86706111],[-98.57431795,19.86752285],[-98.57422789,19.86797718],[-98.57407218,19.86880282],[-98.57382577,19.87032832],[-98.57377489,19.87056274],[-98.57375494,19.87135297],[-98.57371831,19.87211943],[-98.57370117,19.87300778],[-98.57366525,19.87355258],[-98.57364718,19.87404569],[-98.57364783,19.8742492],[-98.57378511,19.87503955],[-98.57387685,19.87563066],[-98.57391522,19.876078],[-98.57400151,19.87702405],[-98.57406809,19.87785438],[-98.57409283,19.87848849],[-98.57416857,19.87986846],[-98.57428943,19.88176102],[-98.57440846,19.88286132],[-98.57457118,19.88483525],[-98.57476025,19.8880876],[-98.57466734,19.88921742],[-98.57407869,19.89029489],[-98.57334949,19.89154492],[-98.57282908,19.89145938],[-98.57201169,19.89111603],[-98.57096237,19.89066274],[-98.57075831,19.89055743],[-98.57062775,19.89056918],[-98.57004208,19.89178909],[-98.5695036,19.891622]]]]},"properties":{"municipality":"Tlanalapa","official_key":"13072","CVE_ENT":"13","CVE_MUN":"072","geometry_kind":"municipality","source":"INEGI Gaia — Servicio vectorial del Marco Geoestadístico"}},"features":[{"type":"Feature","geometry":{"type":"MultiPolygon","crs":{"type":"name","properties":{"name":"EPSG:6365"}},"coordinates":[[[[-98.60370012,19.822599301],[-98.6032846,19.821874923],[-98.602919277,19.822039446],[-98.602502369,19.822138046],[-98.602278169,19.822133015],[-98.602156123,19.822104651],[-98.60213619,19.822100019],[-98.602021123,19.822073277],[-98.600851369,19.823424077],[-98.600619215,19.823278785],[-98.600368308,19.823127938],[-98.600200231,19.823027846],[-98.600051985,19.822939938],[-98.599879554,19.822830554],[-98.599746169,19.822739677],[-98.599616477,19.822636877],[-98.599488462,19.822534092],[-98.599455215,19.8225072],[-98.599293923,19.822452046],[-98.5991372,19.822399662],[-98.599047492,19.822348692],[-98.598976354,19.822318354],[-98.598739646,19.822256415],[-98.598482662,19.822174892],[-98.5981876,19.8220604],[-98.597815231,19.821937338],[-98.597367446,19.821794185],[-98.596312123,19.821451769],[-98.595729538,19.821239677],[-98.595314585,19.821103954],[-98.594723154,19.820911615],[-98.593879862,19.820633985],[-98.593553938,19.820521738],[-98.593141692,19.820492862],[-98.593027308,19.820493369],[-98.592988651,19.820462786],[-98.592985169,19.820460031],[-98.592823199,19.820480569],[-98.592726538,19.820481523],[-98.592478052,19.820446716],[-98.592163615,19.820400416],[-98.592009969,19.820330585],[-98.591846553,19.820289509],[-98.59174963,19.820234539],[-98.59166652,19.820015671],[-98.591370076,19.819157678],[-98.591053537,19.818270093],[-98.591042502,19.818246436],[-98.591041034,19.818243289],[-98.591701245,19.817558432],[-98.592361461,19.816873555],[-98.593021676,19.816188693],[-98.593477333,19.815715989],[-98.593681877,19.815503815],[-98.594342079,19.814818932],[-98.594371662,19.814759569],[-98.595228662,19.813754862],[-98.595643995,19.813306114],[-98.595646994,19.813302873],[-98.595498722,19.813222846],[-98.595016354,19.812946554],[-98.59478984,19.812812243],[-98.594178376,19.812418649],[-98.594401179,19.81136349],[-98.593492353,19.810791324],[-98.592533945,19.810196086],[-98.591616446,19.809622232],[-98.591407694,19.809480727],[-98.591342102,19.80943651],[-98.59133943,19.809434708],[-98.591834387,19.808904136],[-98.591834418,19.808904102],[-98.592358491,19.808342232],[-98.592853214,19.807784308],[-98.593272266,19.807251603],[-98.593797723,19.806717906],[-98.59427962,19.806213186],[-98.594194679,19.806126117],[-98.594334599,19.805999307],[-98.594503802,19.806145355],[-98.594904902,19.805673293],[-98.59504583,19.805511628],[-98.593797526,19.804483833],[-98.593235408,19.804021003],[-98.592783035,19.804460809],[-98.59244586,19.804788615],[-98.591624779,19.805586872],[-98.591611444,19.805074584],[-98.591327281,19.804716228],[-98.594780895,19.801195818],[-98.595137361,19.802093057],[-98.596159015,19.804302554],[-98.596319911,19.804113751],[-98.59656,19.803832062],[-98.596590168,19.803765354],[-98.596526358,19.803630167],[-98.595907187,19.80241656],[-98.597118412,19.80088611],[-98.598120076,19.799651909],[-98.59912174,19.800446713],[-98.598743266,19.800936012],[-98.59988532,19.801591582],[-98.599620589,19.801833951],[-98.599194923,19.802227736],[-98.598252401,19.801672747],[-98.597622627,19.802415097],[-98.598895088,19.80321337],[-98.597926312,19.804214342],[-98.598638778,19.804717299],[-98.598819523,19.804996026],[-98.598871522,19.805062773],[-98.59919546,19.80528207],[-98.600570218,19.803855749],[-98.601251747,19.804462917],[-98.601249155,19.804465509],[-98.599557088,19.80615672],[-98.599414738,19.806284324],[-98.599417194,19.80628681],[-98.5998602,19.806735232],[-98.5999394,19.806806015],[-98.6001876,19.807248986],[-98.600288494,19.807453652],[-98.600480276,19.807780769],[-98.601388195,19.80672276],[-98.602498784,19.805493847],[-98.602771522,19.806467215],[-98.602770708,19.806469534],[-98.602438538,19.807415986],[-98.602345545,19.808905123],[-98.602345604,19.808907052],[-98.602376676,19.809924308],[-98.60237263,19.810162463],[-98.602362154,19.810779615],[-98.602350599,19.811460109],[-98.602362892,19.811492846],[-98.602370723,19.811513692],[-98.602607476,19.811772646],[-98.603411369,19.810853708],[-98.604166292,19.811273631],[-98.604319338,19.811073169],[-98.604822029,19.811375222],[-98.604820058,19.811378905],[-98.604802446,19.811411815],[-98.604608523,19.811665585],[-98.604610952,19.811667044],[-98.604683985,19.811710892],[-98.605345662,19.812163823],[-98.605988154,19.812596554],[-98.607214046,19.813502923],[-98.608403528,19.814461047],[-98.608522662,19.814511908],[-98.608600415,19.814570215],[-98.609051236,19.814909566],[-98.609048627,19.814912488],[-98.608570662,19.815447769],[-98.608489308,19.81554161],[-98.608489374,19.815546191],[-98.608493838,19.815856538],[-98.608540841,19.817328613],[-98.608540579,19.817328966],[-98.608188877,19.817803],[-98.608114738,19.817912769],[-98.608065181,19.817996759],[-98.608066692,19.81799879],[-98.608067399,19.817999741],[-98.608213769,19.818196508],[-98.6083912,19.818294385],[-98.608500446,19.818366815],[-98.608618954,19.818244969],[-98.609140354,19.817719908],[-98.609311908,19.817639738],[-98.610329,19.8173214],[-98.611346092,19.817003062],[-98.611367338,19.817031615],[-98.611510554,19.817280108],[-98.611838862,19.817822385],[-98.612171938,19.818440723],[-98.612241446,19.818589527],[-98.612239378,19.818590152],[-98.612078585,19.818638754],[-98.611139723,19.818921815],[-98.610200846,19.819204892],[-98.610044092,19.819248415],[-98.609972585,19.819286185],[-98.609953692,19.819318154],[-98.609829354,19.820039446],[-98.609788554,19.820052908],[-98.609764262,19.820078908],[-98.609750969,19.820103892],[-98.609700435,19.820205684],[-98.609702409,19.820206263],[-98.6099814,19.820288138],[-98.610238505,19.820418703],[-98.610666668,19.820668933],[-98.611230769,19.821036431],[-98.612143945,19.821655267],[-98.612630138,19.821974862],[-98.612627383,19.821977926],[-98.612563923,19.822048492],[-98.6124972,19.822153938],[-98.612446338,19.822363908],[-98.612352615,19.822462554],[-98.612244538,19.822527308],[-98.612091277,19.822574262],[-98.611962138,19.822568969],[-98.6118254,19.822563508],[-98.611588569,19.822605815],[-98.611491446,19.822678477],[-98.609495923,19.821372138],[-98.609273754,19.821674662],[-98.609039338,19.821926092],[-98.608765292,19.822140646],[-98.608455338,19.822675846],[-98.608199446,19.823279415],[-98.608095523,19.823684892],[-98.608039585,19.823894738],[-98.607965923,19.824509585],[-98.607921283,19.824583699],[-98.607922668,19.824585995],[-98.608157032,19.824974383],[-98.608532425,19.825594507],[-98.608668441,19.825819186],[-98.60866717,19.82582208],[-98.608513938,19.826171215],[-98.607074925,19.825745019],[-98.6070731,19.825744479],[-98.607284132,19.825282863],[-98.607285995,19.825278788],[-98.605903123,19.824707],[-98.604387754,19.824426969],[-98.603138726,19.823780756],[-98.603136987,19.823779857],[-98.603698816,19.822602033],[-98.60370012,19.822599301]]]]},"properties":{"locality":"Tlanalapa","municipality":null,"official_key":"130720001","CVE_ENT":"13","CVE_MUN":"072","CVE_LOC":"0001","ambito":"URBANO","geometry_kind":"locality","source":"INEGI Gaia — Servicio vectorial del Marco Geoestadístico"}},{"type":"Feature","geometry":{"type":"MultiPolygon","crs":{"type":"name","properties":{"name":"EPSG:6365"}},"coordinates":[[[[-98.563556495,19.867598118],[-98.562890644,19.867357519],[-98.562263718,19.867081816],[-98.561173789,19.866666062],[-98.561883587,19.866072834],[-98.56274667,19.866334703],[-98.563272487,19.865396647],[-98.563610269,19.864574273],[-98.563284195,19.86393356],[-98.563316322,19.863766364],[-98.563379311,19.863782185],[-98.563545344,19.86313344],[-98.563663966,19.862754699],[-98.56303759,19.862558177],[-98.562853972,19.862299726],[-98.562499953,19.861761532],[-98.562161715,19.861401218],[-98.562289512,19.861360936],[-98.563626484,19.861731904],[-98.563578629,19.861418958],[-98.563514112,19.861163208],[-98.563429306,19.861007754],[-98.563431101,19.860736716],[-98.563521935,19.860554058],[-98.563618997,19.860259549],[-98.563922939,19.859337299],[-98.564342269,19.859298827],[-98.564415453,19.85931248],[-98.564724649,19.859818465],[-98.564972543,19.860342253],[-98.565108608,19.860676388],[-98.566266783,19.86079859],[-98.565937585,19.861683533],[-98.566227871,19.862436177],[-98.566776086,19.862415012],[-98.567262729,19.863925368],[-98.568545505,19.864235091],[-98.568739723,19.864275473],[-98.569644264,19.864502257],[-98.571301886,19.864879215],[-98.571366428,19.866463973],[-98.569736231,19.866336554],[-98.568460676,19.866201032],[-98.567872923,19.866104709],[-98.567591892,19.866041338],[-98.567427128,19.865977703],[-98.567297821,19.8659172],[-98.567166815,19.866104228],[-98.567079502,19.86630808],[-98.567075201,19.866778655],[-98.567023515,19.866957405],[-98.566852852,19.867323696],[-98.566763058,19.867615533],[-98.566675311,19.867826451],[-98.567387566,19.868112465],[-98.566610795,19.869847981],[-98.565453134,19.869401936],[-98.565737755,19.868575951],[-98.565788364,19.868279629],[-98.565399871,19.8681005],[-98.565306317,19.868290295],[-98.564734104,19.868056624],[-98.564141739,19.867817696],[-98.563556495,19.867598118]]]]},"properties":{"locality":"Bellavista","municipality":null,"official_key":"130720002","CVE_ENT":"13","CVE_MUN":"072","CVE_LOC":"0002","ambito":"RURAL","geometry_kind":"locality","source":"INEGI Gaia — Servicio vectorial del Marco Geoestadístico"}},{"type":"Feature","geometry":{"type":"MultiPolygon","crs":{"type":"name","properties":{"name":"EPSG:6365"}},"coordinates":[[[[-98.609580615,19.826987338],[-98.609725523,19.827201538],[-98.609832077,19.827356431],[-98.610084569,19.8277232],[-98.610706692,19.828627662],[-98.611521277,19.829906877],[-98.611602785,19.830038815],[-98.611655954,19.830123277],[-98.611535123,19.830163692],[-98.611332523,19.830156154],[-98.610985323,19.83014],[-98.610677185,19.830094723],[-98.610374369,19.830039969],[-98.609960431,19.829968338],[-98.609692954,19.829919185],[-98.609259708,19.829808738],[-98.609146492,19.829782677],[-98.609217292,19.829726108],[-98.609104277,19.829699185],[-98.608955969,19.829663554],[-98.608097831,19.829505508],[-98.608489785,19.828101677],[-98.608480277,19.8279298],[-98.609065215,19.826230123],[-98.609102892,19.826326615],[-98.609302538,19.826621754],[-98.609506738,19.8268902],[-98.609580615,19.826987338]]]]},"properties":{"locality":"Benito Juárez","municipality":null,"official_key":"130720003","CVE_ENT":"13","CVE_MUN":"072","CVE_LOC":"0003","ambito":"RURAL","geometry_kind":"locality","source":"INEGI Gaia — Servicio vectorial del Marco Geoestadístico"}},{"type":"Feature","geometry":{"type":"MultiPolygon","crs":{"type":"name","properties":{"name":"EPSG:6365"}},"coordinates":[[[[-98.622808483,19.824560037],[-98.622362111,19.824813856],[-98.622460791,19.824938243],[-98.622300919,19.825068563],[-98.622231711,19.825204374],[-98.622214409,19.825431355],[-98.621950344,19.825718893],[-98.621777475,19.82575663],[-98.621551564,19.825679615],[-98.621417151,19.825469529],[-98.620920792,19.825611763],[-98.620672612,19.825652601],[-98.620784557,19.825814319],[-98.61997382,19.826157712],[-98.619751145,19.826166283],[-98.619475562,19.825996265],[-98.618948098,19.825651194],[-98.618609261,19.826013583],[-98.619021446,19.826355785],[-98.619165952,19.826606779],[-98.619447419,19.827292427],[-98.619074424,19.827448202],[-98.618895721,19.827436306],[-98.618743846,19.827389089],[-98.618133881,19.827535219],[-98.617901318,19.827335777],[-98.617538275,19.827238579],[-98.617181975,19.827064151],[-98.617317644,19.826994598],[-98.61705098,19.826798885],[-98.617049856,19.826736902],[-98.616405003,19.826341852],[-98.6165099,19.826022264],[-98.616508641,19.825975004],[-98.616393108,19.825974754],[-98.615809615,19.825933846],[-98.6152942,19.825585585],[-98.614985908,19.82555217],[-98.614390568,19.825516169],[-98.614306154,19.825548338],[-98.614289968,19.825449693],[-98.614279922,19.825050335],[-98.614384977,19.825022257],[-98.61503682,19.823603172],[-98.614618544,19.823317549],[-98.615472323,19.821694386],[-98.616591956,19.823275962],[-98.617198513,19.823530526],[-98.6179048,19.823088752],[-98.617992434,19.822393408],[-98.618660952,19.822855529],[-98.619019708,19.822719916],[-98.619113256,19.823091159],[-98.619229767,19.823216222],[-98.619260447,19.82359361],[-98.619454779,19.823685656],[-98.619785298,19.823444629],[-98.620562102,19.823737932],[-98.621309606,19.823291714],[-98.621520668,19.823471265],[-98.621740683,19.823523349],[-98.622365786,19.823455161],[-98.622808483,19.824560037]]]]},"properties":{"locality":"Chiconcuac","municipality":null,"official_key":"130720005","CVE_ENT":"13","CVE_MUN":"072","CVE_LOC":"0005","ambito":"RURAL","geometry_kind":"locality","source":"INEGI Gaia — Servicio vectorial del Marco Geoestadístico"}},{"type":"Feature","geometry":{"type":"MultiPolygon","crs":{"type":"name","properties":{"name":"EPSG:6365"}},"coordinates":[[[[-98.58632624,19.783000123],[-98.58371982,19.78127958],[-98.583561156,19.781643015],[-98.583038618,19.78148635],[-98.583153249,19.78122546],[-98.58319226,19.781140911],[-98.58347031,19.78053323],[-98.583520379,19.780426521],[-98.583557627,19.780347133],[-98.583666079,19.780116],[-98.583881951,19.779658278],[-98.583977093,19.779446554],[-98.584003325,19.779386601],[-98.584074879,19.779223501],[-98.584389861,19.778509177],[-98.58445298,19.778366681],[-98.584516033,19.778287746],[-98.584536618,19.778285332],[-98.584619012,19.778306865],[-98.58468211,19.778353851],[-98.5846851,19.778356918],[-98.584726042,19.778400783],[-98.584747975,19.77843546],[-98.584769736,19.778537416],[-98.58481234,19.778722521],[-98.58484925,19.778857601],[-98.584853386,19.778866628],[-98.584938019,19.77905128],[-98.585034723,19.779285963],[-98.585051664,19.779337797],[-98.585073957,19.779407998],[-98.585096594,19.779457009],[-98.585130805,19.779533485],[-98.585133121,19.779538142],[-98.585148673,19.779572651],[-98.585176709,19.77963469],[-98.585269308,19.779837887],[-98.585358521,19.780038705],[-98.585362646,19.780048286],[-98.585411897,19.780163202],[-98.585513848,19.78039158],[-98.585580327,19.780544199],[-98.585634923,19.780659569],[-98.585809309,19.78104683],[-98.585875697,19.781193152],[-98.585893541,19.78123248],[-98.585907421,19.781266442],[-98.585913946,19.781279062],[-98.585933368,19.781322917],[-98.585942262,19.781342067],[-98.58605943,19.781605851],[-98.586096854,19.781688815],[-98.58613125,19.78176218],[-98.58621838,19.78194937],[-98.586312843,19.782161381],[-98.586338579,19.782219141],[-98.5864666,19.78250549],[-98.586522461,19.782628473],[-98.586595749,19.782791566],[-98.586605481,19.782812654],[-98.586621453,19.782847794],[-98.586621482,19.782847862],[-98.586720756,19.783073122],[-98.586814015,19.783366315],[-98.586733428,19.783268905],[-98.58632624,19.783000123]]],[[[-98.587202603,19.786658334],[-98.587531305,19.784603001],[-98.58755894,19.784566466],[-98.587873153,19.784881532],[-98.587767678,19.784472743],[-98.58804844,19.783185635],[-98.590981037,19.784266021],[-98.590773711,19.784811495],[-98.590734567,19.785135183],[-98.590752841,19.785338355],[-98.590725012,19.786007179],[-98.589210235,19.785477167],[-98.587876283,19.785047365],[-98.587933723,19.785282536],[-98.587951516,19.785582779],[-98.58796863,19.785784059],[-98.588020569,19.785986123],[-98.588028722,19.786042513],[-98.588414962,19.787021768],[-98.588372045,19.787112626],[-98.587202603,19.786658334]]]]},"properties":{"locality":"San Vicente","municipality":null,"official_key":"130720010","CVE_ENT":"13","CVE_MUN":"072","CVE_LOC":"0010","ambito":"RURAL","geometry_kind":"locality","source":"INEGI Gaia — Servicio vectorial del Marco Geoestadístico"}},{"type":"Feature","geometry":{"type":"MultiPolygon","crs":{"type":"name","properties":{"name":"EPSG:6365"}},"coordinates":[[[[-98.571101174,19.85686272],[-98.571093127,19.856602877],[-98.570468173,19.856602879],[-98.570261642,19.855843531],[-98.570127531,19.855298616],[-98.569886133,19.854640174],[-98.569819077,19.854138142],[-98.569741293,19.853567993],[-98.569765434,19.853033161],[-98.569738611,19.852432734],[-98.56973861,19.851907989],[-98.569717154,19.851403425],[-98.569717153,19.850808039],[-98.569709106,19.850225263],[-98.569666192,19.849652577],[-98.569671555,19.849014295],[-98.570816859,19.849102594],[-98.571954116,19.849155574],[-98.571986303,19.849743399],[-98.572013125,19.850253014],[-98.572042629,19.850901384],[-98.57205604,19.851446313],[-98.572061404,19.852041698],[-98.572090908,19.852568965],[-98.572098954,19.853121459],[-98.572123094,19.853661335],[-98.572136505,19.854789017],[-98.572174057,19.855328889],[-98.57221429,19.855893986],[-98.572275981,19.856554945],[-98.572047994,19.856567559],[-98.572045312,19.856953539],[-98.571101174,19.85686272]]]]},"properties":{"locality":"Kilómetro 27 [Colonia]","municipality":null,"official_key":"130720018","CVE_ENT":"13","CVE_MUN":"072","CVE_LOC":"0018","ambito":"RURAL","geometry_kind":"locality","source":"INEGI Gaia — Servicio vectorial del Marco Geoestadístico"}},{"type":"Feature","geometry":{"type":"MultiPolygon","crs":{"type":"name","properties":{"name":"EPSG:6365"}},"coordinates":[[[[-98.588620348,19.789025941],[-98.588888571,19.788263749],[-98.589140697,19.788889656],[-98.588770552,19.789066323],[-98.588620348,19.789025941]]],[[[-98.590162715,19.790158081],[-98.589210293,19.788077785],[-98.589053677,19.78770688],[-98.589595353,19.787483432],[-98.589665615,19.787037386],[-98.590281185,19.786781092],[-98.591254938,19.786464247],[-98.591341199,19.786480186],[-98.591453385,19.786524677],[-98.59147343,19.786565985],[-98.591647492,19.786559401],[-98.591793461,19.786582047],[-98.591881831,19.786628278],[-98.591966953,19.786795815],[-98.592116814,19.787095508],[-98.592351151,19.78741292],[-98.592528893,19.787773174],[-98.592170854,19.787890594],[-98.592304321,19.78819054],[-98.592577262,19.788101818],[-98.592718753,19.788442032],[-98.592989692,19.789052646],[-98.593245831,19.789615354],[-98.593264753,19.789666062],[-98.592660537,19.78988817],[-98.592066968,19.790125632],[-98.591927107,19.789808154],[-98.591897399,19.789829524],[-98.590312168,19.790487298],[-98.590162715,19.790158081]]]]},"properties":{"locality":"San Isidro [Fraccionamiento]","municipality":null,"official_key":"130720020","CVE_ENT":"13","CVE_MUN":"072","CVE_LOC":"0020","ambito":"RURAL","geometry_kind":"locality","source":"INEGI Gaia — Servicio vectorial del Marco Geoestadístico"}},{"type":"Feature","geometry":{"type":"Polygon","coordinates":[[[-98.5928532,19.8077843],[-98.5932723,19.8072516],[-98.5937977,19.8067179],[-98.5942796,19.8062132],[-98.5941947,19.8061261],[-98.5943346,19.8059993],[-98.5945038,19.8061454],[-98.5949049,19.8056733],[-98.5950458,19.8055116],[-98.5951325,19.805507],[-98.5953935,19.8052008],[-98.5958645,19.8046481],[-98.596159,19.8043026],[-98.5963199,19.8041138],[-98.59656,19.8038321],[-98.5965902,19.8037654],[-98.5972776,19.80281],[-98.5975623,19.8024451],[-98.5976025,19.8023983],[-98.5976226,19.8024151],[-98.5988951,19.8032134],[-98.5979263,19.8042143],[-98.5986388,19.8047173],[-98.5988195,19.804996],[-98.5988715,19.8050628],[-98.5991955,19.8052821],[-98.6005702,19.8038557],[-98.6012517,19.8044629],[-98.6012492,19.8044655],[-98.5995571,19.8061567],[-98.5994147,19.8062843],[-98.5994172,19.8062868],[-98.5998602,19.8067352],[-98.5999394,19.806806],[-98.6001876,19.807249],[-98.6002885,19.8074537],[-98.6004803,19.8077808],[-98.6004146,19.8077791],[-98.6001421,19.808057],[-98.599649,19.8085996],[-98.5991854,19.8091461],[-98.5987809,19.8096325],[-98.5985639,19.8098593],[-98.5982277,19.8102548],[-98.5977795,19.8107906],[-98.5963435,19.8125337],[-98.595647,19.8133029],[-98.5954987,19.8132228],[-98.5950164,19.8129466],[-98.5947898,19.8128122],[-98.5941784,19.8124186],[-98.5944012,19.8113635],[-98.5934924,19.8107913],[-98.5925339,19.8101961],[-98.5916164,19.8096222],[-98.5914077,19.8094807],[-98.5913421,19.8094365],[-98.5913394,19.8094347],[-98.5918344,19.8089041],[-98.5918344,19.8089041],[-98.5923585,19.8083422],[-98.5928532,19.8077843]]]},"properties":{"locality":"ALFREDO V. BONFIL","official_key":"1307200010001","CVE_ENT":"13","CVE_MUN":"072","CVE_LOC":"0001","CVE_ASEN":"0001","settlement_type":"COLONIA","source":"INEGI DCAH 2025"}},{"type":"Feature","geometry":{"type":"Polygon","coordinates":[[[-98.607016,19.8231868],[-98.6067916,19.8227951],[-98.6066854,19.8229521],[-98.6062123,19.8238205],[-98.6058805,19.8236596],[-98.6052654,19.8233615],[-98.6047506,19.8231111],[-98.6037708,19.8226173],[-98.6036998,19.8225988],[-98.6032846,19.8218749],[-98.6029193,19.8220394],[-98.6025024,19.822138],[-98.6022782,19.822133],[-98.6021561,19.8221047],[-98.6021362,19.8221],[-98.6020211,19.8220733],[-98.6008514,19.8234241],[-98.6006192,19.8232788],[-98.6003683,19.8231279],[-98.6002002,19.8230278],[-98.600052,19.8229399],[-98.5998796,19.8228306],[-98.5997462,19.8227397],[-98.5996165,19.8226369],[-98.5994885,19.8225341],[-98.5994552,19.8225072],[-98.5992939,19.822452],[-98.5991372,19.8223997],[-98.5990475,19.8223487],[-98.5989764,19.8223184],[-98.5987396,19.8222564],[-98.5984827,19.8221749],[-98.5981876,19.8220604],[-98.5978152,19.8219373],[-98.5973674,19.8217942],[-98.5963121,19.8214518],[-98.5957295,19.8212397],[-98.5953146,19.821104],[-98.5947232,19.8209116],[-98.5938799,19.820634],[-98.5935539,19.8205217],[-98.5931417,19.8204929],[-98.5930273,19.8204934],[-98.5929887,19.8204628],[-98.5929852,19.82046],[-98.5928232,19.8204806],[-98.5927265,19.8204815],[-98.5924781,19.8204467],[-98.5921636,19.8204004],[-98.59201,19.8203306],[-98.5918466,19.8202895],[-98.5917496,19.8202345],[-98.5916665,19.8200157],[-98.5913701,19.8191577],[-98.5910535,19.8182701],[-98.5910425,19.8182464],[-98.591041,19.8182433],[-98.5917012,19.8175584],[-98.5923615,19.8168736],[-98.5930217,19.8161887],[-98.5934773,19.815716],[-98.5936819,19.8155038],[-98.5943421,19.8148189],[-98.5943717,19.8147596],[-98.5952287,19.8137549],[-98.595644,19.8133061],[-98.595647,19.8133029],[-98.5963435,19.8125337],[-98.5977795,19.8107906],[-98.5982277,19.8102548],[-98.5985639,19.8098593],[-98.5987809,19.8096325],[-98.5991854,19.8091461],[-98.599649,19.8085996],[-98.6001421,19.808057],[-98.6004146,19.8077791],[-98.6004803,19.8077808],[-98.6013882,19.8067228],[-98.6024988,19.8054938],[-98.6027715,19.8064672],[-98.6027707,19.8064695],[-98.6024385,19.807416],[-98.6023455,19.8089051],[-98.6023456,19.8089071],[-98.6023767,19.8099243],[-98.6020903,19.8097581],[-98.6020649,19.8097454],[-98.6010305,19.8092265],[-98.6008915,19.8089486],[-98.6006491,19.8090202],[-98.6004922,19.810013],[-98.60044,19.810505],[-98.6004431,19.8108524],[-98.6005996,19.8109662],[-98.6010391,19.8112024],[-98.601115,19.8112433],[-98.601252,19.8113169],[-98.6013307,19.8114066],[-98.601349,19.8114275],[-98.6013642,19.8115307],[-98.6012945,19.8118093],[-98.6012759,19.81186],[-98.6012874,19.811909],[-98.6014003,19.8119931],[-98.6021519,19.8125532],[-98.6020699,19.8123116],[-98.6020832,19.8121006],[-98.6021174,19.8119574],[-98.6022715,19.8116676],[-98.6023629,19.8114929],[-98.6023707,19.8115137],[-98.6026075,19.8117726],[-98.6034114,19.8108537],[-98.6041663,19.8112736],[-98.6043193,19.8110732],[-98.604822,19.8113752],[-98.6048201,19.8113789],[-98.6048024,19.8114118],[-98.6046085,19.8116656],[-98.604611,19.811667],[-98.604684,19.8117109],[-98.6053457,19.8121638],[-98.6059882,19.8125966],[-98.607214,19.8135029],[-98.6084035,19.814461],[-98.6085227,19.8145119],[-98.6086004,19.8145702],[-98.6090512,19.8149096],[-98.6090486,19.8149125],[-98.6085707,19.8154478],[-98.6084893,19.8155416],[-98.6084894,19.8155462],[-98.6084938,19.8158565],[-98.6085408,19.8173286],[-98.6085406,19.817329],[-98.6081889,19.817803],[-98.6081147,19.8179128],[-98.6080652,19.8179968],[-98.6080667,19.8179988],[-98.6080674,19.8179997],[-98.6082138,19.8181965],[-98.6083912,19.8182944],[-98.6085004,19.8183668],[-98.608619,19.818245],[-98.6091404,19.8177199],[-98.6093119,19.8176397],[-98.610329,19.8173214],[-98.6113461,19.8170031],[-98.6113673,19.8170316],[-98.6115106,19.8172801],[-98.6118389,19.8178224],[-98.6121719,19.8184407],[-98.6122404,19.8185872],[-98.6122394,19.8185902],[-98.6120786,19.8186388],[-98.6111397,19.8189218],[-98.6102008,19.8192049],[-98.6100441,19.8192484],[-98.6099726,19.8192862],[-98.6099537,19.8193182],[-98.6098294,19.8200394],[-98.6097886,19.8200529],[-98.6097643,19.8200789],[-98.609751,19.8201039],[-98.6097004,19.8202057],[-98.6097024,19.8202063],[-98.6099814,19.8202881],[-98.6102385,19.8204187],[-98.6106667,19.8206689],[-98.6112308,19.8210364],[-98.6121439,19.8216553],[-98.6126301,19.8219749],[-98.6126274,19.8219779],[-98.6125639,19.8220485],[-98.6124972,19.8221539],[-98.6124463,19.8223639],[-98.6123526,19.8224626],[-98.6122445,19.8225273],[-98.6120913,19.8225743],[-98.6119621,19.822569],[-98.6118254,19.8225635],[-98.6115886,19.8226058],[-98.6114914,19.8226785],[-98.6094959,19.8213721],[-98.6092738,19.8216747],[-98.6090393,19.8219261],[-98.6087653,19.8221406],[-98.6084553,19.8226758],[-98.6081994,19.8232794],[-98.6080955,19.8236849],[-98.6080396,19.8238947],[-98.6079659,19.8245096],[-98.6079213,19.8245837],[-98.6075565,19.8240728],[-98.6072801,19.8236155],[-98.607016,19.8231868]],[[-98.5971767,19.8129768],[-98.5979472,19.812048],[-98.5975538,19.8118249],[-98.5967968,19.8127432],[-98.5969355,19.8128286],[-98.5970429,19.8128946],[-98.5971767,19.8129768]]]},"properties":{"locality":"CENTRO","official_key":"1307200010004","CVE_ENT":"13","CVE_MUN":"072","CVE_LOC":"0001","CVE_ASEN":"0004","settlement_type":"COLONIA","source":"INEGI DCAH 2025"}},{"type":"Feature","geometry":{"type":"Polygon","coordinates":[[[-98.603137,19.8237799],[-98.6036988,19.822602],[-98.6037001,19.8225993],[-98.6036998,19.8225988],[-98.6037708,19.8226173],[-98.6047506,19.8231111],[-98.6052654,19.8233615],[-98.6058805,19.8236596],[-98.6062123,19.8238205],[-98.6066854,19.8229521],[-98.6067916,19.8227951],[-98.607016,19.8231868],[-98.6072801,19.8236155],[-98.6075565,19.8240728],[-98.6079213,19.8245837],[-98.6079227,19.824586],[-98.608157,19.8249744],[-98.6085324,19.8255945],[-98.6086684,19.8258192],[-98.6086672,19.8258221],[-98.6085139,19.8261712],[-98.6070749,19.825745],[-98.6070731,19.8257445],[-98.6072841,19.8252829],[-98.607286,19.8252788],[-98.6059031,19.824707],[-98.6043878,19.824427],[-98.6031387,19.8237808],[-98.603137,19.8237799]]]},"properties":{"locality":"MINEROS","official_key":"1307200010009","CVE_ENT":"13","CVE_MUN":"072","CVE_LOC":"0001","CVE_ASEN":"0009","settlement_type":"COLONIA","source":"INEGI DCAH 2025"}},{"type":"Feature","geometry":{"type":"Polygon","coordinates":[[[-98.6023767,19.8099243],[-98.6023726,19.8101625],[-98.6023622,19.8107796],[-98.6023506,19.8114601],[-98.6023629,19.8114929],[-98.6022715,19.8116676],[-98.6021174,19.8119574],[-98.6020832,19.8121006],[-98.6020699,19.8123116],[-98.6021519,19.8125532],[-98.6014003,19.8119931],[-98.6012874,19.811909],[-98.6012759,19.81186],[-98.6012945,19.8118093],[-98.6013642,19.8115307],[-98.601349,19.8114275],[-98.6013307,19.8114066],[-98.601252,19.8113169],[-98.601115,19.8112433],[-98.6010391,19.8112024],[-98.6005996,19.8109662],[-98.6004431,19.8108524],[-98.60044,19.810505],[-98.6004922,19.810013],[-98.6006491,19.8090202],[-98.6008915,19.8089486],[-98.6010305,19.8092265],[-98.6020649,19.8097454],[-98.6020903,19.8097581],[-98.6023767,19.8099243]]]},"properties":{"locality":"LOS PIRULES","official_key":"1307200010013","CVE_ENT":"13","CVE_MUN":"072","CVE_LOC":"0001","CVE_ASEN":"0013","settlement_type":"COLONIA","source":"INEGI DCAH 2025"}},{"type":"Feature","geometry":{"type":"Polygon","coordinates":[[[-98.5971767,19.8129768],[-98.5970429,19.8128946],[-98.5969355,19.8128286],[-98.5967968,19.8127432],[-98.5975538,19.8118249],[-98.5979472,19.812048],[-98.5971767,19.8129768]]]},"properties":{"locality":"SAN FRANCISCO","official_key":"1307200010014","CVE_ENT":"13","CVE_MUN":"072","CVE_LOC":"0001","CVE_ASEN":"0014","settlement_type":"PRIVADA","source":"INEGI DCAH 2025"}},{"type":"Feature","geometry":{"type":"Polygon","coordinates":[[[-98.563438,19.8675984],[-98.5627743,19.8673096],[-98.562217,19.8670781],[-98.5621818,19.8670661],[-98.5621175,19.867046],[-98.561553,19.8668403],[-98.5610322,19.866642],[-98.5612811,19.8664708],[-98.5614166,19.8663715],[-98.561512,19.8663033],[-98.5617608,19.866058],[-98.5625954,19.8663347],[-98.5632492,19.8653229],[-98.5635773,19.8645933],[-98.5632336,19.8639653],[-98.5631732,19.8638593],[-98.5631719,19.8638053],[-98.5631944,19.8637022],[-98.5632434,19.8635755],[-98.5633986,19.8631125],[-98.5635469,19.8627185],[-98.5630874,19.8625748],[-98.5627773,19.8622188],[-98.5625589,19.8618036],[-98.5622099,19.8614507],[-98.5622292,19.861385],[-98.5623942,19.8613514],[-98.5635067,19.8617282],[-98.5633639,19.8612472],[-98.5633668,19.8611356],[-98.5633103,19.8609467],[-98.5632962,19.8608102],[-98.5633599,19.8606327],[-98.5634771,19.8604459],[-98.5634989,19.860379],[-98.5635684,19.8601621],[-98.5638324,19.8593364],[-98.5638416,19.8593208],[-98.5638459,19.8593032],[-98.5638474,19.8592759],[-98.5638514,19.8591813],[-98.5638594,19.8590697],[-98.5638968,19.8590274],[-98.5639596,19.8589779],[-98.5639772,19.8589777],[-98.5641969,19.8591882],[-98.5644093,19.8595423],[-98.564611,19.8599038],[-98.5648374,19.8604191],[-98.5649923,19.8607031],[-98.5650618,19.8606513],[-98.56617,19.8607653],[-98.5657978,19.8617624],[-98.5660812,19.8624437],[-98.5666684,19.8624267],[-98.5672204,19.8639729],[-98.5684079,19.8642437],[-98.5685542,19.8642821],[-98.5686522,19.8643083],[-98.5687109,19.8643234],[-98.5692646,19.864463],[-98.5696431,19.8645406],[-98.5711409,19.8648701],[-98.571221,19.8662912],[-98.5709641,19.866435],[-98.5697362,19.8663366],[-98.5684607,19.866201],[-98.5678729,19.8661047],[-98.5678213,19.8660961],[-98.5675919,19.8660413],[-98.5674736,19.8660125],[-98.5673058,19.865942],[-98.5671361,19.8658703],[-98.5670294,19.8658105],[-98.5669882,19.8660985],[-98.5669578,19.8663118],[-98.5669609,19.866589],[-98.5669438,19.8668201],[-98.5668956,19.8669238],[-98.5665581,19.8678371],[-98.5672291,19.8680845],[-98.5664684,19.8698707],[-98.5653691,19.8694332],[-98.56563,19.8684924],[-98.5656507,19.8682613],[-98.5652851,19.8680807],[-98.565184,19.8682627],[-98.5643702,19.8679483],[-98.5638451,19.8677396],[-98.5637748,19.8677128],[-98.563438,19.8675984]]]},"properties":{"locality":"BELLAVISTA","official_key":"1307200020001","CVE_ENT":"13","CVE_MUN":"072","CVE_LOC":"0002","CVE_ASEN":"0001","settlement_type":"COLONIA","source":"INEGI DCAH 2025"}},{"type":"Feature","geometry":{"type":"Polygon","coordinates":[[[-98.6095806,19.8269873],[-98.6097255,19.8272015],[-98.6098321,19.8273564],[-98.6100846,19.8277232],[-98.6107067,19.8286277],[-98.6115213,19.8299069],[-98.6116028,19.8300388],[-98.611656,19.8301233],[-98.6115351,19.8301637],[-98.6113325,19.8301562],[-98.6109853,19.83014],[-98.6106772,19.8300947],[-98.6103744,19.83004],[-98.6099604,19.8299683],[-98.609693,19.8299192],[-98.6092597,19.8298087],[-98.6091465,19.8297827],[-98.6092173,19.8297261],[-98.6091043,19.8296992],[-98.608956,19.8296636],[-98.6080978,19.8295055],[-98.6084898,19.8281017],[-98.6084803,19.8279298],[-98.6090652,19.8262301],[-98.6091029,19.8263266],[-98.6093025,19.8266218],[-98.6095067,19.8268902],[-98.6095806,19.8269873]]]},"properties":{"locality":"BENITO JUÁREZ","official_key":"1307200030001","CVE_ENT":"13","CVE_MUN":"072","CVE_LOC":"0003","CVE_ASEN":"0001","settlement_type":"COLONIA","source":"INEGI DCAH 2025"}},{"type":"Feature","geometry":{"type":"Polygon","coordinates":[[[-98.6228085,19.82456],[-98.6223621,19.8248139],[-98.6224608,19.8249382],[-98.6223009,19.8250686],[-98.6222317,19.8252044],[-98.6222144,19.8254314],[-98.6219503,19.8257189],[-98.6217775,19.8257566],[-98.6215516,19.8256796],[-98.6214172,19.8254695],[-98.6209208,19.8256118],[-98.6206726,19.8256526],[-98.6207846,19.8258143],[-98.6199738,19.8261577],[-98.6197511,19.8261663],[-98.6194756,19.8259963],[-98.6189481,19.8256512],[-98.6186093,19.8260136],[-98.6190214,19.8263558],[-98.619166,19.8266068],[-98.6194474,19.8272924],[-98.6190744,19.8274482],[-98.6188957,19.8274363],[-98.6187438,19.8273891],[-98.6181339,19.8275352],[-98.6179013,19.8273358],[-98.6175383,19.8272386],[-98.617182,19.8270642],[-98.6173176,19.8269946],[-98.617051,19.8267989],[-98.6170499,19.8267369],[-98.616405,19.8263419],[-98.6165099,19.8260223],[-98.6165086,19.825975],[-98.6163931,19.8259748],[-98.6158096,19.8259338],[-98.6152942,19.8255856],[-98.6149859,19.8255522],[-98.6143906,19.8255162],[-98.6143062,19.8255483],[-98.61429,19.8254497],[-98.6142799,19.8250503],[-98.614385,19.8250223],[-98.6150368,19.8236032],[-98.6146185,19.8233175],[-98.6154723,19.8216944],[-98.616592,19.823276],[-98.6171985,19.8235305],[-98.6179048,19.8230888],[-98.6179924,19.8223934],[-98.618661,19.8228555],[-98.6190197,19.8227199],[-98.6191133,19.8230912],[-98.6192298,19.8232162],[-98.6192604,19.8235936],[-98.6194548,19.8236857],[-98.6197853,19.8234446],[-98.6205621,19.8237379],[-98.6213096,19.8232917],[-98.6215207,19.8234713],[-98.6217407,19.8235233],[-98.6223658,19.8234552],[-98.6228085,19.82456]]]},"properties":{"locality":"CHICONCUAC","official_key":"1307200050001","CVE_ENT":"13","CVE_MUN":"072","CVE_LOC":"0005","CVE_ASEN":"0001","settlement_type":"PUEBLO","source":"INEGI DCAH 2025"}},{"type":"Feature","geometry":{"type":"MultiPolygon","coordinates":[[[[-98.5863262,19.7830001],[-98.5837198,19.7812796],[-98.5835612,19.781643],[-98.5830386,19.7814864],[-98.5831532,19.7812255],[-98.5831923,19.7811409],[-98.5834703,19.7805332],[-98.5835204,19.7804265],[-98.5835576,19.7803471],[-98.5836661,19.780116],[-98.583882,19.7796583],[-98.5839771,19.7794466],[-98.5840033,19.7793866],[-98.5840749,19.7792235],[-98.5843899,19.7785092],[-98.584453,19.7783667],[-98.584516,19.7782877],[-98.5845366,19.7782853],[-98.584619,19.7783069],[-98.5846821,19.7783539],[-98.5846851,19.7783569],[-98.584726,19.7784008],[-98.584748,19.7784355],[-98.5847697,19.7785374],[-98.5848123,19.7787225],[-98.5848492,19.7788576],[-98.5848534,19.7788666],[-98.584938,19.7790513],[-98.5850347,19.779286],[-98.5850517,19.7793378],[-98.585074,19.779408],[-98.5850966,19.779457],[-98.5851308,19.7795335],[-98.5851331,19.7795381],[-98.5851487,19.7795727],[-98.5851767,19.7796347],[-98.5852693,19.7798379],[-98.5853585,19.7800387],[-98.5853626,19.7800483],[-98.5854119,19.7801632],[-98.5855138,19.7803916],[-98.5855803,19.7805442],[-98.5856349,19.7806596],[-98.5858093,19.7810468],[-98.5858757,19.7811932],[-98.5858935,19.7812325],[-98.5859074,19.7812664],[-98.5859139,19.7812791],[-98.5859334,19.7813229],[-98.5859423,19.7813421],[-98.5860594,19.7816059],[-98.5860969,19.7816888],[-98.5861312,19.7817622],[-98.5862184,19.7819494],[-98.5863128,19.7821614],[-98.5863386,19.7822191],[-98.5864666,19.7825055],[-98.5865225,19.7826285],[-98.5865957,19.7827916],[-98.5866055,19.7828127],[-98.5866215,19.7828478],[-98.5866215,19.7828479],[-98.5867208,19.7830731],[-98.586853,19.7833639],[-98.5867334,19.7832689],[-98.5863262,19.7830001]]],[[[-98.5872026,19.7866583],[-98.5875313,19.784603],[-98.5875501,19.7845927],[-98.5878732,19.7848815],[-98.5877677,19.7844727],[-98.5880484,19.7831856],[-98.590981,19.784266],[-98.5907737,19.7848115],[-98.5907346,19.7851352],[-98.5907528,19.7853384],[-98.590725,19.7860072],[-98.5892102,19.7854772],[-98.587908,19.7850229],[-98.5880073,19.7852954],[-98.5880287,19.7860425],[-98.588415,19.7870218],[-98.588372,19.7871126],[-98.5872026,19.7866583]]]]},"properties":{"locality":"San Vicente","official_key":"1307200100001","CVE_ENT":"13","CVE_MUN":"072","CVE_LOC":"0010","CVE_ASEN":"0001","settlement_type":"RANCHERÍA","source":"INEGI DCAH 2025"}},{"type":"Feature","geometry":{"type":"Polygon","coordinates":[[[-98.5711012,19.8568627],[-98.5710931,19.8566029],[-98.5704682,19.8566029],[-98.5702616,19.8558435],[-98.5701275,19.8552986],[-98.5698861,19.8546402],[-98.5698191,19.8541381],[-98.5697413,19.853568],[-98.5697654,19.8530332],[-98.5697386,19.8524327],[-98.5697386,19.851908],[-98.5697172,19.8514034],[-98.5697172,19.850808],[-98.5697091,19.8502253],[-98.5696662,19.8496526],[-98.5696716,19.8490143],[-98.5708169,19.8491026],[-98.5719541,19.8491556],[-98.5719863,19.8497434],[-98.5720131,19.850253],[-98.5720426,19.8509014],[-98.572056,19.8514463],[-98.5720614,19.8520417],[-98.5720909,19.852569],[-98.572099,19.8531215],[-98.5721231,19.8536613],[-98.5721365,19.854789],[-98.5721741,19.8553289],[-98.5722143,19.855894],[-98.572276,19.8565549],[-98.572048,19.8565676],[-98.5720453,19.8569535],[-98.5711012,19.8568627]]]},"properties":{"locality":"KM 27","official_key":"1307200180001","CVE_ENT":"13","CVE_MUN":"072","CVE_LOC":"0018","CVE_ASEN":"0001","settlement_type":"COLONIA","source":"INEGI DCAH 2025"}},{"type":"Feature","geometry":{"type":"MultiPolygon","coordinates":[[[[-98.5886203,19.7890259],[-98.5888886,19.7882637],[-98.5891407,19.7888897],[-98.5887706,19.7890663],[-98.5886203,19.7890259]]],[[[-98.5901627,19.7901581],[-98.5892103,19.7880778],[-98.5890537,19.7877069],[-98.5895954,19.7874834],[-98.5896656,19.7870374],[-98.5902812,19.7867811],[-98.5912549,19.7864642],[-98.5913412,19.7864802],[-98.5914534,19.7865247],[-98.5914734,19.786566],[-98.5916475,19.7865594],[-98.5917935,19.786582],[-98.5918818,19.7866283],[-98.591967,19.7867958],[-98.5921168,19.7870955],[-98.5923512,19.7874129],[-98.5925289,19.7877732],[-98.5921709,19.7878906],[-98.5923043,19.7881905],[-98.5925773,19.7881018],[-98.5927188,19.788442],[-98.5929897,19.7890526],[-98.5932458,19.7896154],[-98.5932648,19.7896661],[-98.5926605,19.7898882],[-98.592067,19.7901256],[-98.5919271,19.7898082],[-98.5918974,19.7898295],[-98.5903122,19.7904873],[-98.5901627,19.7901581]]]]},"properties":{"locality":"SAN ISIDRO","official_key":"1307200200001","CVE_ENT":"13","CVE_MUN":"072","CVE_LOC":"0020","CVE_ASEN":"0001","settlement_type":"FRACCIONAMIENTO","source":"INEGI DCAH 2025"}}]}