{"type":"FeatureCollection","name":"inegi-hidalgo-074","metadata":{"state":"Hidalgo","CVE_ENT":"13","CVE_MUN":"074","municipality":"Tlaxcoapan","sources":["INEGI Gaia — Servicio vectorial del Marco Geoestadístico","INEGI DCAH 2025"],"source_urls":["https://gaia.inegi.org.mx/wscatgeo/v2/geo/mgem/13","https://gaia.inegi.org.mx/wscatgeo/v2/geo/localidades/pol/13/074","https://www.inegi.org.mx/contenidos/productos/prod_serv/contenidos/espanol/bvinegi/productos/geografia/delimitaciones/794551163078/13_hidalgo.zip"],"geometry_policy":"Solo se publican polígonos de INEGI; no se generan puntos ni geometrías sintéticas.","locality_polygon_count":4,"settlement_polygon_count":35},"municipality":{"type":"Feature","geometry":{"type":"MultiPolygon","crs":{"type":"name","properties":{"name":"EPSG:6365"}},"coordinates":[[[[-99.16619005,20.13024572],[-99.16659795,20.12682855],[-99.16665998,20.12642371],[-99.16731006,20.12521643],[-99.16822055,20.12385371],[-99.16876117,20.12331982],[-99.16896222,20.12312725],[-99.16910248,20.12295231],[-99.16924582,20.12268222],[-99.16942338,20.12237365],[-99.16954051,20.12195489],[-99.16969895,20.1215294],[-99.16988892,20.12116934],[-99.17008888,20.12076711],[-99.17030285,20.12039798],[-99.17062634,20.11984663],[-99.17113217,20.11947938],[-99.17194955,20.11912494],[-99.17242623,20.11880295],[-99.17294668,20.11874032],[-99.17342122,20.11798052],[-99.1738696,20.11755878],[-99.17486017,20.11711068],[-99.17512778,20.11560789],[-99.17589772,20.11516652],[-99.17624254,20.11502668],[-99.17662346,20.11494489],[-99.17717831,20.11467603],[-99.17796663,20.11473425],[-99.17850666,20.11406985],[-99.17897495,20.11354018],[-99.17874028,20.11347808],[-99.17957148,20.11312555],[-99.17961311,20.11309608],[-99.179792,20.11302562],[-99.17994388,20.11297954],[-99.18027234,20.11283251],[-99.18054018,20.11272438],[-99.18091995,20.11255078],[-99.18163032,20.11225628],[-99.18246243,20.11188337],[-99.18292302,20.11169566],[-99.18330782,20.11152362],[-99.18348183,20.11146266],[-99.18375258,20.11133735],[-99.18397375,20.1112538],[-99.18421677,20.11113026],[-99.18450597,20.11101008],[-99.18472071,20.11090312],[-99.18495809,20.11081749],[-99.18533814,20.110646],[-99.18589369,20.11040968],[-99.18650548,20.11014777],[-99.18705848,20.1099064],[-99.18744278,20.10974898],[-99.18770262,20.10961203],[-99.18784808,20.10955752],[-99.18803726,20.10946902],[-99.18884711,20.10914634],[-99.1899288,20.10867528],[-99.19050283,20.10842612],[-99.19025958,20.10752298],[-99.19005957,20.10695155],[-99.18985,20.10665135],[-99.18967203,20.10643654],[-99.18908926,20.1058878],[-99.18877065,20.10565457],[-99.18839831,20.10549674],[-99.18814283,20.10534531],[-99.18783995,20.10509577],[-99.18749511,20.104814],[-99.18722477,20.10459669],[-99.18710162,20.10440051],[-99.18699391,20.10403289],[-99.18683257,20.10352442],[-99.18663349,20.10308735],[-99.18614123,20.10259708],[-99.18455826,20.10128282],[-99.18424595,20.10103328],[-99.18399029,20.10072122],[-99.18373217,20.10036557],[-99.18340069,20.09988405],[-99.18282302,20.09909937],[-99.18256731,20.09873375],[-99.18197646,20.09827885],[-99.18173989,20.09810062],[-99.18141826,20.09795817],[-99.18109665,20.09783357],[-99.18073728,20.09776255],[-99.18044406,20.09767362],[-99.18011298,20.09753117],[-99.17988715,20.0973888],[-99.17974906,20.09714412],[-99.17969217,20.09700646],[-99.17912446,20.09677751],[-99.17871892,20.09659429],[-99.17849182,20.09647975],[-99.17839858,20.09640229],[-99.17892078,20.09588255],[-99.17913575,20.09577275],[-99.17921623,20.09575663],[-99.17964198,20.09565994],[-99.18009586,20.09558298],[-99.18367957,20.09514763],[-99.18583666,20.09480552],[-99.18784675,20.09458152],[-99.19018257,20.09427022],[-99.19276586,20.09412311],[-99.19559982,20.09393632],[-99.19626423,20.093841],[-99.19773095,20.09363602],[-99.19883578,20.09345109],[-99.20082665,20.09313642],[-99.20192514,20.09303022],[-99.20275911,20.09300683],[-99.20320197,20.09293471],[-99.2021924,20.08999698],[-99.20174926,20.08871414],[-99.20154603,20.08870946],[-99.20093938,20.08686942],[-99.20061817,20.08692549],[-99.20025186,20.08591926],[-99.2014206,20.08528874],[-99.20217331,20.08488331],[-99.20312551,20.08402865],[-99.20369308,20.08359512],[-99.20418818,20.08320245],[-99.20512835,20.08242965],[-99.20541492,20.08208712],[-99.20564126,20.0811744],[-99.20657938,20.08198829],[-99.20682383,20.08219477],[-99.20741055,20.08265655],[-99.208450819,20.082366681],[-99.209491079,20.08207678],[-99.210531319,20.081786891],[-99.210531664,20.081787266],[-99.210570249,20.081829121],[-99.210570278,20.081829114],[-99.21088754,20.08175917],[-99.21172474,20.081569251],[-99.21270429,20.081287121],[-99.213476739,20.081077864],[-99.21364877,20.08103126],[-99.213694339,20.08102525],[-99.213697047,20.081024517],[-99.21488554,20.080702861],[-99.214960309,20.080684051],[-99.21558968,20.080512541],[-99.21627929,20.08033031],[-99.21628506,20.080327311],[-99.21668471,20.080228121],[-99.21677137,20.0802108],[-99.21697023,20.080153571],[-99.217705549,20.079957221],[-99.218197616,20.079832198],[-99.219087983,20.07960597],[-99.219141481,20.079592377],[-99.219184248,20.079581514],[-99.219184324,20.079581956],[-99.219246568,20.07994225],[-99.219246142,20.079946219],[-99.219242296,20.079981988],[-99.219223875,20.080153292],[-99.21922383,20.08015371],[-99.219217649,20.080211124],[-99.219217798,20.080214406],[-99.21924117,20.08073165],[-99.219255349,20.080998201],[-99.219268879,20.08125205],[-99.219287921,20.08156608],[-99.219316305,20.08203408],[-99.219335246,20.082346302],[-99.219343259,20.082478431],[-99.219343601,20.082478289],[-99.21936759,20.082468286],[-99.219368349,20.08246797],[-99.219368388,20.082468477],[-99.219392538,20.082781831],[-99.219412682,20.083010701],[-99.219413309,20.08301783],[-99.219413644,20.083017768],[-99.219629769,20.08297657],[-99.219772568,20.082943519],[-99.219957919,20.082900622],[-99.220105138,20.082867251],[-99.220166149,20.082852769],[-99.22045486,20.08278424],[-99.220455257,20.082784145],[-99.220456119,20.082783941],[-99.220589304,20.082752327],[-99.220603399,20.082748982],[-99.22061254,20.082747042],[-99.22073455,20.082721143],[-99.220779605,20.082711579],[-99.220853075,20.082695984],[-99.221279089,20.082605552],[-99.221499955,20.082550449],[-99.221939647,20.082440752],[-99.22204138,20.082407656],[-99.222324617,20.082315511],[-99.22283769,20.08215466],[-99.222847,20.082080148],[-99.222864021,20.081943912],[-99.22286412,20.081943122],[-99.222864307,20.081895142],[-99.222864402,20.081870547],[-99.222864411,20.081868499],[-99.222864934,20.081734077],[-99.222865486,20.081591844],[-99.222865509,20.081586111],[-99.22287795,20.081583083],[-99.222927871,20.081570932],[-99.223108418,20.081526983],[-99.224022418,20.08130054],[-99.22497618,20.08122497],[-99.225102749,20.081218771],[-99.226788169,20.081150651],[-99.226892319,20.081147686],[-99.226955919,20.081145876],[-99.226960312,20.081145751],[-99.226976522,20.081145291],[-99.22765426,20.081126],[-99.227859732,20.08110969],[-99.227957807,20.081101905],[-99.22929043,20.08099611],[-99.230098151,20.08094462],[-99.230426035,20.080923715],[-99.231063648,20.080883062],[-99.231271259,20.080873864],[-99.23130026,20.080872581],[-99.231485007,20.08083381],[-99.231485936,20.080833614],[-99.231486088,20.080833583],[-99.23147383,20.080763241],[-99.231449639,20.080624435],[-99.231445889,20.08060291],[-99.231432168,20.080567872],[-99.231381245,20.080437824],[-99.23138091,20.08043697],[-99.23139303,20.08030558],[-99.231405339,20.080194581],[-99.231409908,20.080192491],[-99.231508579,20.080147371],[-99.231715259,20.08011698],[-99.23203349,20.080081221],[-99.232364167,20.080036013],[-99.232947379,20.079951821],[-99.232982049,20.07994682],[-99.23345251,20.079883461],[-99.234464681,20.079745081],[-99.23520482,20.079642721],[-99.235546829,20.07959758],[-99.236474629,20.07947337],[-99.237013749,20.07940312],[-99.23797258,20.07927043],[-99.238931431,20.079137751],[-99.23905925,20.079120201],[-99.23962011,20.07904105],[-99.240268519,20.07893695],[-99.240480969,20.07890874],[-99.240481092,20.078908636],[-99.24056282,20.07883872],[-99.24023048,20.07787185],[-99.24088865,20.07776798],[-99.24093966,20.07779852],[-99.24064497,20.07732448],[-99.24132458,20.07717431],[-99.24126398,20.07702034],[-99.24141618,20.07695074],[-99.24133906,20.07577417],[-99.24386477,20.07566751],[-99.24356772,20.07455105],[-99.24336698,20.07365386],[-99.24289037,20.07196006],[-99.24384583,20.07185638],[-99.24467371,20.07177532],[-99.24440988,20.07089991],[-99.24423538,20.07004883],[-99.24402069,20.06920029],[-99.2439422,20.06919822],[-99.24348615,20.06910126],[-99.24506946,20.06860446],[-99.24507198,20.06858663],[-99.245054169,20.06848749],[-99.24561614,20.06830143],[-99.24652048,20.06800171],[-99.24736354,20.06772228],[-99.24742482,20.06770197],[-99.247429842,20.067700357],[-99.24907432,20.067172111],[-99.25022658,20.066792941],[-99.25158258,20.066350341],[-99.25297822,20.065921431],[-99.25497945,20.065265551],[-99.25640917,20.065033951],[-99.25956932,20.064529001],[-99.26070818,20.06439495],[-99.261133088,20.0648108],[-99.262544908,20.06609765],[-99.264703459,20.068192861],[-99.266540379,20.06996889],[-99.267952419,20.071319021],[-99.268409022,20.07174866],[-99.269924028,20.073174171],[-99.271071275,20.074262688],[-99.271106258,20.07429588],[-99.27113462,20.074322791],[-99.271467488,20.07463862],[-99.271553485,20.074721866],[-99.273235289,20.076349861],[-99.273775078,20.076867162],[-99.273858443,20.076947055],[-99.2752967,20.078325368],[-99.275392319,20.078417],[-99.275732368,20.078784891],[-99.276004303,20.07904162],[-99.276065908,20.07909978],[-99.27609255,20.079124932],[-99.277694569,20.08063735],[-99.278294607,20.081210226],[-99.27829464,20.081210257],[-99.278294699,20.081210315],[-99.278294736,20.081210352],[-99.278751918,20.081646821],[-99.278914153,20.081801698],[-99.27896886,20.081853925],[-99.278968904,20.081853969],[-99.278968936,20.081854002],[-99.27935748,20.082224947],[-99.279397329,20.082262991],[-99.279430641,20.082294793],[-99.279540782,20.082399945],[-99.279564538,20.082422624],[-99.279648515,20.082502798],[-99.279738506,20.082588713],[-99.279778473,20.082626869],[-99.279832331,20.082678285],[-99.279989449,20.082828261],[-99.280024049,20.08286366],[-99.280084848,20.082847341],[-99.280129114,20.082891363],[-99.280181178,20.08294314],[-99.280415627,20.083176261],[-99.280643658,20.083403],[-99.281150884,20.083907344],[-99.281464302,20.084218978],[-99.283162353,20.085907331],[-99.283905876,20.086646591],[-99.28411533,20.086854842],[-99.284199322,20.086938352],[-99.284344535,20.087082729],[-99.284396768,20.087134661],[-99.284778186,20.08747376],[-99.285346356,20.087978884],[-99.285543419,20.08815408],[-99.285658004,20.088264736],[-99.287915709,20.090444971],[-99.289925883,20.092316802],[-99.29015654,20.092531582],[-99.290275488,20.09264234],[-99.290983653,20.093293191],[-99.291330866,20.093612298],[-99.29134385,20.09362423],[-99.291339169,20.093628923],[-99.291334807,20.093633296],[-99.291235611,20.093732736],[-99.291098775,20.093869908],[-99.291018444,20.093950438],[-99.290921539,20.094047581],[-99.290881829,20.094077661],[-99.290426429,20.09442263],[-99.28997117,20.094836751],[-99.289309749,20.095400751],[-99.288052029,20.09631878],[-99.28710586,20.096896881],[-99.286119059,20.09747425],[-99.283754149,20.09889066],[-99.28219132,20.09982238],[-99.28027182,20.10087369],[-99.275805041,20.103525581],[-99.275234883,20.103848597],[-99.275224722,20.101042876],[-99.269659858,20.10073478],[-99.264313933,20.100410798],[-99.260931119,20.106290914],[-99.256191479,20.10624551],[-99.254297881,20.106204799],[-99.251920966,20.106171492],[-99.249746155,20.106126556],[-99.247136312,20.106037543],[-99.245639748,20.105974516],[-99.246692484,20.108603044],[-99.240382225,20.108402704],[-99.236098121,20.108293089],[-99.235843773,20.108291787],[-99.235531516,20.107739374],[-99.235479773,20.106784561],[-99.233723203,20.107727483],[-99.231647996,20.109090259],[-99.22874593,20.108943232],[-99.227040807,20.108615296],[-99.226866745,20.112530944],[-99.222329263,20.113026176],[-99.222557395,20.116561928],[-99.217816915,20.117300116],[-99.215725908,20.116964094],[-99.214251207,20.116927931],[-99.213637585,20.116887109],[-99.212667247,20.117029238],[-99.208881243,20.117411616],[-99.208396395,20.117398838],[-99.20627337,20.11734359],[-99.204405653,20.116808861],[-99.205135465,20.120186667],[-99.205544571,20.121036401],[-99.203324551,20.121621451],[-99.200631825,20.122080251],[-99.199229969,20.12172539],[-99.1960191,20.122078239],[-99.192046624,20.122294291],[-99.188367527,20.122708073],[-99.182715678,20.124721916],[-99.175113699,20.127475116],[-99.166132528,20.130589996],[-99.16619005,20.13024572]]]]},"properties":{"municipality":"Tlaxcoapan","official_key":"13074","CVE_ENT":"13","CVE_MUN":"074","geometry_kind":"municipality","source":"INEGI Gaia — Servicio vectorial del Marco Geoestadístico"}},"features":[{"type":"Feature","geometry":{"type":"MultiPolygon","crs":{"type":"name","properties":{"name":"EPSG:6365"}},"coordinates":[[[[-99.210146934,20.101340057],[-99.208954895,20.100818099],[-99.20871553,20.101021152],[-99.207410126,20.100871423],[-99.207291204,20.100825088],[-99.208234406,20.100310766],[-99.208717824,20.10002077],[-99.209685192,20.100280878],[-99.210606815,20.100542539],[-99.210356476,20.100990162],[-99.210146934,20.101340057]]],[[[-99.234583361,20.103909477],[-99.233460138,20.103870231],[-99.231948538,20.103852062],[-99.231372942,20.103804045],[-99.231372585,20.103804015],[-99.231309831,20.102561492],[-99.231305315,20.101564692],[-99.231297692,20.1006986],[-99.231299988,20.100300337],[-99.231302769,20.099818031],[-99.231289292,20.099058677],[-99.231285414,20.098553746],[-99.231271851,20.098174756],[-99.231271838,20.0981744],[-99.231245392,20.098173615],[-99.230230277,20.0981434],[-99.229188708,20.098112385],[-99.227991415,20.098073169],[-99.227938754,20.098071446],[-99.227868262,20.098920678],[-99.227770462,20.100087532],[-99.227672661,20.101254369],[-99.226008141,20.10122613],[-99.22595293,20.102129848],[-99.223948741,20.102014969],[-99.224077331,20.101131689],[-99.224152277,20.100349159],[-99.224152307,20.100348815],[-99.223105985,20.100290447],[-99.223110006,20.100496169],[-99.223101645,20.1007172],[-99.222987223,20.101432645],[-99.222983786,20.101432582],[-99.221950831,20.101413432],[-99.221402281,20.101395263],[-99.221393431,20.101394969],[-99.221397569,20.101472831],[-99.220239215,20.101441377],[-99.219080877,20.101409916],[-99.219121807,20.101929154],[-99.219172361,20.102458277],[-99.21919803,20.103018331],[-99.217532215,20.102645108],[-99.216568009,20.102426556],[-99.2156038,20.102208015],[-99.214639585,20.101989462],[-99.214469262,20.101943524],[-99.213600174,20.102888763],[-99.212617309,20.102157819],[-99.21345785,20.101183561],[-99.213607195,20.101224721],[-99.213428263,20.100556607],[-99.215181396,20.10093867],[-99.215895225,20.100051606],[-99.215651757,20.10003659],[-99.215674089,20.099458563],[-99.215938292,20.099483656],[-99.215784084,20.097448654],[-99.215784068,20.097448311],[-99.213646438,20.097307257],[-99.213310676,20.097282658],[-99.213310168,20.09728262],[-99.213372471,20.097130355],[-99.213372723,20.097129738],[-99.213142414,20.097221801],[-99.211864214,20.097516509],[-99.211146098,20.097634688],[-99.210775343,20.095838956],[-99.210338661,20.09389306],[-99.209821512,20.094420756],[-99.209656249,20.093974858],[-99.209136984,20.094123631],[-99.208451814,20.092651892],[-99.207577262,20.092725994],[-99.207475984,20.092734569],[-99.206451944,20.092802688],[-99.206451645,20.092802708],[-99.206148197,20.091813527],[-99.205791808,20.090818866],[-99.205395185,20.089763733],[-99.205100501,20.088844641],[-99.20474681,20.087872635],[-99.205505463,20.087613227],[-99.205673484,20.08755864],[-99.205841508,20.087504054],[-99.206583338,20.087266477],[-99.207747461,20.086894909],[-99.208215968,20.086747815],[-99.208755723,20.086579631],[-99.209174691,20.086454938],[-99.209616392,20.086311831],[-99.209680358,20.086292236],[-99.209889168,20.08622827],[-99.210048644,20.086179422],[-99.209994177,20.086004385],[-99.209949938,20.085862215],[-99.209822014,20.085459777],[-99.209721891,20.085140962],[-99.209520423,20.084683377],[-99.209510586,20.084661035],[-99.209494117,20.084623614],[-99.209420476,20.084505731],[-99.209346838,20.084387846],[-99.2091446,20.084144254],[-99.208665973,20.083675245],[-99.208665599,20.083674877],[-99.207955031,20.083097369],[-99.207415808,20.082660808],[-99.207410982,20.0826569],[-99.20741055,20.08265655],[-99.208450819,20.082366681],[-99.209491079,20.08207678],[-99.210531319,20.081786891],[-99.210531664,20.081787266],[-99.210570249,20.081829121],[-99.210570278,20.081829114],[-99.21088754,20.08175917],[-99.21172474,20.081569251],[-99.21270429,20.081287121],[-99.213476739,20.081077864],[-99.21364877,20.08103126],[-99.213694339,20.08102525],[-99.213697047,20.081024517],[-99.21488554,20.080702861],[-99.21496031,20.08068405],[-99.21558968,20.080512541],[-99.21627929,20.08033031],[-99.21628506,20.080327311],[-99.21668471,20.080228121],[-99.21677137,20.0802108],[-99.21697023,20.080153571],[-99.217705549,20.079957221],[-99.218197616,20.079832198],[-99.219087983,20.07960597],[-99.219141481,20.079592377],[-99.219184248,20.079581514],[-99.219184323,20.079581956],[-99.219246568,20.07994225],[-99.219246142,20.079946219],[-99.219242296,20.079981988],[-99.219223875,20.080153292],[-99.21922383,20.08015371],[-99.219217649,20.080211124],[-99.219217797,20.080214406],[-99.21924117,20.08073165],[-99.219255349,20.080998201],[-99.219268879,20.08125205],[-99.21928792,20.08156608],[-99.219316304,20.08203408],[-99.219335246,20.082346302],[-99.219343259,20.082478431],[-99.219343601,20.082478289],[-99.21936759,20.082468286],[-99.219368349,20.08246797],[-99.219368388,20.082468477],[-99.219392538,20.082781831],[-99.219412682,20.083010701],[-99.219413309,20.08301783],[-99.219413644,20.083017768],[-99.219629769,20.082976571],[-99.219772568,20.082943519],[-99.219957918,20.082900623],[-99.220105138,20.082867251],[-99.220166149,20.08285277],[-99.22045486,20.08278424],[-99.220455257,20.082784145],[-99.220456118,20.082783942],[-99.220589304,20.082752327],[-99.220603399,20.082748982],[-99.22061254,20.082747042],[-99.22073455,20.082721144],[-99.220779605,20.082711579],[-99.220853075,20.082695984],[-99.221279089,20.082605552],[-99.221499955,20.082550449],[-99.221939647,20.082440752],[-99.22204138,20.082407656],[-99.222324617,20.082315511],[-99.22283769,20.08215466],[-99.222846999,20.082080148],[-99.222864021,20.081943913],[-99.22286412,20.081943122],[-99.222864307,20.081895142],[-99.222864402,20.081870547],[-99.22286441,20.081868499],[-99.222864933,20.081734077],[-99.222865485,20.081591844],[-99.222865509,20.081586111],[-99.22287795,20.081583084],[-99.222927871,20.081570932],[-99.223108418,20.081526983],[-99.224022418,20.08130054],[-99.22497618,20.08122497],[-99.225102749,20.081218771],[-99.226788169,20.081150651],[-99.226892319,20.081147686],[-99.226955919,20.081145876],[-99.226960312,20.081145751],[-99.226976522,20.081145291],[-99.22765426,20.081126001],[-99.227859731,20.081109691],[-99.227957807,20.081101905],[-99.22929043,20.08099611],[-99.230098151,20.08094462],[-99.230426035,20.080923715],[-99.231063648,20.080883062],[-99.231271259,20.080873864],[-99.23130026,20.080872581],[-99.231485007,20.08083381],[-99.231485936,20.080833614],[-99.231486088,20.080833583],[-99.231486077,20.080834029],[-99.231485952,20.080839229],[-99.231485953,20.080839341],[-99.231475953,20.081252446],[-99.231835185,20.081733462],[-99.2322324,20.082392739],[-99.232365799,20.083284201],[-99.232309477,20.084533492],[-99.232572523,20.085054939],[-99.232766308,20.085419955],[-99.232941291,20.085853492],[-99.232810722,20.086245],[-99.232956122,20.086551369],[-99.233032491,20.086870878],[-99.232871908,20.087186709],[-99.232789508,20.087467278],[-99.232852076,20.087773755],[-99.233157599,20.088154046],[-99.232806123,20.088500201],[-99.232544245,20.088774493],[-99.23225502,20.088774862],[-99.232254384,20.088774863],[-99.231943845,20.088801369],[-99.231701738,20.089058123],[-99.23169523,20.089332093],[-99.231854276,20.089534063],[-99.231854422,20.089534139],[-99.232199465,20.089716168],[-99.232199614,20.089716247],[-99.232768283,20.090022813],[-99.232768431,20.090022893],[-99.233086323,20.090296431],[-99.233086356,20.090296505],[-99.233183261,20.090511551],[-99.233142185,20.090726832],[-99.233051861,20.091103339],[-99.232948599,20.091369355],[-99.232961,20.091547877],[-99.232984462,20.091885938],[-99.233199646,20.092245001],[-99.233495922,20.092616893],[-99.233625108,20.092852015],[-99.233773754,20.0931226],[-99.233982815,20.093464292],[-99.234092308,20.093840031],[-99.233818107,20.094054692],[-99.233555722,20.094201678],[-99.233520307,20.094461154],[-99.233616291,20.094799416],[-99.233760077,20.095171446],[-99.233857153,20.095638093],[-99.233822231,20.096235955],[-99.233787185,20.096465524],[-99.233737,20.096794328],[-99.233743708,20.097186615],[-99.233738676,20.097415492],[-99.233705414,20.097569585],[-99.233703476,20.097772138],[-99.23374883,20.098110616],[-99.233817103,20.098319415],[-99.233817154,20.098319569],[-99.233901689,20.09852727],[-99.233977292,20.099022369],[-99.233979046,20.099384785],[-99.234025284,20.100378886],[-99.234027385,20.101024723],[-99.234391781,20.101498411],[-99.234600877,20.101885308],[-99.234622407,20.102146492],[-99.234602884,20.103027985],[-99.234583361,20.103909477]]]]},"properties":{"locality":"Tlaxcoapan","municipality":null,"official_key":"130740001","CVE_ENT":"13","CVE_MUN":"074","CVE_LOC":"0001","ambito":"URBANO","geometry_kind":"locality","source":"INEGI Gaia — Servicio vectorial del Marco Geoestadístico"}},{"type":"Feature","geometry":{"type":"MultiPolygon","crs":{"type":"name","properties":{"name":"EPSG:6365"}},"coordinates":[[[[-99.243166311,20.101249913],[-99.242672192,20.100326892],[-99.242456276,20.099849077],[-99.242360876,20.099544431],[-99.242334476,20.099436121],[-99.242334414,20.099435863],[-99.242197062,20.099495216],[-99.242047737,20.099577432],[-99.241932892,20.099616118],[-99.241746049,20.09961637],[-99.241745415,20.09961637],[-99.241430034,20.099606834],[-99.241429399,20.099606815],[-99.240572541,20.099576176],[-99.240571908,20.099576154],[-99.239817891,20.099534817],[-99.239730858,20.099533938],[-99.239061573,20.099527184],[-99.239060937,20.099527178],[-99.238208834,20.099494455],[-99.238208199,20.099494431],[-99.237098419,20.099454745],[-99.237097784,20.099454723],[-99.237097753,20.099454654],[-99.237076307,20.099407021],[-99.23707619,20.099407017],[-99.236741588,20.099396928],[-99.236740953,20.09939691],[-99.23642288,20.099395749],[-99.236422245,20.099395746],[-99.235707557,20.09937708],[-99.235706922,20.099377063],[-99.235411326,20.099372932],[-99.235411232,20.099372931],[-99.235410692,20.099372923],[-99.235273354,20.099367078],[-99.23527335,20.099367009],[-99.23526683,20.099270509],[-99.235276307,20.099205615],[-99.235370338,20.099078739],[-99.235613031,20.098845555],[-99.235871737,20.098607539],[-99.236205769,20.09830177],[-99.236117692,20.098230534],[-99.236117661,20.098230509],[-99.236117605,20.098230511],[-99.234525784,20.098267377],[-99.233881628,20.098270387],[-99.233878807,20.098270402],[-99.233817654,20.098319171],[-99.233817356,20.098319409],[-99.233817154,20.098319569],[-99.233817103,20.098319415],[-99.23374883,20.098110616],[-99.233703476,20.097772138],[-99.233705414,20.097569585],[-99.233738676,20.097415492],[-99.233743708,20.097186615],[-99.233737,20.096794328],[-99.233787185,20.096465524],[-99.233822231,20.096235955],[-99.233857153,20.095638093],[-99.233760077,20.095171446],[-99.233616291,20.094799416],[-99.233520307,20.094461154],[-99.233555722,20.094201678],[-99.233818107,20.094054692],[-99.234092308,20.093840031],[-99.233982815,20.093464292],[-99.233773754,20.0931226],[-99.233625108,20.092852015],[-99.233495922,20.092616893],[-99.233199646,20.092245001],[-99.232984462,20.091885938],[-99.232961,20.091547877],[-99.232948599,20.091369355],[-99.233051861,20.091103339],[-99.233142185,20.090726832],[-99.233183261,20.090511551],[-99.233086356,20.090296505],[-99.233086323,20.090296431],[-99.232768431,20.090022893],[-99.232768283,20.090022813],[-99.232199614,20.089716247],[-99.232199465,20.089716168],[-99.231854422,20.089534139],[-99.231854276,20.089534063],[-99.23169523,20.089332093],[-99.231701738,20.089058123],[-99.231943845,20.088801369],[-99.232254384,20.088774863],[-99.23225502,20.088774862],[-99.232544245,20.088774493],[-99.232806123,20.088500201],[-99.233157599,20.088154046],[-99.232852076,20.087773755],[-99.232789508,20.087467278],[-99.232871908,20.087186709],[-99.233032491,20.086870878],[-99.232956122,20.086551369],[-99.232810722,20.086245],[-99.232941291,20.085853492],[-99.232766308,20.085419955],[-99.232572523,20.085054939],[-99.232309477,20.084533492],[-99.232365799,20.083284201],[-99.2322324,20.082392739],[-99.231835185,20.081733462],[-99.231475953,20.081252446],[-99.231485953,20.080839341],[-99.231485952,20.080839229],[-99.231486077,20.080834029],[-99.231486088,20.080833583],[-99.23147383,20.080763241],[-99.231449639,20.080624435],[-99.231445889,20.08060291],[-99.231432168,20.080567872],[-99.231381245,20.080437824],[-99.23138091,20.08043697],[-99.23139303,20.08030558],[-99.23140534,20.08019458],[-99.231409908,20.080192491],[-99.231508579,20.080147371],[-99.231715259,20.08011698],[-99.23203349,20.080081221],[-99.232364138,20.080036018],[-99.232364166,20.080036013],[-99.23294738,20.07995182],[-99.232982049,20.07994682],[-99.23345251,20.07988346],[-99.234464681,20.079745081],[-99.23520482,20.079642721],[-99.23554683,20.07959758],[-99.236474629,20.07947337],[-99.237013749,20.07940312],[-99.23797258,20.07927043],[-99.238931431,20.079137751],[-99.23905925,20.0791202],[-99.23962011,20.07904105],[-99.24026852,20.07893695],[-99.240480969,20.07890874],[-99.24048855,20.078907911],[-99.240709753,20.078883723],[-99.240866615,20.078862755],[-99.241084215,20.078832462],[-99.241436092,20.078772663],[-99.241504048,20.078757954],[-99.241504123,20.078757938],[-99.241643614,20.078727724],[-99.241833308,20.078704739],[-99.241903554,20.078679186],[-99.241889969,20.078611924],[-99.241865768,20.078537985],[-99.24181803,20.078445769],[-99.241754861,20.078317863],[-99.241741168,20.078261709],[-99.241752158,20.078216766],[-99.24178695,20.078177404],[-99.241787384,20.078177642],[-99.2502811,20.082831687],[-99.250085601,20.083545409],[-99.249994092,20.083980986],[-99.249865323,20.084656663],[-99.249747406,20.08534977],[-99.249612616,20.086067548],[-99.249640875,20.086620054],[-99.251530712,20.086646881],[-99.255679647,20.086705446],[-99.255812869,20.088082101],[-99.249038738,20.0896838],[-99.249117231,20.089961662],[-99.249131231,20.090124616],[-99.249128831,20.090340215],[-99.249088584,20.090796531],[-99.249015568,20.091657347],[-99.248930953,20.092709101],[-99.248893084,20.092926662],[-99.248860027,20.093506162],[-99.248858019,20.09354142],[-99.249028569,20.0938966],[-99.249173814,20.094215247],[-99.249294676,20.094296063],[-99.249571199,20.094345163],[-99.249807806,20.094373362],[-99.249836007,20.094376722],[-99.250052137,20.094415401],[-99.250228615,20.094494632],[-99.250316168,20.094608478],[-99.250557061,20.094936215],[-99.250663831,20.095135508],[-99.250695907,20.095241385],[-99.250664292,20.095344909],[-99.250559568,20.095427539],[-99.250407174,20.095504228],[-99.250213242,20.095670266],[-99.250008657,20.095903004],[-99.249616476,20.096338124],[-99.249345273,20.096636943],[-99.248872599,20.097171539],[-99.248121938,20.098001016],[-99.247830784,20.098328723],[-99.247138553,20.099105385],[-99.246910369,20.099354508],[-99.246617013,20.099713427],[-99.246616662,20.099713857],[-99.246527639,20.09957583],[-99.2460707,20.099475565],[-99.246070015,20.099475415],[-99.246104692,20.099569862],[-99.246201902,20.099724404],[-99.245143707,20.100295585],[-99.244226861,20.100776093],[-99.243464399,20.101217277],[-99.243218291,20.101345836],[-99.243217799,20.101346093],[-99.243166311,20.101249913]]]]},"properties":{"locality":"Doxey","municipality":null,"official_key":"130740002","CVE_ENT":"13","CVE_MUN":"074","CVE_LOC":"0002","ambito":"URBANO","geometry_kind":"locality","source":"INEGI Gaia — Servicio vectorial del Marco Geoestadístico"}},{"type":"Feature","geometry":{"type":"MultiPolygon","crs":{"type":"name","properties":{"name":"EPSG:6365"}},"coordinates":[[[[-99.19492855,20.121771081],[-99.194863119,20.12122208],[-99.19454052,20.121164911],[-99.194194419,20.12104225],[-99.19419348,20.121037741],[-99.194113275,20.120652651],[-99.194013346,20.119809285],[-99.194013091,20.119807139],[-99.193034538,20.119914354],[-99.192421554,20.119965138],[-99.192145141,20.120361241],[-99.191877677,20.120481908],[-99.190527846,20.1206882],[-99.189103719,20.120953303],[-99.187936874,20.119443489],[-99.187342824,20.118682528],[-99.188716123,20.118062754],[-99.1887778,20.117917662],[-99.187526431,20.114623262],[-99.187128417,20.113818315],[-99.188892123,20.113024308],[-99.189358092,20.112797815],[-99.190085,20.112488338],[-99.190841994,20.112171966],[-99.191596431,20.111871923],[-99.192383323,20.111550569],[-99.192452,20.1115269],[-99.192493754,20.111512523],[-99.192929431,20.111355262],[-99.193731431,20.111041108],[-99.194279938,20.110836369],[-99.195067077,20.110664485],[-99.195700739,20.11051158],[-99.195875523,20.109741185],[-99.195898185,20.1095628],[-99.196701392,20.109584654],[-99.197740662,20.109623677],[-99.1985739,20.109656692],[-99.198897785,20.109664508],[-99.198991862,20.109666754],[-99.200024569,20.109703738],[-99.200705284,20.109711447],[-99.201021585,20.109736492],[-99.201314462,20.109805777],[-99.202048385,20.110019354],[-99.202835308,20.110248923],[-99.202970987,20.110285455],[-99.203219099,20.110352248],[-99.203950369,20.110512262],[-99.204261391,20.110564691],[-99.20478176,20.110705895],[-99.204874646,20.110741685],[-99.204967531,20.110777475],[-99.205210169,20.110951015],[-99.205211314,20.110952366],[-99.205423031,20.111202062],[-99.205531264,20.111408007],[-99.205569431,20.111509323],[-99.2056078,20.111771123],[-99.205617062,20.112004246],[-99.205570385,20.112245031],[-99.20540031,20.112647486],[-99.205207385,20.113043985],[-99.205151926,20.113157963],[-99.204980215,20.113580492],[-99.204964739,20.1137241],[-99.204958377,20.114004291],[-99.2049586,20.114175338],[-99.205030846,20.114708738],[-99.205076629,20.115169191],[-99.205065445,20.115286892],[-99.205039381,20.115387727],[-99.205036122,20.115400339],[-99.204829231,20.115655863],[-99.204501722,20.116045185],[-99.204442215,20.116179585],[-99.20445193,20.116705615],[-99.204453736,20.116743396],[-99.204455461,20.116779467],[-99.204457576,20.116823726],[-99.204436636,20.116817732],[-99.204405653,20.116808861],[-99.204406987,20.116815033],[-99.204449278,20.117010777],[-99.204468594,20.117100178],[-99.204475686,20.117133005],[-99.204489919,20.11719888],[-99.204598926,20.117703408],[-99.204643948,20.117911787],[-99.204710269,20.118218743],[-99.204965712,20.119401011],[-99.205135465,20.120186667],[-99.205167637,20.120253489],[-99.205269542,20.120465152],[-99.205422296,20.12078243],[-99.205513712,20.120972306],[-99.205544571,20.121036401],[-99.20561208,20.12130574],[-99.205479469,20.121292647],[-99.20547809,20.121292511],[-99.205477944,20.121292619],[-99.20542135,20.121334261],[-99.20539731,20.121351951],[-99.205249179,20.12142632],[-99.20486852,20.12151595],[-99.204020819,20.121737751],[-99.203839769,20.12177197],[-99.20358817,20.12171926],[-99.203375685,20.121691393],[-99.203347829,20.121687741],[-99.203075608,20.121669604],[-99.20306608,20.12166897],[-99.2028842,20.121696741],[-99.202862758,20.121705873],[-99.202814485,20.121726432],[-99.20269875,20.121775721],[-99.201929889,20.122179911],[-99.201752539,20.12223946],[-99.20150415,20.12222275],[-99.20123915,20.122218821],[-99.201138049,20.12219349],[-99.201009109,20.12211878],[-99.20090816,20.122038905],[-99.200902195,20.122034186],[-99.200825851,20.121973781],[-99.200797779,20.12195157],[-99.20071908,20.121875341],[-99.20062458,20.12174191],[-99.200554424,20.121651241],[-99.200553451,20.12164998],[-99.200355649,20.12151454],[-99.200174681,20.121453286],[-99.20013097,20.121438491],[-99.19994005,20.121413281],[-99.199713219,20.12141777],[-99.199567089,20.121433431],[-99.1993434,20.12156751],[-99.19892214,20.121672251],[-99.19867017,20.12164078],[-99.198265649,20.12146552],[-99.198222681,20.121455594],[-99.1980368,20.12141265],[-99.19781098,20.121458511],[-99.1977002,20.12153432],[-99.197690737,20.121551076],[-99.19752861,20.121838181],[-99.19751285,20.121866091],[-99.197487081,20.121916928],[-99.197483999,20.121923009],[-99.197327019,20.122232711],[-99.19721254,20.122281651],[-99.196749059,20.12234554],[-99.19661892,20.12234603],[-99.19645518,20.12226118],[-99.196272679,20.122063251],[-99.196254299,20.122058139],[-99.1962395,20.122054022],[-99.196048315,20.122000847],[-99.196038799,20.1219982],[-99.195944723,20.121936583],[-99.195851049,20.12187523],[-99.195565799,20.12179023],[-99.19492855,20.121771081]]]]},"properties":{"locality":"Teltipán de Juárez","municipality":null,"official_key":"130740003","CVE_ENT":"13","CVE_MUN":"074","CVE_LOC":"0003","ambito":"URBANO","geometry_kind":"locality","source":"INEGI Gaia — Servicio vectorial del Marco Geoestadístico"}},{"type":"Feature","geometry":{"type":"MultiPolygon","crs":{"type":"name","properties":{"name":"EPSG:6365"}},"coordinates":[[[[-99.274156354,20.083105447],[-99.274272523,20.082905554],[-99.274523992,20.082476648],[-99.276436554,20.081987602],[-99.275901207,20.079353646],[-99.275988061,20.079254769],[-99.276150276,20.079381554],[-99.278163046,20.081210507],[-99.278295331,20.081293785],[-99.278904071,20.08182694],[-99.27920844,20.082113669],[-99.279480625,20.082390323],[-99.280438023,20.08333302],[-99.280633675,20.083832349],[-99.279874522,20.083477221],[-99.279012147,20.083329884],[-99.279029538,20.083172473],[-99.277917128,20.083416539],[-99.277933516,20.083668032],[-99.277330168,20.083864314],[-99.275126001,20.084479869],[-99.274603274,20.084807798],[-99.274352641,20.084860923],[-99.274102005,20.084853588],[-99.273943932,20.084522357],[-99.273807315,20.083908984],[-99.274156354,20.083105447]]],[[[-99.288416737,20.091409678],[-99.288100722,20.091105816],[-99.28728236,20.091822703],[-99.287172099,20.092076098],[-99.285958281,20.092201852],[-99.285003267,20.09218689],[-99.284431521,20.089758002],[-99.28418733,20.089767228],[-99.283881519,20.088746832],[-99.283835677,20.088772816],[-99.283716138,20.08878257],[-99.283596861,20.088794585],[-99.283239291,20.088833],[-99.283119953,20.088844508],[-99.282881169,20.088866663],[-99.282761862,20.088878355],[-99.282690738,20.088886186],[-99.282595323,20.088889509],[-99.282357123,20.088916539],[-99.282237999,20.088929892],[-99.280808476,20.089089478],[-99.280689323,20.089102554],[-99.280440947,20.089067848],[-99.282136259,20.088197063],[-99.282615862,20.086544492],[-99.282616462,20.086537646],[-99.282312785,20.086258801],[-99.282365646,20.086205816],[-99.282398631,20.086171247],[-99.282447046,20.086122093],[-99.282479954,20.086087462],[-99.282523446,20.086043524],[-99.282542215,20.086027308],[-99.282142399,20.085776092],[-99.282002723,20.085789815],[-99.281858199,20.085813569],[-99.281837316,20.085273922],[-99.282113156,20.085007347],[-99.281245892,20.084093181],[-99.281156989,20.083919285],[-99.281150884,20.083907344],[-99.28105917,20.083727945],[-99.280979442,20.083571992],[-99.285117916,20.087380969],[-99.284852933,20.087453344],[-99.284778186,20.08747376],[-99.284773145,20.087475137],[-99.284734892,20.087485583],[-99.287989436,20.090564928],[-99.291233024,20.093672009],[-99.289130168,20.09543157],[-99.28891,20.095170198],[-99.288400155,20.094193448],[-99.290084129,20.092985542],[-99.289409892,20.0923622],[-99.288736738,20.091716016],[-99.288416737,20.091409678]]]]},"properties":{"locality":"Teocalco","municipality":null,"official_key":"130740004","CVE_ENT":"13","CVE_MUN":"074","CVE_LOC":"0004","ambito":"RURAL","geometry_kind":"locality","source":"INEGI Gaia — Servicio vectorial del Marco Geoestadístico"}},{"type":"Feature","geometry":{"type":"Polygon","coordinates":[[[-99.2100486,20.0861794],[-99.2111463,20.0858476],[-99.2118886,20.0855353],[-99.2119469,20.086114],[-99.2119944,20.0871813],[-99.2120015,20.0890724],[-99.2120011,20.0903649],[-99.2120061,20.0910013],[-99.2120069,20.091109],[-99.2120137,20.0923019],[-99.2120172,20.092321],[-99.2120231,20.0923483],[-99.2117468,20.0923665],[-99.2114297,20.0923999],[-99.2113299,20.0924103],[-99.2106648,20.0924733],[-99.2097364,20.0925436],[-99.2096922,20.0925468],[-99.2094277,20.0925692],[-99.2084518,20.0926519],[-99.2075773,20.092726],[-99.207476,20.0927346],[-99.2064519,20.0928027],[-99.2064516,20.0928027],[-99.2061482,20.0918135],[-99.2057918,20.0908189],[-99.2053952,20.0897637],[-99.2051005,20.0888446],[-99.2047468,20.0878726],[-99.2055055,20.0876132],[-99.2056735,20.0875586],[-99.2058415,20.0875041],[-99.2065833,20.0872665],[-99.2077475,20.0868949],[-99.208216,20.0867478],[-99.2087557,20.0865796],[-99.2091747,20.0864549],[-99.2096164,20.0863118],[-99.2096804,20.0862922],[-99.2098892,20.0862283],[-99.2100486,20.0861794]]]},"properties":{"locality":"ANÁHUAC","official_key":"1307400010001","CVE_ENT":"13","CVE_MUN":"074","CVE_LOC":"0001","CVE_ASEN":"0001","settlement_type":"COLONIA","source":"INEGI DCAH 2025"}},{"type":"Feature","geometry":{"type":"Polygon","coordinates":[[[-99.2226157,20.0892036],[-99.2224727,20.0891892],[-99.222424,20.0894012],[-99.2217782,20.0893209],[-99.2216055,20.0893016],[-99.2211587,20.0892382],[-99.2210406,20.0892319],[-99.2206611,20.0891846],[-99.2204722,20.0891685],[-99.2201475,20.0891326],[-99.2201139,20.088828],[-99.2200974,20.0885953],[-99.2200321,20.0885914],[-99.2199004,20.0885821],[-99.2198663,20.0885784],[-99.219838,20.0885736],[-99.2197751,20.0885433],[-99.2197317,20.0884937],[-99.2197063,20.0884532],[-99.2196953,20.0883456],[-99.2196937,20.0883028],[-99.2197013,20.0882126],[-99.2197043,20.0881348],[-99.2197103,20.0879995],[-99.2197163,20.0878761],[-99.219714,20.0877812],[-99.2197191,20.0876158],[-99.2197211,20.0875424],[-99.2197221,20.0874916],[-99.2197307,20.0871098],[-99.2197356,20.0869045],[-99.2197404,20.0866115],[-99.2197404,20.0865882],[-99.2195978,20.0865819],[-99.219593,20.0864676],[-99.2195879,20.0863453],[-99.2195779,20.0863038],[-99.219569,20.0862765],[-99.2195848,20.0860467],[-99.2195929,20.0859775],[-99.2185385,20.085852],[-99.2174019,20.0857303],[-99.2174012,20.0857302],[-99.2165288,20.0857434],[-99.2165228,20.0857435],[-99.216494,20.0852353],[-99.2164889,20.0851472],[-99.2164628,20.0846099],[-99.2164359,20.0841929],[-99.2163201,20.0838831],[-99.216347,20.0838752],[-99.2164201,20.0838548],[-99.2170352,20.0836837],[-99.2176807,20.0834904],[-99.2181099,20.0833753],[-99.2185488,20.0832577],[-99.2189302,20.0831432],[-99.2194133,20.0830178],[-99.2194136,20.0830178],[-99.2196298,20.0829766],[-99.2197726,20.0829435],[-99.2199579,20.0829006],[-99.2201051,20.0828673],[-99.2201661,20.0828528],[-99.2204549,20.0827842],[-99.2204553,20.0827841],[-99.2204561,20.0827839],[-99.2205893,20.0827523],[-99.2206034,20.082749],[-99.2206125,20.082747],[-99.2207346,20.0827211],[-99.2207796,20.0827116],[-99.2208531,20.082696],[-99.2212791,20.0826056],[-99.2215,20.0825505],[-99.2219396,20.0824408],[-99.2220414,20.0824077],[-99.2223246,20.0823155],[-99.2228377,20.0821547],[-99.222847,20.0820801],[-99.222864,20.0819439],[-99.2228641,20.0819431],[-99.2228643,20.0818951],[-99.2228644,20.0818705],[-99.2228644,20.0818685],[-99.2228649,20.0817341],[-99.2228655,20.0815918],[-99.2228655,20.0815861],[-99.2228779,20.0815831],[-99.2229279,20.0815709],[-99.2231084,20.081527],[-99.2240224,20.0813005],[-99.2249762,20.081225],[-99.2251027,20.0812188],[-99.2267882,20.0811507],[-99.2268923,20.0811477],[-99.2269559,20.0811459],[-99.2269603,20.0811458],[-99.2269765,20.0811453],[-99.2276543,20.081126],[-99.2278597,20.0811097],[-99.2279578,20.0811019],[-99.2292904,20.0809961],[-99.2300982,20.0809446],[-99.230426,20.0809237],[-99.230436,20.0812363],[-99.2302528,20.0812491],[-99.2299942,20.0812643],[-99.2300183,20.0818913],[-99.2300392,20.0824349],[-99.2296114,20.0825689],[-99.2288413,20.0826225],[-99.2287036,20.0845251],[-99.229602,20.0845965],[-99.2294344,20.08509],[-99.2291604,20.0850926],[-99.2289087,20.0850881],[-99.2286315,20.0850844],[-99.2281701,20.0850733],[-99.2281466,20.085073],[-99.2276261,20.0850653],[-99.2274668,20.0850514],[-99.2273519,20.085011],[-99.2264897,20.0849736],[-99.2263752,20.0856356],[-99.2263702,20.0857111],[-99.2262548,20.0863369],[-99.2262307,20.0864103],[-99.2261804,20.0865546],[-99.2260787,20.0867562],[-99.2260174,20.0867743],[-99.2259278,20.086788],[-99.2258241,20.086788],[-99.2257728,20.0868139],[-99.225754,20.0868385],[-99.2255899,20.0873125],[-99.2256871,20.0879256],[-99.2253166,20.0883057],[-99.2250433,20.0885912],[-99.2241458,20.089511],[-99.2241184,20.0894252],[-99.2241293,20.0893128],[-99.2235815,20.0892752],[-99.2230783,20.0892375],[-99.2226157,20.0892036]]]},"properties":{"locality":"APEPECHOCA","official_key":"1307400010002","CVE_ENT":"13","CVE_MUN":"074","CVE_LOC":"0001","CVE_ASEN":"0002","settlement_type":"COLONIA","source":"INEGI DCAH 2025"}},{"type":"Feature","geometry":{"type":"Polygon","coordinates":[[[-99.2140462,20.085643],[-99.2146819,20.0856455],[-99.2156624,20.0857086],[-99.2165228,20.0857435],[-99.216526,20.0858387],[-99.2165329,20.0860483],[-99.2165963,20.0868736],[-99.2166427,20.0874622],[-99.2166543,20.0876091],[-99.216653,20.0883645],[-99.2166268,20.0894313],[-99.2166102,20.0910222],[-99.2165815,20.0912904],[-99.2165009,20.0920449],[-99.2164635,20.0921071],[-99.216379,20.0921149],[-99.2157094,20.0921449],[-99.2142362,20.0922253],[-99.2139056,20.0922495],[-99.2131714,20.0922941],[-99.2120231,20.0923483],[-99.2120172,20.092321],[-99.2120137,20.0923019],[-99.2120069,20.091109],[-99.2120061,20.0910013],[-99.2120011,20.0903649],[-99.2120015,20.0890724],[-99.2119944,20.0871813],[-99.2119469,20.086114],[-99.2136903,20.0856444],[-99.2140462,20.085643]]]},"properties":{"locality":"EL CALVARIO","official_key":"1307400010004","CVE_ENT":"13","CVE_MUN":"074","CVE_LOC":"0001","CVE_ASEN":"0004","settlement_type":"BARRIO","source":"INEGI DCAH 2025"}},{"type":"Feature","geometry":{"type":"Polygon","coordinates":[[[-99.223386,20.0933191],[-99.2234515,20.0930375],[-99.2235498,20.0926234],[-99.2242259,20.0927609],[-99.2244176,20.0927721],[-99.2244407,20.0930459],[-99.2243314,20.0930504],[-99.2243219,20.093537],[-99.2241804,20.0935459],[-99.224173,20.0938155],[-99.223386,20.0933191]]]},"properties":{"locality":"LOS CARRIZOS","official_key":"1307400010005","CVE_ENT":"13","CVE_MUN":"074","CVE_LOC":"0001","CVE_ASEN":"0005","settlement_type":"FRACCIONAMIENTO","source":"INEGI DCAH 2025"}},{"type":"Feature","geometry":{"type":"Polygon","coordinates":[[[-99.2213372,20.0936355],[-99.2210666,20.0936286],[-99.220561,20.0936341],[-99.2204899,20.0928481],[-99.2204563,20.0920599],[-99.2204425,20.0918252],[-99.2204284,20.0914828],[-99.2204097,20.0910483],[-99.2203758,20.0908796],[-99.2203369,20.0906864],[-99.220326,20.0906316],[-99.2202768,20.0902519],[-99.2202228,20.089791],[-99.2201714,20.0893501],[-99.2201475,20.0891326],[-99.2204722,20.0891685],[-99.2206611,20.0891846],[-99.2210406,20.0892319],[-99.2211587,20.0892382],[-99.2216055,20.0893016],[-99.2217782,20.0893209],[-99.222424,20.0894012],[-99.2224727,20.0891892],[-99.2226157,20.0892036],[-99.2230783,20.0892375],[-99.2235815,20.0892752],[-99.2241293,20.0893128],[-99.2241184,20.0894252],[-99.2241458,20.089511],[-99.2233875,20.0903023],[-99.2233375,20.0903739],[-99.2228756,20.0908521],[-99.2228532,20.0908903],[-99.222939,20.0909518],[-99.223258,20.0909723],[-99.2232338,20.0913443],[-99.2234974,20.0913437],[-99.2238378,20.0913366],[-99.223834,20.0913864],[-99.2236937,20.0920263],[-99.2235498,20.0926234],[-99.2234515,20.0930375],[-99.223386,20.0933191],[-99.2232005,20.0939476],[-99.2226839,20.0938565],[-99.2215478,20.0936984],[-99.2213573,20.0936661],[-99.2213372,20.0936355]]]},"properties":{"locality":"CENTRO","official_key":"1307400010006","CVE_ENT":"13","CVE_MUN":"074","CVE_LOC":"0001","CVE_ASEN":"0006","settlement_type":"COLONIA","source":"INEGI DCAH 2025"}},{"type":"Feature","geometry":{"type":"Polygon","coordinates":[[[-99.2164635,20.0921071],[-99.2165354,20.0921023],[-99.2167084,20.0920906],[-99.2174317,20.0920733],[-99.2176644,20.0920674],[-99.2182081,20.0920556],[-99.2186314,20.0920589],[-99.2190389,20.0920584],[-99.2194819,20.0920579],[-99.2199661,20.0920597],[-99.2201896,20.0920613],[-99.2204563,20.0920599],[-99.2204899,20.0928481],[-99.220561,20.0936341],[-99.2194867,20.0936612],[-99.2190312,20.0937003],[-99.2188118,20.0937327],[-99.2186144,20.0937619],[-99.2183852,20.0937993],[-99.2182681,20.0938185],[-99.218107,20.0938985],[-99.217914,20.0940003],[-99.2176519,20.0941502],[-99.2173487,20.0943438],[-99.2167371,20.0947195],[-99.2166788,20.0947542],[-99.2166019,20.0945323],[-99.2165458,20.0942986],[-99.2165248,20.0942112],[-99.2165059,20.0939051],[-99.2164681,20.0933714],[-99.2164415,20.0930961],[-99.2164276,20.0927858],[-99.2164495,20.0922574],[-99.2164635,20.0921071]]]},"properties":{"locality":"LA CIUDADELA","official_key":"1307400010007","CVE_ENT":"13","CVE_MUN":"074","CVE_LOC":"0001","CVE_ASEN":"0007","settlement_type":"COLONIA","source":"INEGI DCAH 2025"}},{"type":"Feature","geometry":{"type":"Polygon","coordinates":[[[-99.2213934,20.101395],[-99.2213093,20.1004252],[-99.2212698,20.0996837],[-99.2212595,20.0992442],[-99.2212278,20.0987423],[-99.2212124,20.0984006],[-99.2211902,20.0980712],[-99.2211778,20.0978464],[-99.2211679,20.0976968],[-99.2211553,20.0973635],[-99.221204,20.0973582],[-99.2218995,20.0972921],[-99.2219202,20.0972894],[-99.2220844,20.0972742],[-99.223075,20.097189],[-99.2235554,20.0971975],[-99.2244867,20.0972392],[-99.2244462,20.0975554],[-99.2243749,20.0981129],[-99.2242622,20.0989937],[-99.2242423,20.0992617],[-99.2242204,20.0996151],[-99.2241523,20.1003488],[-99.223106,20.1002904],[-99.22311,20.1004962],[-99.2231016,20.1007172],[-99.2229872,20.1014326],[-99.2219508,20.1014134],[-99.2213934,20.101395]]]},"properties":{"locality":"COLONIA DE LA CRUZ","official_key":"1307400010008","CVE_ENT":"13","CVE_MUN":"074","CVE_LOC":"0001","CVE_ASEN":"0008","settlement_type":"COLONIA","source":"INEGI DCAH 2025"}},{"type":"Feature","geometry":{"type":"Polygon","coordinates":[[[-99.2244176,20.0927721],[-99.2242259,20.0927609],[-99.2235498,20.0926234],[-99.2236937,20.0920263],[-99.223834,20.0913864],[-99.2238378,20.0913366],[-99.2234974,20.0913437],[-99.2232338,20.0913443],[-99.223258,20.0909723],[-99.222939,20.0909518],[-99.2228532,20.0908903],[-99.2228756,20.0908521],[-99.2233375,20.0903739],[-99.2233875,20.0903023],[-99.2241458,20.089511],[-99.2250433,20.0885912],[-99.2253166,20.0883057],[-99.2256871,20.0879256],[-99.2259872,20.0891058],[-99.2261449,20.08911],[-99.2285623,20.0891983],[-99.2283868,20.0913623],[-99.2283285,20.0920368],[-99.2282876,20.0925104],[-99.2282818,20.0925778],[-99.2261065,20.0925444],[-99.2254435,20.0925342],[-99.2253393,20.0930733],[-99.2250423,20.0930861],[-99.2246541,20.0930601],[-99.2246577,20.0928659],[-99.2246593,20.0927862],[-99.2244176,20.0927721]]]},"properties":{"locality":"EDUCACIÓN","official_key":"1307400010009","CVE_ENT":"13","CVE_MUN":"074","CVE_LOC":"0001","CVE_ASEN":"0009","settlement_type":"BARRIO","source":"INEGI DCAH 2025"}},{"type":"Feature","geometry":{"type":"Polygon","coordinates":[[[-99.2241523,20.1003488],[-99.2242204,20.0996151],[-99.2242423,20.0992617],[-99.2242622,20.0989937],[-99.2243749,20.0981129],[-99.2244462,20.0975554],[-99.227964,20.0977668],[-99.2279387,20.0980714],[-99.2278683,20.0989207],[-99.2277705,20.1000875],[-99.2276727,20.1012544],[-99.2260081,20.1012261],[-99.2259529,20.1021298],[-99.2239487,20.102015],[-99.2240773,20.1011317],[-99.2241523,20.1003492],[-99.2241523,20.1003488]]]},"properties":{"locality":"GRANJAS COLOSIO","official_key":"1307400010010","CVE_ENT":"13","CVE_MUN":"074","CVE_LOC":"0001","CVE_ASEN":"0010","settlement_type":"COLONIA","source":"INEGI DCAH 2025"}},{"type":"Feature","geometry":{"type":"Polygon","coordinates":[[[-99.2166543,20.0876091],[-99.2166427,20.0874622],[-99.2165963,20.0868736],[-99.2165329,20.0860483],[-99.216526,20.0858387],[-99.2165228,20.0857435],[-99.2165288,20.0857434],[-99.2174012,20.0857302],[-99.2174012,20.0857303],[-99.2174107,20.0857666],[-99.2175683,20.0863653],[-99.2176251,20.0866371],[-99.2177007,20.0866655],[-99.2178267,20.0867128],[-99.2178584,20.087351],[-99.2178698,20.0875821],[-99.2197011,20.0874926],[-99.2197221,20.0874916],[-99.2197211,20.0875424],[-99.2197191,20.0876158],[-99.219714,20.0877812],[-99.2197163,20.0878761],[-99.2197103,20.0879995],[-99.2197043,20.0881348],[-99.2197013,20.0882126],[-99.2196937,20.0883028],[-99.2196953,20.0883456],[-99.2197063,20.0884532],[-99.2197317,20.0884937],[-99.2197751,20.0885433],[-99.219838,20.0885736],[-99.2198663,20.0885784],[-99.2199004,20.0885821],[-99.2200321,20.0885914],[-99.2200974,20.0885953],[-99.2201139,20.088828],[-99.2201475,20.0891326],[-99.2201714,20.0893501],[-99.2202228,20.089791],[-99.2202768,20.0902519],[-99.220326,20.0906316],[-99.2203369,20.0906864],[-99.2203758,20.0908796],[-99.2204097,20.0910483],[-99.2204284,20.0914828],[-99.2204425,20.0918252],[-99.2204563,20.0920599],[-99.2201896,20.0920613],[-99.2199661,20.0920597],[-99.2194819,20.0920579],[-99.2190389,20.0920584],[-99.2186314,20.0920589],[-99.2182081,20.0920556],[-99.2176644,20.0920674],[-99.2174317,20.0920733],[-99.2167084,20.0920906],[-99.2165354,20.0921023],[-99.2164635,20.0921071],[-99.2165009,20.0920449],[-99.2165815,20.0912904],[-99.2166102,20.0910222],[-99.2166268,20.0894313],[-99.216653,20.0883645],[-99.2166543,20.0876091]]]},"properties":{"locality":"INDEPENDENCIA","official_key":"1307400010011","CVE_ENT":"13","CVE_MUN":"074","CVE_LOC":"0001","CVE_ASEN":"0011","settlement_type":"COLONIA","source":"INEGI DCAH 2025"}},{"type":"Feature","geometry":{"type":"Polygon","coordinates":[[[-99.2209148,20.0955426],[-99.2229921,20.095118],[-99.2238123,20.0949291],[-99.2247737,20.0947097],[-99.2247653,20.0948541],[-99.2247578,20.0949818],[-99.2247062,20.0954423],[-99.2246632,20.0958453],[-99.224659,20.0960097],[-99.2246159,20.0962894],[-99.2245792,20.0965795],[-99.2245262,20.0969574],[-99.2244867,20.0972392],[-99.2235554,20.0971975],[-99.223075,20.097189],[-99.2220844,20.0972742],[-99.2219202,20.0972894],[-99.2218995,20.0972921],[-99.221204,20.0973582],[-99.2211553,20.0973635],[-99.2211456,20.0972853],[-99.221126,20.0970986],[-99.2211184,20.0968555],[-99.2210819,20.0966763],[-99.2210648,20.0965555],[-99.221016,20.0962671],[-99.2210025,20.0961748],[-99.2209656,20.0959668],[-99.2209378,20.0958871],[-99.2209291,20.0958266],[-99.2209207,20.0956457],[-99.2209148,20.0955426]]]},"properties":{"locality":"INDUSTRIAL","official_key":"1307400010012","CVE_ENT":"13","CVE_MUN":"074","CVE_LOC":"0001","CVE_ASEN":"0012","settlement_type":"COLONIA","source":"INEGI DCAH 2025"}},{"type":"Feature","geometry":{"type":"Polygon","coordinates":[[[-99.2132953,20.0954671],[-99.2132862,20.0951561],[-99.2132695,20.0945904],[-99.2135936,20.0947082],[-99.2137933,20.0947998],[-99.2139666,20.094764],[-99.214258,20.0950627],[-99.2142682,20.095101],[-99.2145894,20.0954259],[-99.2146184,20.095403],[-99.2149259,20.0951756],[-99.2152978,20.0948913],[-99.2156483,20.0954729],[-99.2147764,20.0960951],[-99.2142999,20.096453],[-99.2138964,20.0967403],[-99.2136801,20.0968409],[-99.213366,20.0969207],[-99.2132953,20.0954671]]]},"properties":{"locality":"MORELOS","official_key":"1307400010013","CVE_ENT":"13","CVE_MUN":"074","CVE_LOC":"0001","CVE_ASEN":"0013","settlement_type":"COLONIA","source":"INEGI DCAH 2025"}},{"type":"Feature","geometry":{"type":"Polygon","coordinates":[[[-99.2177504,20.1014872],[-99.2179795,20.100508],[-99.2181441,20.1000338],[-99.2159769,20.1002],[-99.2164982,20.0994992],[-99.2166744,20.0992616],[-99.2171258,20.0986689],[-99.2172444,20.0984838],[-99.2174856,20.0985317],[-99.218031,20.0985597],[-99.2185204,20.0985723],[-99.2186868,20.0985816],[-99.2187149,20.098612],[-99.2189386,20.0986344],[-99.219253,20.0986227],[-99.2193809,20.0986166],[-99.2193897,20.0988336],[-99.2198727,20.0988551],[-99.2198418,20.0996507],[-99.2212698,20.0996837],[-99.2213093,20.1004252],[-99.2213934,20.101395],[-99.2213976,20.1014728],[-99.2202392,20.1014414],[-99.2190809,20.1014099],[-99.2191218,20.1019292],[-99.2191724,20.1024583],[-99.219198,20.1030183],[-99.2175322,20.1026451],[-99.217593,20.1023781],[-99.2175198,20.1023673],[-99.2176306,20.1019456],[-99.2177504,20.1014872]]]},"properties":{"locality":"LOMAS DE TLAXCOAPAN","official_key":"1307400010014","CVE_ENT":"13","CVE_MUN":"074","CVE_LOC":"0001","CVE_ASEN":"0014","settlement_type":"FRACCIONAMIENTO","source":"INEGI DCAH 2025"}},{"type":"Feature","geometry":{"type":"Polygon","coordinates":[[[-99.2144693,20.1019435],[-99.2147348,20.1016324],[-99.2149904,20.1013365],[-99.2153296,20.1009457],[-99.2156871,20.1005485],[-99.2159769,20.1002],[-99.2181441,20.1000338],[-99.2179795,20.100508],[-99.2177504,20.1014872],[-99.2176306,20.1019456],[-99.2175198,20.1023673],[-99.217593,20.1023781],[-99.2175322,20.1026451],[-99.216568,20.1024266],[-99.2156038,20.102208],[-99.2146396,20.1019895],[-99.2144693,20.1019435]]]},"properties":{"locality":"MAGISTERIAL","official_key":"1307400010015","CVE_ENT":"13","CVE_MUN":"074","CVE_LOC":"0001","CVE_ASEN":"0015","settlement_type":"COLONIA","source":"INEGI DCAH 2025"}},{"type":"Feature","geometry":{"type":"Polygon","coordinates":[[[-99.2147764,20.0960951],[-99.2156483,20.0954729],[-99.2157221,20.0954289],[-99.216071,20.0951833],[-99.2166355,20.0947847],[-99.2166788,20.0947542],[-99.2167371,20.0947195],[-99.2173487,20.0943438],[-99.2176519,20.0941502],[-99.217914,20.0940003],[-99.218107,20.0938985],[-99.2182681,20.0938185],[-99.2183852,20.0937993],[-99.2186144,20.0937619],[-99.2188118,20.0937327],[-99.2190312,20.0937003],[-99.2194867,20.0936612],[-99.220561,20.0936341],[-99.2207337,20.0944785],[-99.2208025,20.0948325],[-99.2209134,20.0948257],[-99.2209166,20.0949043],[-99.2209103,20.0951801],[-99.2209133,20.0954865],[-99.2209148,20.0955426],[-99.2209157,20.0955714],[-99.2188119,20.0959888],[-99.2188087,20.0959509],[-99.2180125,20.0961101],[-99.217675,20.0961865],[-99.2174537,20.0962366],[-99.2173257,20.0962656],[-99.2173045,20.0963129],[-99.2161585,20.0965602],[-99.2150126,20.0968076],[-99.2138666,20.0970549],[-99.213713,20.097078],[-99.2136984,20.0969727],[-99.2136801,20.0968409],[-99.2138964,20.0967403],[-99.2142999,20.096453],[-99.2147764,20.0960951]]]},"properties":{"locality":"MORELOS","official_key":"1307400010016","CVE_ENT":"13","CVE_MUN":"074","CVE_LOC":"0001","CVE_ASEN":"0016","settlement_type":"COLONIA","source":"INEGI DCAH 2025"}},{"type":"Feature","geometry":{"type":"Polygon","coordinates":[[[-99.2120231,20.0923483],[-99.2131714,20.0922941],[-99.2139056,20.0922495],[-99.2142362,20.0922253],[-99.2157094,20.0921449],[-99.216379,20.0921149],[-99.2164635,20.0921071],[-99.2164495,20.0922574],[-99.2164276,20.0927858],[-99.2164415,20.0930961],[-99.2164681,20.0933714],[-99.2165059,20.0939051],[-99.2165248,20.0942112],[-99.2165458,20.0942986],[-99.2166019,20.0945323],[-99.2166788,20.0947542],[-99.2166355,20.0947847],[-99.216071,20.0951833],[-99.2157221,20.0954289],[-99.2156483,20.0954729],[-99.2152978,20.0948913],[-99.2149259,20.0951756],[-99.2146184,20.095403],[-99.2145894,20.0954259],[-99.2142682,20.095101],[-99.214258,20.0950627],[-99.2139666,20.094764],[-99.2137933,20.0947998],[-99.2135936,20.0947082],[-99.2132695,20.0945904],[-99.2132862,20.0951561],[-99.212171,20.0954118],[-99.2115293,20.0927333],[-99.2117589,20.0925543],[-99.2120231,20.0923483]]]},"properties":{"locality":"EL PANTEÓN","official_key":"1307400010017","CVE_ENT":"13","CVE_MUN":"074","CVE_LOC":"0001","CVE_ASEN":"0017","settlement_type":"COLONIA","source":"INEGI DCAH 2025"}},{"type":"Feature","geometry":{"type":"Polygon","coordinates":[[[-99.2262307,20.0864103],[-99.2262548,20.0863369],[-99.2263702,20.0857111],[-99.2263752,20.0856356],[-99.2264897,20.0849736],[-99.2273519,20.085011],[-99.2274668,20.0850514],[-99.2276261,20.0850653],[-99.2281466,20.085073],[-99.2281701,20.0850733],[-99.2286315,20.0850844],[-99.2289087,20.0850881],[-99.2291604,20.0850926],[-99.2291526,20.0851076],[-99.2287461,20.0858916],[-99.2282011,20.0856837],[-99.2280482,20.085958],[-99.2273627,20.0858603],[-99.2272628,20.0854686],[-99.2268169,20.0853855],[-99.2266713,20.0864438],[-99.2262736,20.0864184],[-99.2262307,20.0864103]]]},"properties":{"locality":"LA PATRICIA","official_key":"1307400010018","CVE_ENT":"13","CVE_MUN":"074","CVE_LOC":"0001","CVE_ASEN":"0018","settlement_type":"COLONIA","source":"INEGI DCAH 2025"}},{"type":"Feature","geometry":{"type":"Polygon","coordinates":[[[-99.2099942,20.0860044],[-99.2108383,20.0856745],[-99.210541,20.0850033],[-99.2122744,20.0843125],[-99.2126664,20.0841462],[-99.2131655,20.0839589],[-99.2140797,20.083587],[-99.2144355,20.0844127],[-99.2145504,20.084374],[-99.2149137,20.0842709],[-99.2153195,20.0841492],[-99.2155309,20.0840955],[-99.2158128,20.0840087],[-99.2162752,20.0838931],[-99.2163201,20.0838831],[-99.2164359,20.0841929],[-99.2164628,20.0846099],[-99.2164889,20.0851472],[-99.216494,20.0852353],[-99.2165228,20.0857435],[-99.2156624,20.0857086],[-99.2146819,20.0856455],[-99.2140462,20.085643],[-99.2136903,20.0856444],[-99.2119469,20.086114],[-99.2118886,20.0855353],[-99.2111463,20.0858476],[-99.2100486,20.0861794],[-99.2099942,20.0860044]]]},"properties":{"locality":"LOS TEPETATES","official_key":"1307400010019","CVE_ENT":"13","CVE_MUN":"074","CVE_LOC":"0001","CVE_ASEN":"0019","settlement_type":"COLONIA","source":"INEGI DCAH 2025"}},{"type":"Feature","geometry":{"type":"Polygon","coordinates":[[[-99.2209166,20.0949043],[-99.2209134,20.0948257],[-99.2208025,20.0948325],[-99.2207337,20.0944785],[-99.220561,20.0936341],[-99.2210666,20.0936286],[-99.2213372,20.0936355],[-99.2213573,20.0936661],[-99.2215478,20.0936984],[-99.2226839,20.0938565],[-99.2232005,20.0939476],[-99.223386,20.0933191],[-99.224173,20.0938155],[-99.2244748,20.0940109],[-99.2250803,20.0944057],[-99.2251523,20.0944821],[-99.2252207,20.0946047],[-99.2248908,20.0946768],[-99.2247737,20.0947097],[-99.2238123,20.0949291],[-99.2229921,20.095118],[-99.2209148,20.0955426],[-99.2209133,20.0954865],[-99.2209103,20.0951801],[-99.2209166,20.0949043]]]},"properties":{"locality":"TLAXCOAPAN","official_key":"1307400010020","CVE_ENT":"13","CVE_MUN":"074","CVE_LOC":"0001","CVE_ASEN":"0020","settlement_type":"COLONIA","source":"INEGI DCAH 2025"}},{"type":"Feature","geometry":{"type":"Polygon","coordinates":[[[-99.2279725,20.0976643],[-99.227964,20.0977668],[-99.2244462,20.0975554],[-99.2244867,20.0972392],[-99.2245262,20.0969574],[-99.228021,20.0971582],[-99.2280169,20.0971978],[-99.2279888,20.0974677],[-99.2279725,20.0976643]]]},"properties":{"locality":"LA VEGA","official_key":"1307400010021","CVE_ENT":"13","CVE_MUN":"074","CVE_LOC":"0001","CVE_ASEN":"0021","settlement_type":"FRACCIONAMIENTO","source":"INEGI DCAH 2025"}},{"type":"Feature","geometry":{"type":"Polygon","coordinates":[[[-99.2150845,20.1001331],[-99.2150848,20.1001326],[-99.2150852,20.1001322],[-99.2155713,20.099553],[-99.2157277,20.0993981],[-99.2158793,20.0994232],[-99.2158683,20.0991949],[-99.2157841,20.0974487],[-99.2157841,20.0974483],[-99.2136464,20.0973073],[-99.2133107,20.0972827],[-99.2133102,20.0972826],[-99.2133725,20.0971304],[-99.2133727,20.0971297],[-99.213713,20.097078],[-99.2138666,20.0970549],[-99.2150126,20.0968076],[-99.2161585,20.0965602],[-99.2173045,20.0963129],[-99.2173257,20.0962656],[-99.2174537,20.0962366],[-99.217675,20.0961865],[-99.2180125,20.0961101],[-99.2188087,20.0959509],[-99.2188119,20.0959888],[-99.2209157,20.0955714],[-99.2209148,20.0955426],[-99.2209207,20.0956457],[-99.2209291,20.0958266],[-99.2209378,20.0958871],[-99.2209656,20.0959668],[-99.2210025,20.0961748],[-99.221016,20.0962671],[-99.2210648,20.0965555],[-99.2210819,20.0966763],[-99.2211184,20.0968555],[-99.221126,20.0970986],[-99.2211456,20.0972853],[-99.2211553,20.0973635],[-99.2211679,20.0976968],[-99.2211778,20.0978464],[-99.2211902,20.0980712],[-99.2212124,20.0984006],[-99.2212278,20.0987423],[-99.2212595,20.0992442],[-99.2212698,20.0996837],[-99.2198418,20.0996507],[-99.2198727,20.0988551],[-99.2193897,20.0988336],[-99.2193809,20.0986166],[-99.219253,20.0986227],[-99.2189386,20.0986344],[-99.2187149,20.098612],[-99.2186868,20.0985816],[-99.2185204,20.0985723],[-99.218031,20.0985597],[-99.2174856,20.0985317],[-99.2172444,20.0984838],[-99.2171258,20.0986689],[-99.2166744,20.0992616],[-99.2164982,20.0994992],[-99.2159769,20.1002],[-99.2156871,20.1005485],[-99.2150845,20.1001331]]]},"properties":{"locality":"TLAXCOAPAN","official_key":"1307400010022","CVE_ENT":"13","CVE_MUN":"074","CVE_LOC":"0001","CVE_ASEN":"0022","settlement_type":"BARRIO","source":"INEGI DCAH 2025"}},{"type":"Feature","geometry":{"type":"Polygon","coordinates":[[[-99.2279387,20.0980714],[-99.227964,20.0977668],[-99.2279725,20.0976643],[-99.2279888,20.0974677],[-99.2280169,20.0971978],[-99.228021,20.0971582],[-99.2245262,20.0969574],[-99.2245792,20.0965795],[-99.2252326,20.0966094],[-99.2257977,20.096636],[-99.2263747,20.0966686],[-99.2269534,20.0967022],[-99.2275052,20.0967208],[-99.2280629,20.0967548],[-99.2280916,20.0964843],[-99.2281055,20.0961854],[-99.2280601,20.0961835],[-99.2275567,20.0961673],[-99.2269831,20.0961367],[-99.2264095,20.0961046],[-99.2258465,20.0960724],[-99.2252697,20.0960374],[-99.224659,20.0960097],[-99.2246632,20.0958453],[-99.2247062,20.0954423],[-99.2247578,20.0949818],[-99.2247653,20.0948541],[-99.2247737,20.0947097],[-99.2248908,20.0946768],[-99.2253817,20.0947561],[-99.2259234,20.094803],[-99.2264295,20.0948283],[-99.227373,20.0948936],[-99.2277364,20.0949188],[-99.2279184,20.0949156],[-99.2281295,20.0949255],[-99.2281378,20.094591],[-99.2281469,20.0941788],[-99.2281468,20.0939927],[-99.2279085,20.0940427],[-99.2276419,20.0941052],[-99.2275909,20.0940981],[-99.2274557,20.0941088],[-99.2273757,20.0941161],[-99.2270648,20.0941239],[-99.2267524,20.0941051],[-99.2261417,20.0942594],[-99.2256221,20.0943816],[-99.2255834,20.0943907],[-99.2253119,20.094454],[-99.2251523,20.0944821],[-99.2250803,20.0944057],[-99.2244748,20.0940109],[-99.224173,20.0938155],[-99.2241804,20.0935459],[-99.2243219,20.093537],[-99.2243314,20.0930504],[-99.2244407,20.0930459],[-99.2244176,20.0927721],[-99.2246593,20.0927862],[-99.2246577,20.0928659],[-99.2246541,20.0930601],[-99.2250423,20.0930861],[-99.2253393,20.0930733],[-99.2254435,20.0925342],[-99.2261065,20.0925444],[-99.2282818,20.0925778],[-99.2282876,20.0925104],[-99.2283285,20.0920368],[-99.2283868,20.0913623],[-99.2285623,20.0891983],[-99.2261449,20.08911],[-99.2259872,20.0891058],[-99.2256871,20.0879256],[-99.2255899,20.0873125],[-99.225754,20.0868385],[-99.2257728,20.0868139],[-99.2258241,20.086788],[-99.2259278,20.086788],[-99.2260174,20.0867743],[-99.2260787,20.0867562],[-99.2261804,20.0865546],[-99.2262307,20.0864103],[-99.2262736,20.0864184],[-99.2266713,20.0864438],[-99.2269882,20.0864641],[-99.2276638,20.0865143],[-99.2281254,20.0865489],[-99.2285773,20.0865943],[-99.2287444,20.0866111],[-99.2294344,20.08509],[-99.229602,20.0845965],[-99.2287036,20.0845251],[-99.2288413,20.0826225],[-99.2296114,20.0825689],[-99.2300392,20.0824349],[-99.2300183,20.0818913],[-99.2299942,20.0812643],[-99.2302528,20.0812491],[-99.230436,20.0812363],[-99.230426,20.0809237],[-99.2310636,20.0808831],[-99.2312713,20.0808739],[-99.2313003,20.0808726],[-99.231485,20.0808338],[-99.2314859,20.0808336],[-99.2314861,20.0808336],[-99.2314861,20.080834],[-99.231476,20.0812524],[-99.2318352,20.0817335],[-99.2322324,20.0823927],[-99.2323658,20.0832842],[-99.2323095,20.0845335],[-99.2325725,20.0850549],[-99.2327663,20.08542],[-99.2329413,20.0858535],[-99.2328107,20.086245],[-99.2329561,20.0865514],[-99.2330325,20.0868709],[-99.2328719,20.0871867],[-99.2327895,20.0874673],[-99.2328521,20.0877738],[-99.2331576,20.088154],[-99.2328061,20.0885002],[-99.2325442,20.0887745],[-99.232255,20.0887749],[-99.2322544,20.0887749],[-99.2319438,20.0888014],[-99.2317017,20.0890581],[-99.2316952,20.0893321],[-99.2318543,20.0895341],[-99.2318544,20.0895341],[-99.2321995,20.0897162],[-99.2321996,20.0897163],[-99.2327683,20.0900228],[-99.2327684,20.0900229],[-99.2330863,20.0902964],[-99.2330864,20.0902965],[-99.2331833,20.0905116],[-99.2331422,20.0907268],[-99.2330519,20.0911033],[-99.2329486,20.0913694],[-99.232961,20.0915479],[-99.2329845,20.0918859],[-99.2331996,20.092245],[-99.2334959,20.0926169],[-99.2336251,20.092852],[-99.2337738,20.0931226],[-99.2339828,20.0934643],[-99.2340923,20.09384],[-99.2338181,20.0940547],[-99.2335557,20.0942017],[-99.2335203,20.0944612],[-99.2336163,20.0947994],[-99.2337601,20.0951714],[-99.2338572,20.0956381],[-99.2338222,20.096236],[-99.2337872,20.0964655],[-99.233737,20.0967943],[-99.2337437,20.0971866],[-99.2337387,20.0974155],[-99.2337054,20.0975696],[-99.2337035,20.0977721],[-99.2337488,20.0981106],[-99.2338171,20.0983194],[-99.2338172,20.0983196],[-99.2339017,20.0985273],[-99.2339773,20.0990224],[-99.233979,20.0993848],[-99.2340253,20.1003789],[-99.2340274,20.1010247],[-99.2343918,20.1014984],[-99.2346009,20.1018853],[-99.2346224,20.1021465],[-99.2346029,20.103028],[-99.2345834,20.1039095],[-99.2334601,20.1038702],[-99.2319485,20.1038521],[-99.2313729,20.103804],[-99.2313726,20.103804],[-99.2313098,20.1025615],[-99.2313053,20.1015647],[-99.2312977,20.1006986],[-99.2313,20.1003003],[-99.2313028,20.099818],[-99.2312893,20.0990587],[-99.2312854,20.0985537],[-99.2312719,20.0981748],[-99.2312718,20.0981744],[-99.2312454,20.0981736],[-99.2302303,20.0981434],[-99.2291887,20.0981124],[-99.2279914,20.0980732],[-99.2279387,20.0980714]]]},"properties":{"locality":"NINGUNO","official_key":"1307400010023","CVE_ENT":"13","CVE_MUN":"074","CVE_LOC":"0001","CVE_ASEN":"0023","settlement_type":"NINGUNO","source":"INEGI DCAH 2025"}},{"type":"Feature","geometry":{"type":"Polygon","coordinates":[[[-99.2135267,20.1011542],[-99.2133961,20.1004962],[-99.2145791,20.1007353],[-99.2150845,20.1001331],[-99.2156871,20.1005485],[-99.2153296,20.1009457],[-99.2149904,20.1013365],[-99.2147348,20.1016324],[-99.2144693,20.1019435],[-99.2136002,20.1028888],[-99.2126,20.1021449],[-99.2125996,20.1021446],[-99.2133613,20.1012289],[-99.2135267,20.1011542]]]},"properties":{"locality":"NINGUNO","official_key":"1307400010024","CVE_ENT":"13","CVE_MUN":"074","CVE_LOC":"0001","CVE_ASEN":"0024","settlement_type":"NINGUNO","source":"INEGI DCAH 2025"}},{"type":"Feature","geometry":{"type":"Polygon","coordinates":[[[-99.2084518,20.0926519],[-99.2094277,20.0925692],[-99.2096922,20.0925468],[-99.2097364,20.0925436],[-99.2106648,20.0924733],[-99.2113299,20.0924103],[-99.2114297,20.0923999],[-99.2117468,20.0923665],[-99.2120231,20.0923483],[-99.2117589,20.0925543],[-99.2115293,20.0927333],[-99.212171,20.0954118],[-99.2132862,20.0951561],[-99.2132953,20.0954671],[-99.213366,20.0969207],[-99.2136801,20.0968409],[-99.2136984,20.0969727],[-99.213713,20.097078],[-99.2133727,20.0971297],[-99.2131424,20.0972218],[-99.2118642,20.0975165],[-99.2111461,20.0976347],[-99.2107753,20.095839],[-99.2103387,20.0938931],[-99.2098215,20.0944208],[-99.2096562,20.0939749],[-99.209137,20.0941236],[-99.2084518,20.0926519]]]},"properties":{"locality":"NINGUNO","official_key":"1307400010025","CVE_ENT":"13","CVE_MUN":"074","CVE_LOC":"0001","CVE_ASEN":"0025","settlement_type":"NINGUNO","source":"INEGI DCAH 2025"}},{"type":"Feature","geometry":{"type":"Polygon","coordinates":[[[-99.209822,20.0854598],[-99.2097219,20.085141],[-99.2095204,20.0846834],[-99.2095106,20.084661],[-99.2094941,20.0846236],[-99.2094205,20.0845057],[-99.2093468,20.0843878],[-99.2091446,20.0841443],[-99.2086656,20.0836749],[-99.207955,20.0830974],[-99.2074106,20.0826566],[-99.2084508,20.0823667],[-99.2094911,20.0820768],[-99.2105313,20.0817869],[-99.2105702,20.0818291],[-99.2108875,20.0817592],[-99.2117247,20.0815692],[-99.2127043,20.0812871],[-99.2136488,20.0810313],[-99.2136943,20.0810252],[-99.2148855,20.0807029],[-99.2149603,20.080684],[-99.2155897,20.0805125],[-99.2162793,20.0803303],[-99.2162851,20.0803273],[-99.2166847,20.0802281],[-99.2167714,20.0802108],[-99.2169702,20.0801536],[-99.2177055,20.0799572],[-99.2181976,20.0798322],[-99.2189302,20.0831432],[-99.2185488,20.0832577],[-99.2181099,20.0833753],[-99.2176807,20.0834904],[-99.2170352,20.0836837],[-99.2164201,20.0838548],[-99.216347,20.0838752],[-99.2163201,20.0838831],[-99.2162752,20.0838931],[-99.2158128,20.0840087],[-99.2155309,20.0840955],[-99.2153195,20.0841492],[-99.2149137,20.0842709],[-99.2145504,20.084374],[-99.2144355,20.0844127],[-99.2140797,20.083587],[-99.2131655,20.0839589],[-99.2126664,20.0841462],[-99.2122744,20.0843125],[-99.210541,20.0850033],[-99.2108383,20.0856745],[-99.2099942,20.0860044],[-99.2099499,20.0858622],[-99.209822,20.0854598]]]},"properties":{"locality":"TLAXCOAPAN","official_key":"1307400010026","CVE_ENT":"13","CVE_MUN":"074","CVE_LOC":"0001","CVE_ASEN":"0026","settlement_type":"EJIDO","source":"INEGI DCAH 2025"}},{"type":"Feature","geometry":{"type":"Polygon","coordinates":[[[-99.2248908,20.0946768],[-99.2252207,20.0946047],[-99.2251523,20.0944821],[-99.2253119,20.094454],[-99.2255834,20.0943907],[-99.2256221,20.0943816],[-99.2261417,20.0942594],[-99.2267524,20.0941051],[-99.2270648,20.0941239],[-99.2273757,20.0941161],[-99.2274557,20.0941088],[-99.2275909,20.0940981],[-99.2276419,20.0941052],[-99.2279085,20.0940427],[-99.2281468,20.0939927],[-99.2281469,20.0941788],[-99.2281378,20.094591],[-99.2281295,20.0949255],[-99.2279184,20.0949156],[-99.2277364,20.0949188],[-99.227373,20.0948936],[-99.2264295,20.0948283],[-99.2259234,20.094803],[-99.2253817,20.0947561],[-99.2248908,20.0946768]]]},"properties":{"locality":"VILLAS JARDÍN","official_key":"1307400010027","CVE_ENT":"13","CVE_MUN":"074","CVE_LOC":"0001","CVE_ASEN":"0027","settlement_type":"FRACCIONAMIENTO","source":"INEGI DCAH 2025"}},{"type":"Feature","geometry":{"type":"Polygon","coordinates":[[[-99.2266713,20.0864438],[-99.2268169,20.0853855],[-99.2272628,20.0854686],[-99.2273627,20.0858603],[-99.2280482,20.085958],[-99.2282011,20.0856837],[-99.2287461,20.0858916],[-99.2291526,20.0851076],[-99.2291604,20.0850926],[-99.2294344,20.08509],[-99.2287444,20.0866111],[-99.2285773,20.0865943],[-99.2281254,20.0865489],[-99.2276638,20.0865143],[-99.2269882,20.0864641],[-99.2266713,20.0864438]]]},"properties":{"locality":"LA CUCHILLA","official_key":"1307400010028","CVE_ENT":"13","CVE_MUN":"074","CVE_LOC":"0001","CVE_ASEN":"0028","settlement_type":"FRACCIONAMIENTO","source":"INEGI DCAH 2025"}},{"type":"Feature","geometry":{"type":"Polygon","coordinates":[[[-99.2176251,20.0866371],[-99.2175683,20.0863653],[-99.219593,20.0864676],[-99.2195978,20.0865819],[-99.2197404,20.0865882],[-99.2197404,20.0866115],[-99.2197356,20.0869045],[-99.2197307,20.0871098],[-99.2197221,20.0874916],[-99.2197011,20.0874926],[-99.2178698,20.0875821],[-99.2178584,20.087351],[-99.2178267,20.0867128],[-99.2177007,20.0866655],[-99.2176251,20.0866371]]]},"properties":{"locality":"LA ERA","official_key":"1307400010029","CVE_ENT":"13","CVE_MUN":"074","CVE_LOC":"0001","CVE_ASEN":"0029","settlement_type":"FRACCIONAMIENTO","source":"INEGI DCAH 2025"}},{"type":"Feature","geometry":{"type":"Polygon","coordinates":[[[-99.2174012,20.0857303],[-99.2174012,20.0857302],[-99.2174019,20.0857303],[-99.2185385,20.085852],[-99.2195929,20.0859775],[-99.2195848,20.0860467],[-99.219569,20.0862765],[-99.2195779,20.0863038],[-99.2195879,20.0863453],[-99.219593,20.0864676],[-99.2175683,20.0863653],[-99.2174107,20.0857666],[-99.2174012,20.0857303]]]},"properties":{"locality":"PRIMERO DE MAYO","official_key":"1307400010030","CVE_ENT":"13","CVE_MUN":"074","CVE_LOC":"0001","CVE_ASEN":"0030","settlement_type":"COLONIA","source":"INEGI DCAH 2025"}},{"type":"Feature","geometry":{"type":"Polygon","coordinates":[[[-99.2181976,20.0798322],[-99.2191415,20.0795924],[-99.2191843,20.0795815],[-99.2191843,20.079582],[-99.2192466,20.0799422],[-99.2192461,20.0799462],[-99.2192423,20.079982],[-99.2192239,20.0801533],[-99.2192238,20.0801537],[-99.2192177,20.0802111],[-99.2192178,20.0802144],[-99.2192412,20.0807316],[-99.2192554,20.0809982],[-99.2192689,20.081252],[-99.2192879,20.0815661],[-99.2193163,20.0820341],[-99.2193352,20.0823463],[-99.2193433,20.0824784],[-99.2193436,20.0824783],[-99.2193676,20.0824683],[-99.2193684,20.082468],[-99.2193684,20.0824685],[-99.2193925,20.0827818],[-99.2194127,20.0830107],[-99.2194133,20.0830178],[-99.2189302,20.0831432],[-99.2181976,20.0798322]]]},"properties":{"locality":"EL RAYO","official_key":"1307400010031","CVE_ENT":"13","CVE_MUN":"074","CVE_LOC":"0001","CVE_ASEN":"0031","settlement_type":"FRACCIONAMIENTO","source":"INEGI DCAH 2025"}},{"type":"Feature","geometry":{"type":"Polygon","coordinates":[[[-99.2245792,20.0965795],[-99.2246159,20.0962894],[-99.224659,20.0960097],[-99.2252697,20.0960374],[-99.2258465,20.0960724],[-99.2264095,20.0961046],[-99.2269831,20.0961367],[-99.2275567,20.0961673],[-99.2280601,20.0961835],[-99.2281055,20.0961854],[-99.2280916,20.0964843],[-99.2280629,20.0967548],[-99.2275052,20.0967208],[-99.2269534,20.0967022],[-99.2263747,20.0966686],[-99.2257977,20.096636],[-99.2252326,20.0966094],[-99.2245792,20.0965795]]]},"properties":{"locality":"VALLE SAN PEDRO","official_key":"1307400010032","CVE_ENT":"13","CVE_MUN":"074","CVE_LOC":"0001","CVE_ASEN":"0032","settlement_type":"FRACCIONAMIENTO","source":"INEGI DCAH 2025"}},{"type":"Feature","geometry":{"type":"Polygon","coordinates":[[[-99.2362936,20.0916083],[-99.2360389,20.0907928],[-99.2365618,20.0905796],[-99.2365975,20.0908754],[-99.2386103,20.0908299],[-99.2386167,20.0916361],[-99.2362936,20.0916083]]]},"properties":{"locality":"CAMPESTRE","official_key":"1307400020001","CVE_ENT":"13","CVE_MUN":"074","CVE_LOC":"0002","CVE_ASEN":"0001","settlement_type":"COLONIA","source":"INEGI DCAH 2025"}},{"type":"Feature","geometry":{"type":"Polygon","coordinates":[[[-99.2423345,20.0994361],[-99.2423344,20.0994359],[-99.2421971,20.0994952],[-99.2420477,20.0995774],[-99.2419329,20.0996161],[-99.241746,20.0996164],[-99.2417454,20.0996164],[-99.24143,20.0996068],[-99.2414294,20.0996068],[-99.2405725,20.0995762],[-99.2405719,20.0995762],[-99.2398179,20.0995348],[-99.2390616,20.0995272],[-99.2390609,20.0995272],[-99.2382088,20.0994945],[-99.2382082,20.0994944],[-99.2370984,20.0994547],[-99.2370978,20.0994547],[-99.2370978,20.0994547],[-99.2370763,20.099407],[-99.2370762,20.099407],[-99.2367416,20.0993969],[-99.236741,20.0993969],[-99.2364229,20.0993958],[-99.2364222,20.0993957],[-99.2357076,20.0993771],[-99.2357069,20.0993771],[-99.2354113,20.0993729],[-99.2354112,20.0993729],[-99.2354107,20.0993729],[-99.2352734,20.0993671],[-99.2352733,20.099367],[-99.2352668,20.0992705],[-99.2352763,20.0992056],[-99.2353703,20.0990787],[-99.235613,20.0988456],[-99.2358717,20.0986075],[-99.2362058,20.0983018],[-99.2361177,20.0982305],[-99.2361177,20.0982305],[-99.2361176,20.0982305],[-99.2345258,20.0982674],[-99.2338816,20.0982704],[-99.2338788,20.0982704],[-99.2338177,20.0983192],[-99.2338174,20.0983194],[-99.2338172,20.0983196],[-99.2338171,20.0983194],[-99.2337488,20.0981106],[-99.2337035,20.0977721],[-99.2337054,20.0975696],[-99.2337387,20.0974155],[-99.2337437,20.0971866],[-99.233737,20.0967943],[-99.2337872,20.0964655],[-99.2338222,20.096236],[-99.2338572,20.0956381],[-99.2337601,20.0951714],[-99.2336163,20.0947994],[-99.2335203,20.0944612],[-99.2335557,20.0942017],[-99.2338181,20.0940547],[-99.2340923,20.09384],[-99.2339828,20.0934643],[-99.2337738,20.0931226],[-99.2336251,20.092852],[-99.2334959,20.0926169],[-99.2331996,20.092245],[-99.2329845,20.0918859],[-99.232961,20.0915479],[-99.2329486,20.0913694],[-99.2330519,20.0911033],[-99.2331422,20.0907268],[-99.2331833,20.0905116],[-99.2330864,20.0902965],[-99.2330863,20.0902964],[-99.2327684,20.0900229],[-99.2327683,20.0900228],[-99.2321996,20.0897163],[-99.2321995,20.0897162],[-99.2318544,20.0895341],[-99.2318543,20.0895341],[-99.2316952,20.0893321],[-99.2317017,20.0890581],[-99.2319438,20.0888014],[-99.2322544,20.0887749],[-99.232255,20.0887749],[-99.2325442,20.0887745],[-99.2328061,20.0885002],[-99.2331576,20.088154],[-99.2328521,20.0877738],[-99.2327895,20.0874673],[-99.2328719,20.0871867],[-99.2330325,20.0868709],[-99.2329561,20.0865514],[-99.2328107,20.086245],[-99.2329413,20.0858535],[-99.2327663,20.08542],[-99.2325725,20.0850549],[-99.2323095,20.0845335],[-99.2323658,20.0832842],[-99.2322324,20.0823927],[-99.2318352,20.0817335],[-99.231476,20.0812524],[-99.2314861,20.080834],[-99.2314861,20.0808336],[-99.2314738,20.0807632],[-99.2314496,20.0806244],[-99.2314459,20.0806029],[-99.2314322,20.0805679],[-99.2313809,20.080437],[-99.231393,20.0803056],[-99.2314053,20.0801946],[-99.2315086,20.0801474],[-99.2317153,20.080117],[-99.2320335,20.0800812],[-99.2323642,20.080036],[-99.2323642,20.080036],[-99.2329474,20.0799518],[-99.232982,20.0799468],[-99.2334525,20.0798835],[-99.2344647,20.0797451],[-99.2352048,20.0796427],[-99.2355468,20.0795976],[-99.2364746,20.0794734],[-99.2370137,20.0794031],[-99.2379726,20.0792704],[-99.2389314,20.0791377],[-99.2390592,20.0791202],[-99.2396201,20.079041],[-99.2402685,20.078937],[-99.240481,20.0789087],[-99.2407098,20.0788837],[-99.2408666,20.0788628],[-99.2410842,20.0788325],[-99.2414361,20.0787727],[-99.241504,20.078758],[-99.2415041,20.0787579],[-99.2416436,20.0787277],[-99.2418333,20.0787047],[-99.2419036,20.0786792],[-99.24189,20.0786119],[-99.2418658,20.078538],[-99.241818,20.0784458],[-99.2417549,20.0783179],[-99.2417412,20.0782617],[-99.2417522,20.0782168],[-99.2417869,20.0781774],[-99.2417874,20.0781776],[-99.2502811,20.0828317],[-99.2500856,20.0835454],[-99.2499941,20.083981],[-99.2498653,20.0846567],[-99.2497474,20.0853498],[-99.2496126,20.0860675],[-99.2496409,20.0866201],[-99.2515307,20.0866469],[-99.2556796,20.0867054],[-99.2558129,20.0880821],[-99.2490387,20.0896838],[-99.2491172,20.0899617],[-99.2491312,20.0901246],[-99.2491288,20.0903402],[-99.2490886,20.0907965],[-99.2490156,20.0916573],[-99.248931,20.0927091],[-99.2488931,20.0929267],[-99.24886,20.0935062],[-99.248858,20.0935414],[-99.2490286,20.0938966],[-99.2491738,20.0942152],[-99.2492947,20.0942961],[-99.2495712,20.0943452],[-99.2498078,20.0943734],[-99.249836,20.0943767],[-99.2500521,20.0944154],[-99.2502286,20.0944946],[-99.2503162,20.0946085],[-99.2505571,20.0949362],[-99.2506638,20.0951355],[-99.2506959,20.0952414],[-99.2506643,20.0953449],[-99.2505596,20.0954275],[-99.2504072,20.0955042],[-99.2502132,20.0956703],[-99.2500087,20.095903],[-99.2496165,20.0963381],[-99.2493453,20.0966369],[-99.2488726,20.0971715],[-99.2481219,20.098001],[-99.2478308,20.0983287],[-99.2471386,20.0991054],[-99.2469104,20.0993545],[-99.246617,20.0997134],[-99.2466167,20.0997139],[-99.2465276,20.0995758],[-99.2460707,20.0994756],[-99.24607,20.0994754],[-99.2461047,20.0995699],[-99.2462019,20.0997244],[-99.2451437,20.1002956],[-99.2442269,20.1007761],[-99.2434644,20.1012173],[-99.2432183,20.1013458],[-99.2432178,20.1013461],[-99.2426722,20.1003269],[-99.2424563,20.0998491],[-99.2423609,20.0995444],[-99.2423345,20.0994361]],[[-99.2386167,20.0916361],[-99.2386103,20.0908299],[-99.2365975,20.0908754],[-99.2365618,20.0905796],[-99.2360389,20.0907928],[-99.2362936,20.0916083],[-99.2386167,20.0916361]]]},"properties":{"locality":"DOXEY","official_key":"1307400020002","CVE_ENT":"13","CVE_MUN":"074","CVE_LOC":"0002","CVE_ASEN":"0002","settlement_type":"COLONIA","source":"INEGI DCAH 2025"}},{"type":"Feature","geometry":{"type":"Polygon","coordinates":[[[-99.1955638,20.1131936],[-99.1970539,20.1128064],[-99.1970663,20.1129064],[-99.196985,20.113373],[-99.1969232,20.1136782],[-99.1968814,20.1139382],[-99.196773,20.1145133],[-99.1967024,20.1149063],[-99.1966696,20.1150669],[-99.196574,20.1156358],[-99.1962825,20.1157008],[-99.1964278,20.1162081],[-99.1954327,20.1164731],[-99.1944036,20.1167297],[-99.1942913,20.1170768],[-99.1941351,20.117336],[-99.1937487,20.1174237],[-99.1931535,20.1175848],[-99.192002,20.117893],[-99.1914524,20.1180415],[-99.1906028,20.1173357],[-99.1906029,20.117282],[-99.1904018,20.1167328],[-99.1919849,20.1160531],[-99.1929211,20.1157157],[-99.1933866,20.1155503],[-99.1939896,20.1153456],[-99.1939231,20.1152224],[-99.1938998,20.1151798],[-99.1937288,20.114751],[-99.1936158,20.1145033],[-99.1935325,20.1142562],[-99.1933382,20.113772],[-99.1945723,20.1134513],[-99.1952864,20.1132657],[-99.1955638,20.1131936]]]},"properties":{"locality":"LA CRUZ","official_key":"1307400030001","CVE_ENT":"13","CVE_MUN":"074","CVE_LOC":"0003","CVE_ASEN":"0001","settlement_type":"COLONIA","source":"INEGI DCAH 2025"}},{"type":"Feature","geometry":{"type":"Polygon","coordinates":[[[-99.1949286,20.1217711],[-99.1948631,20.1212221],[-99.1945405,20.1211649],[-99.1941944,20.1210422],[-99.1941935,20.1210377],[-99.1941133,20.1206527],[-99.1940133,20.1198093],[-99.1940131,20.1198071],[-99.1930345,20.1199144],[-99.1924216,20.1199651],[-99.1921451,20.1203612],[-99.1918777,20.1204819],[-99.1905278,20.1206882],[-99.1891037,20.1209533],[-99.1879369,20.1194435],[-99.1867688,20.1179472],[-99.1887161,20.1180628],[-99.1887778,20.1179177],[-99.1875264,20.1146233],[-99.1871284,20.1138183],[-99.1888921,20.1130243],[-99.1893581,20.1127978],[-99.190085,20.1124883],[-99.190842,20.112172],[-99.1915964,20.1118719],[-99.1923833,20.1115506],[-99.192452,20.1115269],[-99.1924938,20.1115125],[-99.1929294,20.1113553],[-99.1937314,20.1110411],[-99.1942799,20.1108364],[-99.1950671,20.1106645],[-99.1957007,20.1105116],[-99.1958755,20.1097412],[-99.1958982,20.1095628],[-99.1967014,20.1095847],[-99.1977407,20.1096237],[-99.1985739,20.1096567],[-99.1988978,20.1096645],[-99.1989919,20.1096668],[-99.2000246,20.1097037],[-99.2007053,20.1097114],[-99.2010216,20.1097365],[-99.2013145,20.1098058],[-99.2020484,20.1100194],[-99.2028353,20.1102489],[-99.202971,20.1102855],[-99.2032191,20.1103523],[-99.2039504,20.1105123],[-99.2042614,20.1105647],[-99.2047818,20.1107059],[-99.2048746,20.1107417],[-99.2049675,20.1107775],[-99.2052102,20.110951],[-99.2052113,20.1109524],[-99.205423,20.1112021],[-99.2055313,20.111408],[-99.2055694,20.1115093],[-99.2056078,20.1117711],[-99.2056171,20.1120042],[-99.2055704,20.112245],[-99.2054003,20.1126475],[-99.2052074,20.113044],[-99.2051519,20.113158],[-99.2049802,20.1135805],[-99.2049647,20.1137241],[-99.2049584,20.1140043],[-99.2049586,20.1141753],[-99.2050308,20.1147087],[-99.2050766,20.1151692],[-99.2050654,20.1152869],[-99.2050361,20.1154003],[-99.2048292,20.1156559],[-99.2045017,20.1160452],[-99.2044422,20.1161796],[-99.2044519,20.1167056],[-99.2044576,20.1168237],[-99.2044057,20.1168089],[-99.2044493,20.1170108],[-99.2044686,20.1171002],[-99.2044757,20.117133],[-99.2044899,20.1171989],[-99.2045989,20.1177034],[-99.2046439,20.1179118],[-99.2047103,20.1182187],[-99.2049657,20.119401],[-99.2051355,20.1201867],[-99.2051676,20.1202535],[-99.2052695,20.1204652],[-99.2054223,20.1207824],[-99.2055446,20.1210364],[-99.2056121,20.1213057],[-99.2054795,20.1212926],[-99.2054781,20.1212925],[-99.2054779,20.1212926],[-99.2054213,20.1213343],[-99.2053973,20.121352],[-99.2052492,20.1214263],[-99.2048685,20.1215159],[-99.2040208,20.1217378],[-99.2038398,20.121772],[-99.2035882,20.1217193],[-99.2033757,20.1216914],[-99.2033478,20.1216877],[-99.2030661,20.121669],[-99.2028842,20.1216967],[-99.2026988,20.1217757],[-99.2019299,20.1221799],[-99.2017525,20.1222395],[-99.2015042,20.1222228],[-99.2012391,20.1222188],[-99.201138,20.1221935],[-99.2010091,20.1221188],[-99.2009022,20.1220342],[-99.2007978,20.1219516],[-99.2007191,20.1218753],[-99.2006246,20.1217419],[-99.2005544,20.1216512],[-99.2005535,20.12165],[-99.2003556,20.1215145],[-99.2001747,20.1214533],[-99.200131,20.1214385],[-99.19994,20.1214133],[-99.1997132,20.1214178],[-99.1995671,20.1214334],[-99.1993434,20.1215675],[-99.1989221,20.1216723],[-99.1986702,20.1216408],[-99.1982656,20.1214655],[-99.1982227,20.1214556],[-99.1980368,20.1214126],[-99.197811,20.1214585],[-99.1977002,20.1215343],[-99.1976907,20.1215511],[-99.1975129,20.1218661],[-99.1974871,20.1219169],[-99.197327,20.1222327],[-99.1972125,20.1222817],[-99.1967491,20.1223455],[-99.1966189,20.122346],[-99.1964552,20.1222612],[-99.1962727,20.1220632],[-99.1962395,20.122054],[-99.1960388,20.1219982],[-99.1959447,20.1219366],[-99.195851,20.1218752],[-99.1955658,20.1217902],[-99.1949286,20.1217711]],[[-99.1944036,20.1167297],[-99.1954327,20.1164731],[-99.1964278,20.1162081],[-99.1962825,20.1157008],[-99.196574,20.1156358],[-99.1966696,20.1150669],[-99.1967024,20.1149063],[-99.196773,20.1145133],[-99.1968814,20.1139382],[-99.1969232,20.1136782],[-99.196985,20.113373],[-99.1970663,20.1129064],[-99.1970539,20.1128064],[-99.1955638,20.1131936],[-99.1952864,20.1132657],[-99.1945723,20.1134513],[-99.1933382,20.113772],[-99.1935325,20.1142562],[-99.1936158,20.1145033],[-99.1937288,20.114751],[-99.1938998,20.1151798],[-99.1939231,20.1152224],[-99.1939896,20.1153456],[-99.1933866,20.1155503],[-99.1929211,20.1157157],[-99.1919849,20.1160531],[-99.1904018,20.1167328],[-99.1906029,20.117282],[-99.1906028,20.1173357],[-99.1914524,20.1180415],[-99.192002,20.117893],[-99.1931535,20.1175848],[-99.1937487,20.1174237],[-99.1941351,20.117336],[-99.1942913,20.1170768],[-99.1944036,20.1167297]]]},"properties":{"locality":"TELTIPÁN","official_key":"1307400030002","CVE_ENT":"13","CVE_MUN":"074","CVE_LOC":"0003","CVE_ASEN":"0002","settlement_type":"NINGUNO","source":"INEGI DCAH 2025"}}]}