{"type":"FeatureCollection","name":"inegi-hidalgo-075","metadata":{"state":"Hidalgo","CVE_ENT":"13","CVE_MUN":"075","municipality":"Tolcayuca","sources":["INEGI Gaia — Servicio vectorial del Marco Geoestadístico","INEGI DCAH 2025"],"source_urls":["https://gaia.inegi.org.mx/wscatgeo/v2/geo/mgem/13","https://gaia.inegi.org.mx/wscatgeo/v2/geo/localidades/pol/13/075","https://www.inegi.org.mx/contenidos/productos/prod_serv/contenidos/espanol/bvinegi/productos/geografia/delimitaciones/794551163078/13_hidalgo.zip"],"geometry_policy":"Solo se publican polígonos de INEGI; no se generan puntos ni geometrías sintéticas.","locality_polygon_count":9,"settlement_polygon_count":23},"municipality":{"type":"Feature","geometry":{"type":"MultiPolygon","crs":{"type":"name","properties":{"name":"EPSG:6365"}},"coordinates":[[[[-98.936121659,20.052989171],[-98.935239,20.052940781],[-98.93414162,20.04775032],[-98.932412349,20.04332645],[-98.932641969,20.040727661],[-98.932332059,20.040649421],[-98.93157577,20.04080128],[-98.93044034,20.04098582],[-98.930068249,20.04134848],[-98.92954729,20.04199198],[-98.929014059,20.04231948],[-98.927820379,20.04260289],[-98.92718798,20.04291863],[-98.92665482,20.043129081],[-98.926245509,20.043526831],[-98.92555272,20.043802881],[-98.924498709,20.044317381],[-98.92303423,20.04508922],[-98.921385149,20.045533231],[-98.91967402,20.04610594],[-98.91881117,20.04656005],[-98.918267819,20.04743115],[-98.917303,20.04861677],[-98.916076289,20.04775192],[-98.915013479,20.04697711],[-98.915293919,20.0469572],[-98.916163179,20.04697049],[-98.91648771,20.04685718],[-98.91694452,20.04655114],[-98.91700483,20.04627891],[-98.917758949,20.04616205],[-98.91804597,20.04584871],[-98.91843862,20.04559234],[-98.918937059,20.04505109],[-98.91917894,20.044409881],[-98.91913438,20.043141351],[-98.919014119,20.04205754],[-98.91875771,20.04168686],[-98.918440769,20.041430231],[-98.918440969,20.04101697],[-98.918393219,20.040431951],[-98.917955739,20.039818981],[-98.9175786,20.03927728],[-98.917171339,20.038721341],[-98.91676394,20.038208091],[-98.91650786,20.03722375],[-98.916432689,20.03653969],[-98.91614623,20.035841261],[-98.915753939,20.03549906],[-98.915286259,20.0348718],[-98.91477338,20.034287311],[-98.914338599,20.033853061],[-98.913935779,20.03364369],[-98.91359355,20.033206121],[-98.91369452,20.032787821],[-98.913594,20.032388371],[-98.913271969,20.031950831],[-98.91278863,20.031513201],[-98.912426249,20.031227781],[-98.912023429,20.0310184],[-98.91198332,20.03073314],[-98.91210454,20.03001054],[-98.91188189,20.029562781],[-98.91184302,20.029477941],[-98.91164217,20.028392861],[-98.91146118,20.027860261],[-98.911199629,20.027213551],[-98.91107898,20.026738091],[-98.91113966,20.02635777],[-98.91107931,20.026167581],[-98.91055563,20.026091261],[-98.91013543,20.02567163],[-98.909793249,20.02519602],[-98.90959222,20.024473291],[-98.909250489,20.023198981],[-98.90908955,20.02276152],[-98.908888489,20.02226694],[-98.90884826,20.022019741],[-98.908647089,20.021715371],[-98.908143679,20.021353771],[-98.907982649,20.021106461],[-98.907688599,20.02070337],[-98.90620832,20.02077638],[-98.906017939,20.01974969],[-98.906283089,20.01858451],[-98.904991629,20.01772331],[-98.90372852,20.016585051],[-98.903318109,20.016394521],[-98.90312748,20.016294661],[-98.90305863,20.016197291],[-98.90313428,20.01599731],[-98.903262419,20.01572162],[-98.90328774,20.015501421],[-98.903332769,20.01197557],[-98.9034198,20.01153815],[-98.903460399,20.01131157],[-98.90354118,20.01097586],[-98.903647279,20.01046845],[-98.90376377,20.009845401],[-98.903858829,20.008350281],[-98.905746305,20.009031996],[-98.905846195,20.00792575],[-98.911489643,20.008355336],[-98.911908779,20.006057111],[-98.911944825,20.005873552],[-98.912900123,20.001000627],[-98.911495139,20.000282722],[-98.910361876,19.999768528],[-98.910289719,19.999743683],[-98.909899152,19.999609217],[-98.908515029,19.998568093],[-98.907975785,19.998441914],[-98.907586224,19.998409849],[-98.907328757,19.99838866],[-98.906386259,19.998283623],[-98.906291753,19.998268442],[-98.90609728,19.998246367],[-98.904809158,19.998100164],[-98.903806173,19.997986294],[-98.903293491,19.99792499],[-98.902889325,19.997885567],[-98.901862897,19.997785478],[-98.901430352,19.997737592],[-98.90132682,19.997725705],[-98.898853302,19.997441897],[-98.898394211,19.997400775],[-98.897759771,19.99734396],[-98.896908224,19.997275801],[-98.896179107,19.997213525],[-98.896000166,19.997169745],[-98.89481311,19.996987032],[-98.895019103,19.995502632],[-98.89520677,19.993968449],[-98.895448405,19.9917962],[-98.895722395,19.989995482],[-98.895741858,19.989899784],[-98.895813162,19.98935765],[-98.895876687,19.988935087],[-98.896081225,19.98735282],[-98.895850821,19.986763329],[-98.894630439,19.983582278],[-98.894424431,19.983044696],[-98.894207365,19.982446907],[-98.894006813,19.981967912],[-98.893818015,19.98150108],[-98.893799571,19.9814518],[-98.893411272,19.980481898],[-98.893148031,19.979771606],[-98.893058344,19.979507354],[-98.892933128,19.979182177],[-98.887116592,19.964088394],[-98.879629497,19.960218012],[-98.878657712,19.959730638],[-98.877157256,19.95900021],[-98.875616678,19.95819576],[-98.874609494,19.957690179],[-98.872675258,19.956701428],[-98.871319762,19.956007716],[-98.871279702,19.955987214],[-98.870840396,19.956192482],[-98.87074277,19.956121252],[-98.870658655,19.956056267],[-98.870565786,19.955961064],[-98.870458445,19.955864199],[-98.870362707,19.955748539],[-98.870337386,19.955717948],[-98.870209823,19.955589579],[-98.870042094,19.95543282],[-98.869897183,19.955290954],[-98.869761326,19.955132209],[-98.869612729,19.954965426],[-98.869451404,19.954772524],[-98.869397294,19.954713561],[-98.869268838,19.954573583],[-98.869058679,19.954338474],[-98.868816295,19.954034268],[-98.868650726,19.953837347],[-98.86852122,19.953712746],[-98.868368367,19.953555999],[-98.868709289,19.953144539],[-98.868945496,19.952862352],[-98.869160695,19.952625228],[-98.869510733,19.952226365],[-98.869784934,19.951902952],[-98.87006654,19.951579693],[-98.870431706,19.951167137],[-98.870761939,19.950763741],[-98.871195691,19.950268581],[-98.871622033,19.949773267],[-98.871998266,19.949309166],[-98.87248208,19.94871492],[-98.873199482,19.947900683],[-98.873828791,19.947165821],[-98.874381123,19.946500593],[-98.874796092,19.94600603],[-98.875377677,19.945363767],[-98.87559932,19.945114488],[-98.875599347,19.945114459],[-98.875631662,19.945078115],[-98.87597046,19.944684471],[-98.876328911,19.944255617],[-98.876685965,19.943832476],[-98.87685134,19.943646385],[-98.877192265,19.943262753],[-98.878235747,19.942014853],[-98.87935545,19.940714561],[-98.879460209,19.940581563],[-98.87999463,19.939903078],[-98.880335419,19.939484947],[-98.880778438,19.938947352],[-98.881231133,19.938474126],[-98.881863972,19.937752761],[-98.887457659,19.933382221],[-98.887654649,19.93322418],[-98.88843965,19.93265965],[-98.88695546,19.93114558],[-98.886869969,19.92948991],[-98.885772769,19.92843075],[-98.884884684,19.927630818],[-98.883726649,19.92658771],[-98.882875679,19.925930911],[-98.87979878,19.924277651],[-98.878474459,19.92732511],[-98.878099059,19.92791566],[-98.877621689,19.928798451],[-98.877232709,19.92953211],[-98.876872229,19.930465941],[-98.87648305,19.9314498],[-98.87617475,19.93259626],[-98.873276059,19.929861051],[-98.86889423,19.925978911],[-98.864055119,19.921530261],[-98.86232477,19.919704351],[-98.86208898,19.919502311],[-98.861775309,19.919212461],[-98.86146037,19.9189238],[-98.861142679,19.91863623],[-98.860828079,19.918347521],[-98.860510059,19.91806123],[-98.86019323,19.917774171],[-98.859878549,19.917483941],[-98.8595608,19.91719755],[-98.859244089,19.916910051],[-98.858928909,19.91662114],[-98.858613939,19.91633169],[-98.858298799,19.916042921],[-98.85798232,19.915755651],[-98.857664459,19.915467911],[-98.85734846,19.915179741],[-98.857030259,19.914892881],[-98.856714629,19.914605171],[-98.85639745,19.914318781],[-98.85608162,19.914029921],[-98.855766689,19.91374086],[-98.855451089,19.913452091],[-98.85513446,19.913164691],[-98.854824089,19.91288255],[-98.857109879,19.91033782],[-98.85689175,19.910158751],[-98.85914088,19.90769086],[-98.86073289,19.90581862],[-98.86376565,19.902393031],[-98.87061995,19.89495803],[-98.87090292,19.895105951],[-98.871311519,19.89531955],[-98.878060819,19.898734651],[-98.87825266,19.898975971],[-98.87873598,19.899108421],[-98.880757489,19.899669431],[-98.880796969,19.899714541],[-98.88042043,19.9005376],[-98.881575019,19.901269661],[-98.88188032,19.900590061],[-98.88192531,19.90060255],[-98.88316208,19.90152875],[-98.88347766,19.900818771],[-98.88259863,19.90009748],[-98.88270672,19.900088251],[-98.8827224,19.90003951],[-98.883720829,19.900139431],[-98.883754393,19.900031253],[-98.88389775,19.899569206],[-98.88390091,19.89955902],[-98.88395116,19.899575629],[-98.884018659,19.899597941],[-98.884700779,19.899823451],[-98.885857729,19.899545405],[-98.886128316,19.899480375],[-98.886335223,19.899430648],[-98.88635148,19.899426741],[-98.886354506,19.899422557],[-98.886360399,19.899414411],[-98.886366647,19.899405774],[-98.886373511,19.899396284],[-98.886375179,19.899393979],[-98.886379227,19.899388383],[-98.886412179,19.899342829],[-98.886458536,19.899278745],[-98.886497255,19.899225219],[-98.886534626,19.899173557],[-98.88655006,19.89915222],[-98.886561073,19.899136996],[-98.88658699,19.899101166],[-98.886631599,19.899039496],[-98.886655811,19.899006024],[-98.886681313,19.898970768],[-98.886696601,19.898949633],[-98.886720357,19.898916791],[-98.88673112,19.898901911],[-98.886740435,19.898904579],[-98.886766979,19.898912181],[-98.886788326,19.898918299],[-98.88739971,19.89909351],[-98.88768592,19.899095521],[-98.887777879,19.89886418],[-98.887904019,19.898702511],[-98.88802785,19.898476781],[-98.88811969,19.898305981],[-98.88821529,19.898119261],[-98.88831846,19.897897521],[-98.888462949,19.897854061],[-98.888550059,19.897861541],[-98.88867778,19.897935291],[-98.88876511,19.897898221],[-98.88882394,19.89791492],[-98.888825908,19.897915025],[-98.888866673,19.897917191],[-98.88910597,19.897929911],[-98.889114706,19.897924666],[-98.8892784,19.897826371],[-98.889356889,19.897633941],[-98.889359836,19.89760902],[-98.88935984,19.897608987],[-98.889372649,19.897500681],[-98.889410652,19.897437932],[-98.889448297,19.897375772],[-98.88956089,19.89718986],[-98.889792189,19.897080741],[-98.88980811,19.897073231],[-98.889808581,19.897073015],[-98.889809049,19.8970728],[-98.889811609,19.897074602],[-98.889844567,19.897097803],[-98.889844597,19.897097826],[-98.889844629,19.897097851],[-98.89003749,19.897233651],[-98.890052952,19.897212837],[-98.890760019,19.89626111],[-98.890978148,19.895940652],[-98.89163409,19.894976982],[-98.892020441,19.894432644],[-98.892042985,19.894400881],[-98.892060569,19.89437611],[-98.893071442,19.894727598],[-98.894715767,19.895299326],[-98.895658821,19.895627215],[-98.89588994,19.895707571],[-98.895892167,19.89570367],[-98.89607868,19.895377051],[-98.89635492,19.89496857],[-98.89675125,19.894559451],[-98.89719515,19.894132721],[-98.897169087,19.894122479],[-98.89519623,19.893347171],[-98.89705037,19.89240485],[-98.897173349,19.892366261],[-98.897574079,19.89118358],[-98.897646399,19.89095555],[-98.897788879,19.889870921],[-98.897656019,19.888604231],[-98.89751758,19.88795654],[-98.8957124,19.88643262],[-98.896178169,19.885806001],[-98.89687394,19.88502966],[-98.897444029,19.884458341],[-98.89826971,19.883605341],[-98.90411752,19.88757995],[-98.90473138,19.88668083],[-98.90531508,19.885771151],[-98.90700669,19.88358026],[-98.907746739,19.883939141],[-98.90765385,19.883153781],[-98.907609179,19.882774681],[-98.90920374,19.879872061],[-98.9118248,19.881017261],[-98.91204562,19.880581341],[-98.912275909,19.880100151],[-98.909722179,19.87897009],[-98.91016548,19.87804855],[-98.912740479,19.87915586],[-98.91291252,19.87880169],[-98.91316957,19.878295401],[-98.91341389,19.877814141],[-98.91362142,19.87736926],[-98.911094179,19.876291],[-98.911431689,19.875887861],[-98.913850719,19.876924311],[-98.913805059,19.87701292],[-98.91479395,19.877349381],[-98.91548,19.87759109],[-98.91619705,19.87782243],[-98.91689006,19.87805795],[-98.917118652,19.878122265],[-98.91736111,19.87819048],[-98.91741886,19.878182681],[-98.917278919,19.8784508],[-98.916978999,19.878992751],[-98.917520404,19.879219999],[-98.917531319,19.879224581],[-98.917477449,19.87932897],[-98.917532086,19.879364315],[-98.91790538,19.8796058],[-98.91787991,19.87965557],[-98.917984579,19.87971514],[-98.91856626,19.880047351],[-98.91924745,19.880431261],[-98.919897849,19.880911401],[-98.919477017,19.881567753],[-98.919260309,19.881905741],[-98.91935837,19.88180828],[-98.91950828,19.881612831],[-98.919544636,19.881612721],[-98.92029203,19.881610451],[-98.920754394,19.881797868],[-98.920974709,19.881887171],[-98.921400303,19.882102452],[-98.9217226,19.88226548],[-98.921698065,19.882302098],[-98.921390244,19.88276153],[-98.92118671,19.88306531],[-98.92116094,19.88310652],[-98.92181823,19.883463851],[-98.922309199,19.88369925],[-98.92257037,19.883722431],[-98.922727305,19.883781143],[-98.92292745,19.88385602],[-98.923005512,19.883912324],[-98.92326298,19.88409803],[-98.92396551,19.884475631],[-98.92402174,19.884425281],[-98.924475965,19.884557557],[-98.92465249,19.884608963],[-98.92469551,19.884621491],[-98.924914601,19.884502562],[-98.92643429,19.883677612],[-98.926641849,19.883564938],[-98.92673594,19.883513861],[-98.92606676,19.884921966],[-98.925761829,19.8855636],[-98.926698059,19.886116221],[-98.9277241,19.886648813],[-98.927772092,19.886673725],[-98.92778032,19.886677996],[-98.928024653,19.886804822],[-98.92839738,19.886998291],[-98.928578687,19.887096908],[-98.92893377,19.887290045],[-98.929092884,19.887376589],[-98.929673456,19.887692367],[-98.92998291,19.887860681],[-98.931096349,19.88842418],[-98.931110339,19.88845222],[-98.931197694,19.8884961],[-98.93271906,19.88926031],[-98.934662739,19.89023192],[-98.935464719,19.889728911],[-98.936026379,19.88929262],[-98.93631455,19.888869371],[-98.936810879,19.888053081],[-98.93708317,19.88731229],[-98.937323249,19.88654308],[-98.937482649,19.88687712],[-98.937754279,19.887160151],[-98.93812955,19.887279921],[-98.93855797,19.887259051],[-98.93888857,19.887055891],[-98.93952878,19.886466431],[-98.93979858,19.88620743],[-98.94042291,19.88773045],[-98.94039772,19.88778845],[-98.940361814,19.887818052],[-98.940270969,19.88789295],[-98.94025331,19.88826945],[-98.94026915,19.88851958],[-98.940296319,19.88858745],[-98.940446749,19.888610371],[-98.94069665,19.888640891],[-98.940773859,19.88865032],[-98.940882613,19.888686302],[-98.940899479,19.888691881],[-98.941111012,19.888767861],[-98.941681485,19.888972766],[-98.941682561,19.888973152],[-98.941683781,19.888973589],[-98.94226569,19.8891826],[-98.942291459,19.88920625],[-98.942164872,19.889409442],[-98.942096841,19.889518641],[-98.94202937,19.889626941],[-98.941641309,19.890219937],[-98.94160051,19.890282281],[-98.941794359,19.890630872],[-98.94180102,19.890642851],[-98.941849807,19.890669042],[-98.942944792,19.891256846],[-98.94295909,19.89126452],[-98.94298087,19.891284184],[-98.942992916,19.891295057],[-98.94299323,19.89129534],[-98.942985036,19.891309507],[-98.942971219,19.891333393],[-98.942924513,19.891414144],[-98.942790149,19.891646438],[-98.942519783,19.892113858],[-98.94249696,19.892153316],[-98.942455229,19.89222546],[-98.942436723,19.892252939],[-98.942430675,19.892261922],[-98.941877619,19.89308318],[-98.94189595,19.89310771],[-98.94308408,19.893701154],[-98.94309775,19.893707981],[-98.94323417,19.89389608],[-98.943199523,19.893955432],[-98.94226455,19.895557121],[-98.942288289,19.895582431],[-98.943702739,19.89634245],[-98.943198149,19.897205491],[-98.943174079,19.89726118],[-98.944757459,19.89742172],[-98.94500248,19.89795815],[-98.94513591,19.89795715],[-98.945593249,19.897916896],[-98.945672489,19.897909921],[-98.94584381,19.897950247],[-98.945888415,19.897960747],[-98.946003108,19.897987742],[-98.946003186,19.897987762],[-98.946468425,19.898097266],[-98.946668603,19.898144383],[-98.946772479,19.898168831],[-98.947070355,19.898243395],[-98.947070387,19.898243403],[-98.947427402,19.89833277],[-98.947483154,19.898346726],[-98.94764369,19.89838691],[-98.947869398,19.898457892],[-98.948198539,19.8985614],[-98.948207602,19.898566616],[-98.948230428,19.898579753],[-98.948414818,19.898685875],[-98.948704479,19.89885258],[-98.948750675,19.898883484],[-98.949056959,19.89908838],[-98.94909568,19.899114281],[-98.949304658,19.899268774],[-98.949327558,19.899285704],[-98.949366132,19.89931422],[-98.949397545,19.899337443],[-98.94956688,19.899462634],[-98.949579675,19.899472096],[-98.94957971,19.89947214],[-98.949579745,19.899472188],[-98.950070509,19.900139851],[-98.950155758,19.900263925],[-98.950271189,19.900431925],[-98.95039008,19.900604963],[-98.950557507,19.900848637],[-98.95056388,19.90085791],[-98.950655139,19.900952493],[-98.950687229,19.900985751],[-98.950810856,19.901592351],[-98.950815252,19.901613917],[-98.950810338,19.901986524],[-98.950809956,19.902015463],[-98.95080965,19.902038781],[-98.950809316,19.902051432],[-98.950800975,19.902367179],[-98.950799459,19.90242454],[-98.950797957,19.90268894],[-98.95079778,19.902720276],[-98.950796903,19.902874676],[-98.950795217,19.903171583],[-98.950795,19.90320977],[-98.950778701,19.903516866],[-98.950767902,19.903720336],[-98.95076265,19.90381928],[-98.950760576,19.903849755],[-98.950748765,19.904023348],[-98.950748089,19.904033272],[-98.950734879,19.90422742],[-98.950711019,19.90544752],[-98.95067011,19.906114961],[-98.950664311,19.906209577],[-98.9506624,19.906240751],[-98.95072868,19.9062512],[-98.95206965,19.90652031],[-98.9527226,19.906714571],[-98.953482849,19.911551121],[-98.956112429,19.928183551],[-98.956247509,19.928142721],[-98.95702395,19.92735772],[-98.95825746,19.92608615],[-98.96044457,19.92505811],[-98.960458199,19.925663491],[-98.9612814,19.92586963],[-98.962326169,19.926396141],[-98.962191859,19.927433351],[-98.96198306,19.92739092],[-98.96182586,19.92917508],[-98.963821319,19.92953455],[-98.96503263,19.929719251],[-98.965291139,19.929623861],[-98.96610563,19.929840711],[-98.965988449,19.93073137],[-98.96656966,19.931408921],[-98.968333019,19.933809081],[-98.969966429,19.93269891],[-98.970130649,19.93286217],[-98.9725056,19.935907221],[-98.97279838,19.93595623],[-98.98316475,19.938612831],[-98.983049139,19.94071366],[-98.983068999,19.940992581],[-98.98310402,19.94148412],[-98.983206339,19.941986261],[-98.984116999,19.94501997],[-98.984669179,19.94626849],[-98.98469075,19.94631802],[-98.985363779,19.945519051],[-98.99461922,19.943304571],[-98.999089089,19.94200977],[-98.999778509,19.94182502],[-98.999614519,19.942795181],[-98.99861358,19.945905941],[-98.998613569,19.94721574],[-98.998170829,19.948289031],[-98.997594629,19.94887151],[-98.995767939,19.956164581],[-98.995622819,19.956891721],[-98.98117572,19.9547214],[-98.96761557,19.971528541],[-98.967395739,19.971785231],[-98.967248449,19.971983491],[-98.967046999,19.972233141],[-98.966831709,19.97269048],[-98.96664366,19.973098751],[-98.966530819,19.973453771],[-98.966418,19.97366677],[-98.966323979,19.97386203],[-98.96621946,19.97399508],[-98.965953519,19.974017861],[-98.965566719,19.974006371],[-98.96539751,19.973949261],[-98.965240369,19.97393782],[-98.96480518,19.97406331],[-98.964406279,19.97414314],[-98.964019459,19.974143061],[-98.962649089,19.974383801],[-98.961960059,19.97454349],[-98.96150069,19.97465755],[-98.960956709,19.97482869],[-98.96052152,19.97491992],[-98.96017097,19.97497694],[-98.959626999,19.975033891],[-98.959288489,19.97521649],[-98.959046689,19.97538768],[-98.958768619,19.975581711],[-98.95859349,19.975709261],[-98.958100879,19.97579914],[-98.957713969,19.975860171],[-98.95709498,19.975677],[-98.955682179,19.975722201],[-98.952225089,19.974129401],[-98.94854935,19.97401846],[-98.948659199,19.974774821],[-98.948254749,19.975265881],[-98.94575205,19.975174171],[-98.944742479,19.97505165],[-98.944143919,19.975738921],[-98.943331549,19.976782571],[-98.942869619,19.97798812],[-98.94273049,19.97907309],[-98.943019979,19.98067274],[-98.943486629,19.98255357],[-98.943759119,19.984977971],[-98.943602999,19.986887721],[-98.9432756,19.98912878],[-98.943116919,19.993371051],[-98.94280928,19.99625277],[-98.942568079,19.99851195],[-98.94213155,20.0006232],[-98.94264646,20.001935821],[-98.94315728,20.0028004],[-98.94359645,20.003877831],[-98.943803579,20.00441671],[-98.94399612,20.00493865],[-98.94438843,20.00511895],[-98.944869739,20.0053556],[-98.945273969,20.00571955],[-98.94571665,20.006320001],[-98.94592825,20.006920381],[-98.94612071,20.00719332],[-98.946371019,20.007229781],[-98.94667912,20.007193491],[-98.946890819,20.0075392],[-98.94714102,20.007903091],[-98.947314179,20.008285171],[-98.947487259,20.008991781],[-98.947167459,20.009333851],[-98.947219689,20.00981075],[-98.944279819,20.017292201],[-98.94506875,20.018767851],[-98.94492815,20.019621601],[-98.94478694,20.02013989],[-98.94470108,20.020471081],[-98.94513498,20.02304637],[-98.945595079,20.023297541],[-98.94550174,20.023837631],[-98.94559391,20.024022691],[-98.945816709,20.02404148],[-98.94607777,20.024300781],[-98.946072999,20.02468318],[-98.946574739,20.025024231],[-98.94670095,20.02556315],[-98.94647431,20.025715001],[-98.946716619,20.025878221],[-98.946493379,20.026524631],[-98.946628339,20.02667977],[-98.946654649,20.027475091],[-98.94689406,20.027624651],[-98.94700331,20.02777935],[-98.94719402,20.02777143],[-98.947307459,20.027954311],[-98.94723765,20.02816909],[-98.947575819,20.02821051],[-98.94767971,20.028566461],[-98.94799743,20.028638651],[-98.94795295,20.02892115],[-98.94805617,20.028999061],[-98.947936779,20.02956789],[-98.948391689,20.029409971],[-98.94870263,20.029338801],[-98.94945717,20.029614151],[-98.94963442,20.029691431],[-98.949693969,20.029744171],[-98.949746979,20.03005015],[-98.94993943,20.0300614],[-98.950326509,20.029872461],[-98.95090602,20.029886021],[-98.95105585,20.029808251],[-98.951556629,20.029110171],[-98.951836819,20.028611171],[-98.95370182,20.030530511],[-98.95428248,20.031128081],[-98.95516343,20.02783566],[-98.95525065,20.027833491],[-98.95572166,20.02790508],[-98.95621162,20.02802432],[-98.956630659,20.027963781],[-98.956636519,20.027983081],[-98.956886659,20.028053091],[-98.957351819,20.02831829],[-98.957824349,20.028532681],[-98.95838012,20.02877188],[-98.95887514,20.02886898],[-98.959269879,20.029004341],[-98.959568119,20.028751861],[-98.959853659,20.0286294],[-98.96019108,20.028629481],[-98.96058037,20.02875209],[-98.96071912,20.02894485],[-98.960736289,20.02910875],[-98.96065289,20.029079631],[-98.960240509,20.031623001],[-98.962370419,20.031593651],[-98.962792049,20.03104737],[-98.961765449,20.03071194],[-98.962796429,20.030518181],[-98.96301185,20.030759781],[-98.96302938,20.0309998],[-98.96346438,20.031199181],[-98.96397657,20.031237691],[-98.963898279,20.031346741],[-98.96404298,20.031578251],[-98.964053249,20.03176862],[-98.96347238,20.031824741],[-98.96316994,20.031886851],[-98.962757479,20.031979261],[-98.962355339,20.032021371],[-98.961962979,20.032107571],[-98.96146171,20.03214772],[-98.96117426,20.032180781],[-98.96060198,20.03223845],[-98.960299769,20.032389311],[-98.95987797,20.03260069],[-98.959078309,20.037457691],[-98.95906149,20.037457691],[-98.95888271,20.03764046],[-98.958808169,20.03793572],[-98.958554879,20.038315341],[-98.95840589,20.038441851],[-98.958361169,20.038666831],[-98.95840575,20.038976181],[-98.95853971,20.03932777],[-98.95868769,20.039565401],[-98.958730399,20.039570451],[-98.959016259,20.03959505],[-98.959403519,20.03952483],[-98.95976098,20.039468661],[-98.9600142,20.039454661],[-98.96046105,20.03939851],[-98.960449289,20.0397982],[-98.96037446,20.04006291],[-98.960430489,20.040292351],[-98.960542599,20.040451221],[-98.960804229,20.04075129],[-98.96110328,20.040945491],[-98.96126917,20.04130165],[-98.961269059,20.04175177],[-98.961367169,20.042016571],[-98.96154945,20.042228431],[-98.96185795,20.0424668],[-98.962068249,20.042837541],[-98.96205415,20.043115971],[-98.9621102,20.043367521],[-98.962264399,20.04363234],[-98.96246074,20.043738291],[-98.962558879,20.04391042],[-98.962671019,20.044161981],[-98.962698949,20.04463858],[-98.962656769,20.045128421],[-98.96275486,20.045525621],[-98.962761249,20.046040021],[-98.96100026,20.04694402],[-98.96004265,20.04755902],[-98.959565619,20.047869921],[-98.958607999,20.04847551],[-98.95824603,20.04870748],[-98.95623006,20.049902341],[-98.955269119,20.050463851],[-98.954795379,20.050749151],[-98.95383445,20.051310281],[-98.95305085,20.05174512],[-98.952940059,20.051697571],[-98.95251988,20.05155505],[-98.95212011,20.051395021],[-98.95176571,20.05122935],[-98.95145282,20.05092137],[-98.95103395,20.050844621],[-98.95087806,20.050905881],[-98.95068828,20.05102562],[-98.950375779,20.051086571],[-98.950063349,20.05095425],[-98.94984791,20.050760921],[-98.949610889,20.050648971],[-98.949341549,20.05055734],[-98.94895369,20.05045551],[-98.94873825,20.05026218],[-98.94815905,20.050081891],[-98.94734018,20.04999011],[-98.94695231,20.04989845],[-98.94656445,20.04982712],[-98.945950319,20.049684541],[-98.945390109,20.049460581],[-98.94512078,20.049277421],[-98.94461446,20.04904331],[-98.94364791,20.04881922],[-98.94310914,20.04890043],[-98.942688919,20.048879951],[-98.942516629,20.0486256],[-98.94208546,20.04876885],[-98.94169183,20.048810691],[-98.94153592,20.049113521],[-98.941565019,20.050692801],[-98.941497889,20.05114782],[-98.94122986,20.05177974],[-98.94073428,20.052171421],[-98.940198659,20.05225972],[-98.938955629,20.052321431],[-98.938515229,20.05241165],[-98.938084379,20.05252898],[-98.937701369,20.052727661],[-98.93724177,20.05295343],[-98.936705619,20.053043621],[-98.936121659,20.052989171]]]]},"properties":{"municipality":"Tolcayuca","official_key":"13075","CVE_ENT":"13","CVE_MUN":"075","geometry_kind":"municipality","source":"INEGI Gaia — Servicio vectorial del Marco Geoestadístico"}},"features":[{"type":"Feature","geometry":{"type":"MultiPolygon","crs":{"type":"name","properties":{"name":"EPSG:6365"}},"coordinates":[[[[-98.9221682,19.967087771],[-98.921628031,19.966052292],[-98.921037702,19.964513031],[-98.921024369,19.964478263],[-98.92034925,19.963281151],[-98.920303585,19.963369677],[-98.920129199,19.963484908],[-98.919526922,19.963882893],[-98.919405723,19.963689708],[-98.919324569,19.96361937],[-98.918946756,19.963291921],[-98.91893245,19.96327952],[-98.919081509,19.9630274],[-98.919439891,19.962447061],[-98.91960483,19.96221883],[-98.9196404,19.96216962],[-98.919182985,19.961985046],[-98.918988231,19.961946846],[-98.918637508,19.962105246],[-98.918403877,19.962217139],[-98.918268908,19.962366415],[-98.918002399,19.962434723],[-98.917795245,19.962577262],[-98.917687215,19.962577215],[-98.917402153,19.962526],[-98.917210337,19.962647062],[-98.917055107,19.962823078],[-98.916864938,19.963021046],[-98.916705861,19.963112677],[-98.916422631,19.963266615],[-98.915923584,19.963525693],[-98.915722354,19.963745677],[-98.915659631,19.963796],[-98.914977554,19.964023646],[-98.913735569,19.964440631],[-98.912493585,19.9648576],[-98.91208458,19.96498212],[-98.91202025,19.96500171],[-98.91197249,19.964971341],[-98.910604261,19.964101047],[-98.909623754,19.963514477],[-98.908773319,19.963005741],[-98.9087194,19.96287491],[-98.908519278,19.962471383],[-98.908415352,19.962188583],[-98.908059521,19.961436418],[-98.907810383,19.960679247],[-98.907506025,19.959326529],[-98.907484769,19.958992092],[-98.906940691,19.957260891],[-98.90661977,19.956488144],[-98.904196028,19.955514053],[-98.904124824,19.95317571],[-98.905512739,19.95382245],[-98.906202016,19.954053078],[-98.90664535,19.954096651],[-98.906743307,19.954106276],[-98.906847769,19.95411654],[-98.907904321,19.954187],[-98.90898846,19.954253923],[-98.9100056,19.954345581],[-98.910170246,19.954225418],[-98.910687416,19.953851878],[-98.911065909,19.953560123],[-98.911543877,19.953208478],[-98.912002553,19.952861091],[-98.912378152,19.95256714],[-98.91276768,19.95226802],[-98.91312609,19.951989553],[-98.913306169,19.951849369],[-98.913401678,19.951775017],[-98.913416446,19.95176351],[-98.909770076,19.951754032],[-98.909835834,19.951707543],[-98.909998249,19.95159272],[-98.910276454,19.951372495],[-98.910862481,19.950075771],[-98.910461889,19.949907531],[-98.91010428,19.949753251],[-98.909752891,19.949609762],[-98.909400259,19.949461652],[-98.909059439,19.949318512],[-98.90867574,19.94916043],[-98.907345896,19.948601885],[-98.907446959,19.948363674],[-98.90760189,19.9480448],[-98.907753516,19.947736508],[-98.907907382,19.947391448],[-98.908056813,19.947063955],[-98.908215093,19.946721564],[-98.908364857,19.946402368],[-98.909730547,19.946945394],[-98.910133683,19.947106214],[-98.910493218,19.947251431],[-98.910850943,19.947387236],[-98.911199309,19.947517073],[-98.911546912,19.947647896],[-98.911950069,19.947802648],[-98.91240281,19.947990578],[-98.912574178,19.948077188],[-98.912656504,19.94805862],[-98.913262707,19.946696566],[-98.913725088,19.951501059],[-98.913744797,19.951484299],[-98.914220245,19.951080002],[-98.914842199,19.950617654],[-98.915065519,19.95024382],[-98.915513831,19.95044774],[-98.91663895,19.950928321],[-98.916742091,19.95072117],[-98.916817292,19.950539846],[-98.916877814,19.950380415],[-98.917196907,19.950489524],[-98.91749638,19.950591621],[-98.917936847,19.949835092],[-98.918483646,19.948974739],[-98.918906231,19.948356231],[-98.919038879,19.94815706],[-98.919504091,19.948621001],[-98.920034753,19.949136063],[-98.920205768,19.949382323],[-98.920830692,19.949808109],[-98.921209815,19.949862185],[-98.921583707,19.949881754],[-98.921523877,19.950410601],[-98.921550984,19.9505408],[-98.921644277,19.950662555],[-98.921573491,19.950899015],[-98.921516369,19.951084401],[-98.921484889,19.95114394],[-98.92151983,19.951162401],[-98.921552584,19.951179692],[-98.922173323,19.951507447],[-98.922794707,19.951826432],[-98.923189307,19.951616585],[-98.923507462,19.951616432],[-98.923670691,19.951639308],[-98.924068337,19.951627432],[-98.924264061,19.951617016],[-98.924574691,19.951642523],[-98.92469797,19.951661081],[-98.92485114,19.95143314],[-98.925148538,19.951518324],[-98.925388369,19.951659109],[-98.9255598,19.951741831],[-98.925811199,19.951853324],[-98.925952199,19.952008092],[-98.926017185,19.9523826],[-98.926131738,19.952847092],[-98.926255969,19.953398693],[-98.92625466,19.953511501],[-98.92630946,19.95346611],[-98.9264714,19.953330491],[-98.92657574,19.95324405],[-98.926716153,19.953142078],[-98.926859385,19.953037252],[-98.926923339,19.952990447],[-98.927147078,19.952841661],[-98.9273286,19.952739583],[-98.92763382,19.95269914],[-98.927785891,19.952637461],[-98.928171891,19.952489769],[-98.928487139,19.952366322],[-98.928838369,19.952233847],[-98.92896277,19.95218292],[-98.929337509,19.952044139],[-98.929581278,19.951938261],[-98.930007153,19.951774153],[-98.930328753,19.9516444],[-98.930652153,19.951524291],[-98.931094353,19.951356661],[-98.93151597,19.95120206],[-98.931549846,19.951267769],[-98.931612,19.951337492],[-98.932818446,19.952101215],[-98.93280867,19.952118845],[-98.93268743,19.952337493],[-98.932668785,19.952485138],[-98.932556462,19.952621016],[-98.932519169,19.952945846],[-98.932405799,19.953251478],[-98.932129784,19.953848231],[-98.932096261,19.954167139],[-98.932104846,19.954454139],[-98.931970153,19.954804969],[-98.931955368,19.955011846],[-98.93159936,19.955783106],[-98.931394062,19.956227862],[-98.930844108,19.957419323],[-98.9308384,19.95743111],[-98.930166185,19.958817785],[-98.92981826,19.95946157],[-98.929952431,19.959497139],[-98.93030258,19.95964231],[-98.9302549,19.959705828],[-98.930204799,19.959772569],[-98.930053846,19.959823],[-98.929974452,19.959826163],[-98.9298982,19.9598292],[-98.929732954,19.959868246],[-98.929618055,19.95991096],[-98.92937407,19.959921442],[-98.929240272,19.959927302],[-98.929062544,19.9599327],[-98.928701494,19.959910393],[-98.928559993,19.959856548],[-98.928258535,19.959619267],[-98.928057446,19.959482616],[-98.927897431,19.959391846],[-98.927481759,19.959432872],[-98.927176548,19.959465673],[-98.92696188,19.95930403],[-98.926928984,19.959444601],[-98.926954522,19.95984377],[-98.927035337,19.960128016],[-98.927182692,19.960590462],[-98.927251431,19.960818155],[-98.927256969,19.961038815],[-98.927353154,19.961207246],[-98.92734106,19.96157225],[-98.927536399,19.961759215],[-98.92787463,19.962057308],[-98.92801323,19.962203292],[-98.928127522,19.962306323],[-98.928287015,19.962379231],[-98.928451862,19.962364232],[-98.928728322,19.962467323],[-98.929017707,19.962767032],[-98.929215154,19.963064477],[-98.929527262,19.963502908],[-98.929591723,19.963734616],[-98.929576445,19.963915232],[-98.929550814,19.964151863],[-98.929509231,19.964330969],[-98.929317753,19.964360169],[-98.929140338,19.964394677],[-98.928957307,19.964423878],[-98.928803861,19.964403862],[-98.9286504,19.964383831],[-98.928350799,19.964332415],[-98.928089292,19.9642786],[-98.927812799,19.964187246],[-98.927745468,19.964204527],[-98.92774542,19.964204541],[-98.928247711,19.96478937],[-98.928253015,19.964795305],[-98.92831983,19.96487006],[-98.928248661,19.965117232],[-98.928289062,19.965133093],[-98.928270994,19.965194868],[-98.928262775,19.965222972],[-98.928205419,19.965419081],[-98.928187052,19.965475295],[-98.928093571,19.965761414],[-98.9280758,19.965815807],[-98.928063215,19.965854324],[-98.927878862,19.966400955],[-98.927761677,19.966780877],[-98.92760472,19.967255827],[-98.927604708,19.967255862],[-98.926732689,19.967176845],[-98.926410646,19.967147662],[-98.925976829,19.96718108],[-98.925370075,19.967324723],[-98.925208223,19.967406438],[-98.924733551,19.967646085],[-98.924733506,19.967646107],[-98.924151473,19.967953726],[-98.924151428,19.967953749],[-98.92292669,19.968534641],[-98.922926646,19.968534663],[-98.9221682,19.967087771]]]]},"properties":{"locality":"Tolcayuca","municipality":null,"official_key":"130750001","CVE_ENT":"13","CVE_MUN":"075","CVE_LOC":"0001","ambito":"URBANO","geometry_kind":"locality","source":"INEGI Gaia — Servicio vectorial del Marco Geoestadístico"}},{"type":"Feature","geometry":{"type":"MultiPolygon","crs":{"type":"name","properties":{"name":"EPSG:6365"}},"coordinates":[[[[-98.91573152,19.882961731],[-98.915903697,19.882638391],[-98.91599643,19.882463363],[-98.91650904,19.88275466],[-98.916600236,19.88260332],[-98.916699476,19.882429279],[-98.917268105,19.882744571],[-98.917337842,19.882779884],[-98.917560467,19.882911044],[-98.917171546,19.883536578],[-98.917125948,19.883612248],[-98.916779944,19.884245347],[-98.915405692,19.88357842],[-98.915555968,19.883293997],[-98.91573152,19.882961731]]],[[[-98.92512214,19.89723717],[-98.92491435,19.8971822],[-98.92480806,19.89745302],[-98.92470263,19.89772155],[-98.92447303,19.897647],[-98.92245605,19.89698137],[-98.922691661,19.896707417],[-98.92273705,19.89669482],[-98.9227564,19.896687691],[-98.922964569,19.8963656],[-98.92302177,19.89633403],[-98.923079462,19.896171354],[-98.923099923,19.896113662],[-98.923344462,19.895796215],[-98.924268846,19.894596277],[-98.924457338,19.894252277],[-98.92518149,19.89451029],[-98.925351219,19.893809691],[-98.925502106,19.893189745],[-98.925204082,19.893145102],[-98.925152267,19.892837516],[-98.924920407,19.892808805],[-98.924616503,19.89206167],[-98.924549412,19.891917255],[-98.924505927,19.8916861],[-98.924536449,19.891473768],[-98.924537367,19.891345839],[-98.924468546,19.891177553],[-98.924412048,19.891034013],[-98.92423348,19.890849061],[-98.924153325,19.890769728],[-98.924031439,19.890586298],[-98.924016037,19.890492493],[-98.924014159,19.890481055],[-98.923852665,19.890241391],[-98.924142561,19.889546147],[-98.924253387,19.889325594],[-98.924246524,19.889324672],[-98.921703048,19.88898259],[-98.921249543,19.888915476],[-98.920820173,19.888853064],[-98.920621956,19.888824127],[-98.920232769,19.888767308],[-98.919833119,19.888704254],[-98.919430788,19.888651284],[-98.919031139,19.888598319],[-98.918746824,19.888563007],[-98.919548805,19.887150554],[-98.920184489,19.886040756],[-98.919874275,19.885769878],[-98.919710825,19.885597437],[-98.919648396,19.885499015],[-98.9196011,19.88532125],[-98.919378477,19.885145951],[-98.919059293,19.884949213],[-98.918707923,19.884805442],[-98.918308275,19.88469194],[-98.917924718,19.884583482],[-98.917686002,19.884505289],[-98.919222757,19.881908263],[-98.919260309,19.881905741],[-98.919333521,19.881832977],[-98.91935837,19.88180828],[-98.919383986,19.881774881],[-98.919432525,19.881711597],[-98.91950828,19.881612831],[-98.919544636,19.881612721],[-98.92029203,19.881610451],[-98.920671705,19.88176435],[-98.920754393,19.881797868],[-98.920974709,19.881887171],[-98.921005326,19.881902658],[-98.92087783,19.882184759],[-98.920223791,19.883240984],[-98.919698497,19.884102984],[-98.919946097,19.884217748],[-98.92008725,19.884290894],[-98.92056267,19.883493846],[-98.920832233,19.883645185],[-98.921174719,19.88311401],[-98.921377239,19.88322411],[-98.921402419,19.883237799],[-98.92181823,19.883463851],[-98.922309199,19.88369925],[-98.922528436,19.883718709],[-98.92257037,19.883722431],[-98.922612263,19.883738104],[-98.92270785,19.883773866],[-98.922727304,19.883781144],[-98.922734829,19.88378396],[-98.9227649,19.883795209],[-98.922915828,19.883851672],[-98.92292745,19.88385602],[-98.922929961,19.883857831],[-98.922935586,19.883861888],[-98.923005512,19.883912324],[-98.923117538,19.883993126],[-98.923146799,19.884014231],[-98.923201031,19.884053347],[-98.923221318,19.884067979],[-98.923230106,19.884074318],[-98.923231645,19.884075428],[-98.92326298,19.88409803],[-98.923350528,19.884145086],[-98.923433571,19.884189721],[-98.923786075,19.884379187],[-98.92396551,19.884475631],[-98.923991476,19.88445238],[-98.924163308,19.884545231],[-98.924297417,19.88469657],[-98.924470419,19.884887003],[-98.924737301,19.885095092],[-98.926328809,19.885898268],[-98.926698059,19.886116221],[-98.9277241,19.886648814],[-98.92778032,19.886677996],[-98.927801112,19.886688789],[-98.927801147,19.886688807],[-98.92782501,19.886701195],[-98.927854259,19.886716376],[-98.927889557,19.886734698],[-98.927898161,19.886739164],[-98.927962966,19.886772803],[-98.928024653,19.886804822],[-98.92839738,19.886998291],[-98.928578687,19.887096909],[-98.928820566,19.887228471],[-98.928877541,19.88725946],[-98.92893377,19.887290045],[-98.929092782,19.887376535],[-98.929092884,19.887376589],[-98.929201578,19.887435709],[-98.9292776,19.887477058],[-98.929324192,19.887502401],[-98.929523255,19.887610674],[-98.929621482,19.887664098],[-98.929673455,19.887692368],[-98.929707274,19.887710763],[-98.929892916,19.887811734],[-98.92998291,19.887860681],[-98.930001891,19.887870287],[-98.930038475,19.887888803],[-98.930162772,19.887951709],[-98.930198577,19.88796983],[-98.929700669,19.890134639],[-98.93010075,19.8901888],[-98.930143722,19.890192339],[-98.930628215,19.890268878],[-98.930861605,19.890294757],[-98.932299785,19.889774739],[-98.932483769,19.889710723],[-98.93209214,19.890550921],[-98.93225562,19.89057994],[-98.93216109,19.890792481],[-98.931996489,19.891162541],[-98.931837077,19.891510018],[-98.93176215,19.891506771],[-98.93168029,19.89172618],[-98.931736383,19.892092201],[-98.931743183,19.89215497],[-98.93152137,19.89264509],[-98.931561645,19.892676878],[-98.93158062,19.89269185],[-98.931934059,19.892970801],[-98.932610979,19.893508181],[-98.931650753,19.894571309],[-98.93160351,19.894683741],[-98.931589708,19.8947166],[-98.931078872,19.895286778],[-98.93093072,19.89545214],[-98.93051048,19.895921181],[-98.930441429,19.895998231],[-98.930152353,19.89633974],[-98.929798979,19.89670977],[-98.92918642,19.89737897],[-98.928535509,19.898084481],[-98.92790945,19.898765231],[-98.927884582,19.898792248],[-98.92727154,19.899437741],[-98.926717484,19.900033755],[-98.92666414,19.90009114],[-98.92639995,19.89987168],[-98.92578672,19.89944798],[-98.9252484,19.899050278],[-98.92522929,19.89898552],[-98.92536328,19.898408108],[-98.925417259,19.898175491],[-98.925452095,19.898025376],[-98.92560843,19.89735169],[-98.92512214,19.89723717]]]]},"properties":{"locality":"General Felipe Ángeles (Los Ángeles)","municipality":null,"official_key":"130750002","CVE_ENT":"13","CVE_MUN":"075","CVE_LOC":"0002","ambito":"URBANO","geometry_kind":"locality","source":"INEGI Gaia — Servicio vectorial del Marco Geoestadístico"}},{"type":"Feature","geometry":{"type":"MultiPolygon","crs":{"type":"name","properties":{"name":"EPSG:6365"}},"coordinates":[[[[-98.8907196,19.899748248],[-98.889837382,19.899717418],[-98.88974722,19.89977071],[-98.889683309,19.899801691],[-98.889648539,19.899826031],[-98.8894556,19.899859109],[-98.88923178,19.89988248],[-98.888765752,19.899931122],[-98.88871575,19.89992446],[-98.888657721,19.899916722],[-98.888570752,19.899886461],[-98.888447521,19.899863],[-98.887599248,19.899759831],[-98.88730703,19.899733091],[-98.887064278,19.899710152],[-98.886848569,19.89969817],[-98.886795709,19.899730691],[-98.88672943,19.899743631],[-98.886688017,19.8997322],[-98.886617982,19.89966217],[-98.886536861,19.899617291],[-98.886529782,19.8995606],[-98.886549709,19.899512783],[-98.886522461,19.899420152],[-98.886451,19.899420152],[-98.88635148,19.899426741],[-98.886354506,19.899422557],[-98.886360399,19.899414411],[-98.886366646,19.899405775],[-98.88637351,19.899396284],[-98.886375179,19.899393979],[-98.886379226,19.899388384],[-98.886412178,19.89934283],[-98.886458535,19.899278745],[-98.886497255,19.89922522],[-98.886534625,19.899173557],[-98.88655006,19.899152221],[-98.886561072,19.899136997],[-98.886586989,19.899101167],[-98.886631598,19.899039497],[-98.88665581,19.899006024],[-98.886681313,19.898970768],[-98.886696601,19.898949634],[-98.886720356,19.898916791],[-98.886731119,19.898901911],[-98.88689483,19.89877074],[-98.887718539,19.89779777],[-98.888070951,19.897376249],[-98.888145751,19.897282819],[-98.8884034,19.89696037],[-98.888562939,19.896810891],[-98.88862003,19.896747182],[-98.88882632,19.896528291],[-98.888916649,19.896453831],[-98.8889526,19.89646915],[-98.888958108,19.896495585],[-98.88896915,19.89652346],[-98.88944317,19.89682729],[-98.889809049,19.8970728],[-98.889811608,19.897074603],[-98.889844566,19.897097804],[-98.889844597,19.897097826],[-98.889844629,19.897097851],[-98.89003749,19.897233651],[-98.890794491,19.897787722],[-98.89120071,19.89806242],[-98.891460217,19.898237891],[-98.892468921,19.898970122],[-98.893018817,19.899363448],[-98.893149,19.89946835],[-98.893091861,19.899486648],[-98.893015509,19.899534861],[-98.892975048,19.89957357],[-98.89291043,19.8995814],[-98.892845861,19.899664722],[-98.892356309,19.9003914],[-98.89234414,19.90040554],[-98.89225583,19.900374261],[-98.8913692,19.900143818],[-98.891336721,19.900134583],[-98.891308492,19.900092308],[-98.891293352,19.900067739],[-98.891292291,19.900031939],[-98.891299921,19.899963383],[-98.891353891,19.899881061],[-98.89137043,19.899776279],[-98.8907196,19.899748248]]]]},"properties":{"locality":"Las Pintas","municipality":null,"official_key":"130750009","CVE_ENT":"13","CVE_MUN":"075","CVE_LOC":"0009","ambito":"RURAL","geometry_kind":"locality","source":"INEGI Gaia — Servicio vectorial del Marco Geoestadístico"}},{"type":"Feature","geometry":{"type":"MultiPolygon","crs":{"type":"name","properties":{"name":"EPSG:6365"}},"coordinates":[[[[-98.908905569,19.900070646],[-98.908948846,19.900048785],[-98.909303508,19.900077446],[-98.909424092,19.900079123],[-98.910268492,19.900128354],[-98.910443646,19.900162385],[-98.910568046,19.900192615],[-98.9108712,19.900275508],[-98.910973046,19.900320338],[-98.91224623,19.90085989],[-98.91223783,19.900893891],[-98.911849352,19.901866],[-98.911798878,19.901923691],[-98.911611939,19.902031618],[-98.911436952,19.902442448],[-98.911241721,19.902516122],[-98.910761817,19.902588322],[-98.910534678,19.902668952],[-98.910309417,19.90274557],[-98.9101762,19.902799631],[-98.91006523,19.9028736],[-98.909904509,19.90296817],[-98.909887569,19.903046431],[-98.909882048,19.903144152],[-98.909888952,19.903309139],[-98.909951048,19.904121709],[-98.91001,19.90481778],[-98.909916215,19.904862385],[-98.908591446,19.904989369],[-98.906379446,19.904998877],[-98.908905569,19.900070646]]]]},"properties":{"locality":"San Miguel Eyacalco","municipality":null,"official_key":"130750010","CVE_ENT":"13","CVE_MUN":"075","CVE_LOC":"0010","ambito":"RURAL","geometry_kind":"locality","source":"INEGI Gaia — Servicio vectorial del Marco Geoestadístico"}},{"type":"Feature","geometry":{"type":"MultiPolygon","crs":{"type":"name","properties":{"name":"EPSG:6365"}},"coordinates":[[[[-98.910960016,19.991719061],[-98.91046163,19.991551618],[-98.910262938,19.99153708],[-98.910211848,19.991503583],[-98.910038817,19.991455249],[-98.909778369,19.991386952],[-98.909485769,19.99129034],[-98.909095309,19.991140431],[-98.909019938,19.991095648],[-98.908826448,19.990906431],[-98.908240739,19.990449339],[-98.908061047,19.990341909],[-98.907625709,19.990021649],[-98.907235033,19.989792531],[-98.907192522,19.989767601],[-98.907510831,19.989001415],[-98.90767283,19.988557677],[-98.907796984,19.987985877],[-98.907840431,19.987898047],[-98.908015876,19.987014832],[-98.908010554,19.986913154],[-98.908091431,19.986719032],[-98.908037846,19.986191923],[-98.908021815,19.985991108],[-98.908066199,19.985441108],[-98.908091645,19.985248555],[-98.908172954,19.984960939],[-98.908172984,19.984907046],[-98.908218491,19.984728077],[-98.908282677,19.984338169],[-98.908352938,19.983996032],[-98.908384477,19.983751955],[-98.908276369,19.983338201],[-98.908194261,19.983147846],[-98.908198291,19.982881308],[-98.908207814,19.982745723],[-98.908235614,19.982597616],[-98.908283538,19.982365108],[-98.908306,19.982195231],[-98.908307138,19.982030738],[-98.908266662,19.981713832],[-98.90824614,19.98105797],[-98.908571999,19.981131848],[-98.908736909,19.981219479],[-98.908978817,19.981346753],[-98.90927143,19.981549619],[-98.909677939,19.981808849],[-98.910105168,19.982085479],[-98.910488521,19.982343122],[-98.91063239,19.982446374],[-98.910820168,19.981907257],[-98.91087295,19.981746351],[-98.910759888,19.980679433],[-98.911017021,19.98045363],[-98.910695376,19.980295198],[-98.910939504,19.979961609],[-98.911663003,19.980052472],[-98.911440551,19.979287509],[-98.911162968,19.978855692],[-98.911196739,19.97883011],[-98.91186426,19.978783522],[-98.911945521,19.978807553],[-98.911986138,19.978826752],[-98.912101647,19.978934722],[-98.912177782,19.97901031],[-98.912273399,19.97911314],[-98.91247523,19.979239139],[-98.912646599,19.97934474],[-98.912895816,19.979502539],[-98.913250248,19.979731019],[-98.9134512,19.979864784],[-98.913764738,19.980067583],[-98.914042369,19.98025214],[-98.91420749,19.980359449],[-98.91435006,19.98044928],[-98.914596109,19.980640632],[-98.91481286,19.98080531],[-98.915059752,19.980989631],[-98.915125939,19.98104555],[-98.915283077,19.981127309],[-98.915541751,19.981259079],[-98.915839939,19.98145928],[-98.915893552,19.98149391],[-98.915917677,19.981501509],[-98.915964829,19.981513461],[-98.916018017,19.98151391],[-98.91606806,19.98152871],[-98.916123029,19.981545619],[-98.916235781,19.981607431],[-98.916467381,19.981728862],[-98.91656563,19.981779109],[-98.916655678,19.981807583],[-98.916839508,19.981907109],[-98.917060921,19.982026339],[-98.917406339,19.982177922],[-98.917659078,19.982311218],[-98.917939029,19.98245837],[-98.918212938,19.982602722],[-98.918226229,19.9826342],[-98.91768892,19.984735821],[-98.91806672,19.98500071],[-98.918608982,19.98533091],[-98.918683969,19.985373432],[-98.91880209,19.985403583],[-98.91895769,19.985470939],[-98.918989551,19.985509909],[-98.919025219,19.985590171],[-98.919031861,19.985589323],[-98.919228848,19.98558797],[-98.919692278,19.985617952],[-98.920528539,19.98570568],[-98.920919679,19.985813891],[-98.921244708,19.986482649],[-98.921467769,19.986948048],[-98.921452981,19.9870048],[-98.921053308,19.98733411],[-98.92070703,19.987608879],[-98.920671691,19.987633539],[-98.9201948,19.988108352],[-98.919815859,19.98847168],[-98.919762416,19.988486183],[-98.919307647,19.988944571],[-98.918900048,19.989359891],[-98.918592616,19.98966428],[-98.918206,19.9900438],[-98.9178638,19.990391322],[-98.91755152,19.990706921],[-98.91706023,19.991219662],[-98.9166922,19.991531691],[-98.916020508,19.991599801],[-98.91597002,19.991614431],[-98.915942891,19.991626461],[-98.914699951,19.991688418],[-98.91462718,19.99167991],[-98.91454765,19.991694021],[-98.914145768,19.991729401],[-98.91340866,19.991805771],[-98.913219932,19.99183247],[-98.913067182,19.991854079],[-98.911705417,19.991900079],[-98.91166425,19.99188488],[-98.910960016,19.991719061]]]]},"properties":{"locality":"Santiago Tlajomulco","municipality":null,"official_key":"130750011","CVE_ENT":"13","CVE_MUN":"075","CVE_LOC":"0011","ambito":"RURAL","geometry_kind":"locality","source":"INEGI Gaia — Servicio vectorial del Marco Geoestadístico"}},{"type":"Feature","geometry":{"type":"MultiPolygon","crs":{"type":"name","properties":{"name":"EPSG:6365"}},"coordinates":[[[[-98.899963817,19.944266462],[-98.900206828,19.943355108],[-98.900379393,19.943422442],[-98.900363611,19.94429869],[-98.900301775,19.945076425],[-98.90040969,19.94509697],[-98.901897429,19.945478449],[-98.90116311,19.947076801],[-98.90114706,19.947085952],[-98.901191847,19.947169031],[-98.901203721,19.94719491],[-98.901289538,19.9474056],[-98.901302139,19.947430371],[-98.901471891,19.947697661],[-98.90147991,19.9477086],[-98.901501091,19.947737491],[-98.901780908,19.948066952],[-98.901790679,19.948079251],[-98.901813138,19.94810754],[-98.902061677,19.948399418],[-98.902069849,19.94840663],[-98.902097769,19.948431323],[-98.902352429,19.948751983],[-98.90236473,19.948785788],[-98.902406414,19.948824508],[-98.902394061,19.948936169],[-98.902393599,19.948957001],[-98.90239603,19.948979277],[-98.902401385,19.949002308],[-98.90254883,19.949139247],[-98.902665876,19.949270892],[-98.902718308,19.949334862],[-98.9029368,19.949618924],[-98.902983061,19.949686215],[-98.9030072,19.949717877],[-98.903022677,19.949750938],[-98.903345845,19.950104216],[-98.903682242,19.950370848],[-98.903758231,19.950431078],[-98.903807853,19.950487283],[-98.903881744,19.950570977],[-98.903887773,19.950577805],[-98.90403423,19.950743692],[-98.904016607,19.950851061],[-98.904012462,19.950857383],[-98.903950568,19.95093917],[-98.903882709,19.951032152],[-98.903748168,19.951218909],[-98.903742,19.95123303],[-98.90373372,19.951252032],[-98.90348512,19.951614031],[-98.90346708,19.95163818],[-98.903447477,19.951664432],[-98.903342351,19.951811432],[-98.903286381,19.951891139],[-98.903882168,19.952317538],[-98.903557309,19.95276877],[-98.902930919,19.95240577],[-98.902494169,19.952165711],[-98.90206483,19.95192654],[-98.90164729,19.95170278],[-98.901219719,19.95144911],[-98.900814049,19.95121594],[-98.900424249,19.95097392],[-98.900268752,19.950869952],[-98.900061619,19.950688351],[-98.899719019,19.95034548],[-98.899573349,19.95018545],[-98.899512678,19.950137231],[-98.899380108,19.950020923],[-98.899186017,19.94987488],[-98.898967309,19.949741722],[-98.898819647,19.94968997],[-98.898671309,19.949638691],[-98.89845529,19.949557201],[-98.898283049,19.94948218],[-98.898099829,19.949434292],[-98.89789369,19.949350662],[-98.897883339,19.94934522],[-98.89789009,19.949308401],[-98.898029321,19.94862557],[-98.898141859,19.948053352],[-98.89832878,19.9470234],[-98.898462289,19.94631768],[-98.89853003,19.946200137],[-98.898600819,19.946086678],[-98.898710904,19.946051427],[-98.898798507,19.945967698],[-98.898862362,19.945897126],[-98.898925901,19.94544408],[-98.898972156,19.945133326],[-98.899049108,19.945128075],[-98.899058761,19.944996965],[-98.899106078,19.944994743],[-98.899171769,19.944353243],[-98.899936619,19.944288411],[-98.899948973,19.944285891],[-98.899959081,19.944276916],[-98.899963817,19.944266462]]]]},"properties":{"locality":"Vicente Guerrero (San Javier)","municipality":null,"official_key":"130750013","CVE_ENT":"13","CVE_MUN":"075","CVE_LOC":"0013","ambito":"RURAL","geometry_kind":"locality","source":"INEGI Gaia — Servicio vectorial del Marco Geoestadístico"}},{"type":"Feature","geometry":{"type":"MultiPolygon","crs":{"type":"name","properties":{"name":"EPSG:6365"}},"coordinates":[[[[-98.92959143,19.97053175],[-98.92951595,19.97049989],[-98.92950348,19.9705144],[-98.92928325,19.97065863],[-98.92925751,19.97067315],[-98.9290168,19.970387499],[-98.92877766,19.97010371],[-98.928740121,19.970125049],[-98.92795283,19.97062703],[-98.927852151,19.970597539],[-98.92783252,19.97058589],[-98.92780917,19.97056185],[-98.92775389,19.97053846],[-98.92743775,19.97044354],[-98.9273908,19.97041375],[-98.92734778,19.97038595],[-98.92705611,19.97029289],[-98.92700892,19.97026783],[-98.92693235,19.97023591],[-98.92662255,19.97015275],[-98.92658577,19.97012971],[-98.92653546,19.97011982],[-98.92624045,19.97000063],[-98.92620177,19.96996449],[-98.92773949,19.96886325],[-98.927821431,19.968816354],[-98.927951446,19.9687664],[-98.928123615,19.968764446],[-98.92817315,19.96878511],[-98.92824334,19.9688144],[-98.92861105,19.96889308],[-98.928636739,19.968878091],[-98.9288262,19.968517352],[-98.92885017,19.96849115],[-98.92889554,19.96844154],[-98.9290042,19.96814317],[-98.9290288,19.96809372],[-98.929032862,19.968058215],[-98.929156431,19.967756031],[-98.92918183,19.96772257],[-98.92920323,19.96767438],[-98.92932695,19.96737942],[-98.9293492,19.96733492],[-98.92936837,19.96727568],[-98.92943537,19.967121679],[-98.92953632,19.96703425],[-98.92956835,19.96701308],[-98.92960343,19.96698538],[-98.9298222,19.96684398],[-98.92985568,19.96681858],[-98.92988338,19.96678997],[-98.93012109,19.96661326],[-98.93018997,19.96662263],[-98.93024631,19.96660782],[-98.930343921,19.96653703],[-98.9307092,19.96674205],[-98.93077803,19.96673146],[-98.930957785,19.966855662],[-98.931078154,19.966918554],[-98.931187231,19.967010015],[-98.93128986,19.96704814],[-98.93136102,19.96709429],[-98.932035982,19.967795818],[-98.9322898,19.968234861],[-98.93227738,19.96824564],[-98.93218189,19.96832848],[-98.932115817,19.96837857],[-98.93226974,19.96856715],[-98.93253414,19.96896118],[-98.93250874,19.96899446],[-98.93243602,19.96911519],[-98.93236958,19.96922549],[-98.93234691,19.96925003],[-98.93232098,19.96930712],[-98.93218711,19.96956023],[-98.93215106,19.96960714],[-98.93212948,19.96967072],[-98.93197718,19.96988217],[-98.93193589,19.96992065],[-98.93190085,19.96997492],[-98.93171515,19.970173],[-98.93168452,19.97020825],[-98.93165752,19.97025086],[-98.931608709,19.970315109],[-98.931668805,19.970476219],[-98.9317136,19.970596309],[-98.93166685,19.97069851],[-98.93163958,19.97073632],[-98.93161688,19.9707826],[-98.931595163,19.970822046],[-98.93148015,19.97103095],[-98.93143648,19.97107768],[-98.93140897,19.97111678],[-98.931376582,19.97114563],[-98.93122569,19.97130588],[-98.93119582,19.97134031],[-98.9311696,19.97138471],[-98.93097115,19.9715246],[-98.93093434,19.97157012],[-98.93088509,19.97161885],[-98.930863305,19.971637431],[-98.93069597,19.97178015],[-98.93065509,19.97180518],[-98.930159758,19.971212163],[-98.92959143,19.97053175]]]]},"properties":{"locality":"Lomas del Álamo","municipality":null,"official_key":"130750040","CVE_ENT":"13","CVE_MUN":"075","CVE_LOC":"0040","ambito":"RURAL","geometry_kind":"locality","source":"INEGI Gaia — Servicio vectorial del Marco Geoestadístico"}},{"type":"Feature","geometry":{"type":"MultiPolygon","crs":{"type":"name","properties":{"name":"EPSG:6365"}},"coordinates":[[[[-98.937228968,19.895316407],[-98.936332004,19.894872346],[-98.936149396,19.895222815],[-98.935997184,19.895537865],[-98.935522613,19.895339039],[-98.935649929,19.895001933],[-98.935793466,19.894665154],[-98.935931138,19.894318661],[-98.936066813,19.89399084],[-98.93619801,19.893661489],[-98.936318501,19.893356869],[-98.936039316,19.893232244],[-98.935032808,19.892793534],[-98.934528308,19.89257188],[-98.934524574,19.892570239],[-98.934584177,19.892381859],[-98.934733039,19.891968222],[-98.934810824,19.891766448],[-98.936286039,19.892354114],[-98.93678493,19.891463785],[-98.936264581,19.891231745],[-98.936377234,19.890994658],[-98.936277992,19.890954303],[-98.936886853,19.889807963],[-98.937155075,19.889756258],[-98.938700027,19.890424642],[-98.938855594,19.890495264],[-98.939071512,19.890047572],[-98.939147955,19.890023612],[-98.939260608,19.890016046],[-98.939378625,19.890041267],[-98.939755203,19.890165955],[-98.94000666,19.890295848],[-98.940171447,19.890280399],[-98.940781482,19.890042998],[-98.94078814,19.889733576],[-98.940791871,19.889560157],[-98.940792043,19.889552112],[-98.940778549,19.889333152],[-98.940989762,19.889263219],[-98.940959578,19.889046997],[-98.940942122,19.888950011],[-98.940829326,19.888686422],[-98.940882613,19.888686302],[-98.940899479,19.888691881],[-98.941111012,19.888767862],[-98.941681485,19.888972766],[-98.941682561,19.888973152],[-98.94168378,19.888973588],[-98.94226569,19.8891826],[-98.942291459,19.88920625],[-98.942164872,19.889409443],[-98.942096841,19.889518641],[-98.94202937,19.889626941],[-98.941641309,19.890219938],[-98.94160051,19.890282281],[-98.941794359,19.890630872],[-98.94180102,19.890642851],[-98.941849807,19.890669042],[-98.942944792,19.891256846],[-98.94295909,19.89126452],[-98.94298087,19.891284184],[-98.942992916,19.891295057],[-98.94299323,19.89129534],[-98.942985036,19.891309507],[-98.942971219,19.891333393],[-98.942924513,19.891414144],[-98.942790149,19.891646439],[-98.942519783,19.892113858],[-98.94249696,19.892153316],[-98.942455229,19.89222546],[-98.942436723,19.892252939],[-98.942430675,19.892261922],[-98.941877619,19.89308318],[-98.941422196,19.893770145],[-98.941223712,19.89409298],[-98.941035958,19.89441077],[-98.940864297,19.89471847],[-98.940772536,19.894882821],[-98.940695435,19.895020914],[-98.940516668,19.895341101],[-98.94043025,19.89549588],[-98.940334935,19.895666596],[-98.940301031,19.89572732],[-98.939085991,19.895086702],[-98.938768273,19.894924759],[-98.938175344,19.895773378],[-98.938066097,19.895716375],[-98.937228968,19.895316407]]]]},"properties":{"locality":"Bosques de Ibiza","municipality":null,"official_key":"130750041","CVE_ENT":"13","CVE_MUN":"075","CVE_LOC":"0041","ambito":"URBANO","geometry_kind":"locality","source":"INEGI Gaia — Servicio vectorial del Marco Geoestadístico"}},{"type":"Feature","geometry":{"type":"MultiPolygon","crs":{"type":"name","properties":{"name":"EPSG:6365"}},"coordinates":[[[[-98.89284048,19.943899866],[-98.892352319,19.945495873],[-98.892271852,19.945800952],[-98.891011213,19.944938658],[-98.891467189,19.943551919],[-98.891692496,19.943609911],[-98.892089462,19.943714546],[-98.8924757,19.943799011],[-98.89284048,19.943899866]]]]},"properties":{"locality":"El Crucero de San Javier","municipality":null,"official_key":"130750048","CVE_ENT":"13","CVE_MUN":"075","CVE_LOC":"0048","ambito":"RURAL","geometry_kind":"locality","source":"INEGI Gaia — Servicio vectorial del Marco Geoestadístico"}},{"type":"Feature","geometry":{"type":"Polygon","coordinates":[[[-98.904196,19.9555141],[-98.9041248,19.9531757],[-98.9055127,19.9538224],[-98.906202,19.9540531],[-98.9066453,19.9540967],[-98.9067433,19.9541063],[-98.9068478,19.9541165],[-98.9079043,19.954187],[-98.9089885,19.9542539],[-98.9100056,19.9543456],[-98.9101702,19.9542254],[-98.9106874,19.9538519],[-98.9110659,19.9535601],[-98.9115439,19.9532085],[-98.9120026,19.9528611],[-98.9123782,19.9525671],[-98.9127677,19.952268],[-98.9138564,19.9529138],[-98.915047,19.9536135],[-98.915214,19.9537032],[-98.9152064,19.9537569],[-98.9150839,19.9546218],[-98.9150063,19.9551973],[-98.9149656,19.9554891],[-98.9157797,19.9554386],[-98.915605,19.9557828],[-98.9155522,19.9558604],[-98.9154359,19.9560093],[-98.9153884,19.9563027],[-98.9153438,19.9569349],[-98.9153098,19.9572873],[-98.9153014,19.9576374],[-98.9153123,19.9578046],[-98.9153781,19.9579436],[-98.914657,19.9580034],[-98.9136597,19.9581139],[-98.9135729,19.9581237],[-98.9135103,19.958132],[-98.913437,19.9582452],[-98.9132324,19.9583499],[-98.9131182,19.9585022],[-98.9129944,19.9587544],[-98.9130182,19.959097],[-98.9130278,19.9595396],[-98.9130087,19.9595825],[-98.9128517,19.9596919],[-98.9127613,19.9598347],[-98.9125376,19.9602963],[-98.9124805,19.9604819],[-98.9123901,19.9607531],[-98.9122534,19.9612435],[-98.9139883,19.9625029],[-98.9136429,19.9629137],[-98.9134874,19.9631156],[-98.9133803,19.963246],[-98.9125494,19.9642948],[-98.9120823,19.9649189],[-98.9120202,19.9650017],[-98.9119725,19.9649713],[-98.9106043,19.964101],[-98.9096238,19.9635145],[-98.9087733,19.9630057],[-98.9087194,19.9628749],[-98.9085193,19.9624714],[-98.9084154,19.9621886],[-98.9080595,19.9614364],[-98.9078104,19.9606792],[-98.907506,19.9593265],[-98.9074848,19.9589921],[-98.9069407,19.9572609],[-98.9066198,19.9564881],[-98.904196,19.9555141]]]},"properties":{"locality":"SANTO TOMÁS","official_key":"1307500010001","CVE_ENT":"13","CVE_MUN":"075","CVE_LOC":"0001","CVE_ASEN":"0001","settlement_type":"BARRIO","source":"INEGI DCAH 2025"}},{"type":"Feature","geometry":{"type":"Polygon","coordinates":[[[-98.9215273,19.9580154],[-98.9205908,19.9577405],[-98.920206,19.9576331],[-98.9194643,19.957399],[-98.9189051,19.9572062],[-98.9188861,19.9571724],[-98.9191029,19.9567657],[-98.9191125,19.9567464],[-98.9193544,19.9561897],[-98.9196471,19.9555358],[-98.9198932,19.9550562],[-98.920455,19.9540826],[-98.920764,19.9543552],[-98.920946,19.9546442],[-98.9210069,19.9549101],[-98.9213416,19.955092],[-98.9219122,19.9553938],[-98.9220849,19.9556735],[-98.9224805,19.9558928],[-98.9229,19.9558288],[-98.9229588,19.9558259],[-98.9229589,19.9557222],[-98.9230071,19.9556213],[-98.9233664,19.9554811],[-98.9234332,19.955455],[-98.9236462,19.9558967],[-98.9236386,19.9563231],[-98.9236234,19.9564049],[-98.9240422,19.9567609],[-98.9239546,19.9568237],[-98.9239378,19.9568074],[-98.9235341,19.9565853],[-98.9233795,19.9572362],[-98.9231899,19.9578932],[-98.9228113,19.9577961],[-98.9227145,19.9587899],[-98.9226536,19.9587314],[-98.9224609,19.9585185],[-98.9222739,19.9583362],[-98.9222177,19.9582975],[-98.9221051,19.958238],[-98.9219577,19.9581493],[-98.9219091,19.9581256],[-98.9215273,19.9580154]]]},"properties":{"locality":"CENTRO","official_key":"1307500010003","CVE_ENT":"13","CVE_MUN":"075","CVE_LOC":"0001","CVE_ASEN":"0003","settlement_type":"COLONIA","source":"INEGI DCAH 2025"}},{"type":"Feature","geometry":{"type":"Polygon","coordinates":[[[-98.9136429,19.9629137],[-98.9139883,19.9625029],[-98.9141284,19.9623479],[-98.9144495,19.9620079],[-98.9146588,19.9618019],[-98.9147455,19.9617144],[-98.9152885,19.9613466],[-98.9155037,19.9611434],[-98.915987,19.9606361],[-98.9170738,19.959494],[-98.9174694,19.9590085],[-98.9180701,19.9582536],[-98.9185462,19.9576637],[-98.9189051,19.9572062],[-98.9194643,19.957399],[-98.920206,19.9576331],[-98.9205908,19.9577405],[-98.9215273,19.9580154],[-98.9219091,19.9581256],[-98.9219577,19.9581493],[-98.9221051,19.958238],[-98.9222177,19.9582975],[-98.9222739,19.9583362],[-98.9224609,19.9585185],[-98.9226536,19.9587314],[-98.9227145,19.9587899],[-98.9227096,19.9588672],[-98.9226891,19.9590705],[-98.9226018,19.9594578],[-98.9225577,19.9596917],[-98.9225336,19.9597486],[-98.9224339,19.9602072],[-98.9230458,19.9608965],[-98.9233306,19.9612127],[-98.9234341,19.9612714],[-98.9236749,19.9614384],[-98.9236008,19.9615119],[-98.9232298,19.9619944],[-98.9226142,19.9627916],[-98.9223684,19.9631117],[-98.922246,19.9630412],[-98.9221356,19.9629287],[-98.9220216,19.9628196],[-98.9219018,19.9627112],[-98.9215194,19.9627898],[-98.9210432,19.9628821],[-98.920758,19.9628733],[-98.9206161,19.9628374],[-98.9204428,19.9627889],[-98.9203396,19.9627408],[-98.9201014,19.962729],[-98.9200262,19.9627253],[-98.9203071,19.9631788],[-98.9203492,19.9632812],[-98.9203036,19.9633697],[-98.9201292,19.9634849],[-98.9195269,19.9638829],[-98.9194057,19.9636897],[-98.9193246,19.9636194],[-98.9189324,19.9632795],[-98.9190815,19.9630274],[-98.9194399,19.9624471],[-98.9196048,19.9622188],[-98.9196404,19.9621696],[-98.919183,19.961985],[-98.9189882,19.9619468],[-98.9186375,19.9621052],[-98.9184039,19.9622171],[-98.9182689,19.9623664],[-98.9180024,19.9624347],[-98.9177952,19.9625773],[-98.9176872,19.9625772],[-98.9174022,19.962526],[-98.9172103,19.9626471],[-98.9170551,19.9628231],[-98.9168649,19.963021],[-98.9167059,19.9631127],[-98.9164226,19.9632666],[-98.9159236,19.9635257],[-98.9157224,19.9637457],[-98.9156596,19.963796],[-98.9149776,19.9640236],[-98.9137356,19.9644406],[-98.9124936,19.9648576],[-98.9120202,19.9650017],[-98.9120823,19.9649189],[-98.9125494,19.9642948],[-98.9133803,19.963246],[-98.9134874,19.9631156],[-98.9136429,19.9629137]]]},"properties":{"locality":"EL CERRITO","official_key":"1307500010004","CVE_ENT":"13","CVE_MUN":"075","CVE_LOC":"0001","CVE_ASEN":"0004","settlement_type":"COLONIA","source":"INEGI DCAH 2025"}},{"type":"Feature","geometry":{"type":"Polygon","coordinates":[[[-98.9280574,19.9594826],[-98.9278974,19.9593918],[-98.9274818,19.9594329],[-98.9271765,19.9594657],[-98.9269619,19.959304],[-98.9269261,19.9592825],[-98.9264778,19.9590126],[-98.9255775,19.959443],[-98.9255123,19.9593624],[-98.9253596,19.9591966],[-98.925113,19.9589681],[-98.9247122,19.9586364],[-98.9243072,19.9583098],[-98.9242627,19.958274],[-98.9242348,19.958258],[-98.9241414,19.9582041],[-98.924095,19.9581871],[-98.9239457,19.958131],[-98.9236364,19.958038],[-98.9233029,19.9579287],[-98.9231899,19.9578932],[-98.9233795,19.9572362],[-98.9235341,19.9565853],[-98.9239378,19.9568074],[-98.9239546,19.9568237],[-98.9240422,19.9567609],[-98.9236234,19.9564049],[-98.9236386,19.9563231],[-98.9236462,19.9558967],[-98.9234332,19.955455],[-98.9234975,19.9554184],[-98.923723,19.9552898],[-98.9243283,19.9546017],[-98.9244797,19.9544659],[-98.9245977,19.9543327],[-98.9246563,19.9542923],[-98.9247417,19.9542387],[-98.9252915,19.9540786],[-98.9253811,19.954066],[-98.9255019,19.9540073],[-98.9258933,19.9537486],[-98.9261884,19.9535587],[-98.9262547,19.9535115],[-98.9263095,19.9534661],[-98.9264714,19.9533305],[-98.9265757,19.953244],[-98.9281948,19.9538294],[-98.9285155,19.9531602],[-98.9287616,19.9526346],[-98.9289628,19.9521829],[-98.9293375,19.9520441],[-98.9295813,19.9519383],[-98.9300072,19.9517742],[-98.9303288,19.9516444],[-98.9306522,19.9515243],[-98.9310944,19.9513567],[-98.931516,19.9512021],[-98.9315498,19.9512678],[-98.931612,19.9513375],[-98.9328184,19.9521012],[-98.9326874,19.9523375],[-98.9326688,19.9524851],[-98.9325565,19.952621],[-98.9325192,19.9529458],[-98.9324058,19.9532515],[-98.9321298,19.9538482],[-98.9320963,19.9541671],[-98.9321048,19.9544541],[-98.9319702,19.954805],[-98.9319554,19.9550118],[-98.9313941,19.9562279],[-98.9308441,19.9574193],[-98.9308384,19.9574311],[-98.9301662,19.9588178],[-98.9298183,19.9594616],[-98.9299524,19.9594971],[-98.9303026,19.9596423],[-98.9302048,19.9597726],[-98.9300538,19.959823],[-98.9298982,19.9598292],[-98.929733,19.9598682],[-98.9296181,19.959911],[-98.9293741,19.9599214],[-98.9292403,19.9599273],[-98.9290625,19.9599327],[-98.9287015,19.9599104],[-98.92856,19.9598565],[-98.9282585,19.9596193],[-98.9280574,19.9594826]]]},"properties":{"locality":"EPITACIO MENDOZA","official_key":"1307500010005","CVE_ENT":"13","CVE_MUN":"075","CVE_LOC":"0001","CVE_ASEN":"0005","settlement_type":"COLONIA","source":"INEGI DCAH 2025"}},{"type":"Feature","geometry":{"type":"Polygon","coordinates":[[[-98.917011,19.9554028],[-98.9180364,19.9553742],[-98.9196471,19.9555358],[-98.9193544,19.9561897],[-98.9191125,19.9567464],[-98.9191029,19.9567657],[-98.9188861,19.9571724],[-98.9189051,19.9572062],[-98.9185462,19.9576637],[-98.9180701,19.9582536],[-98.9174694,19.9590085],[-98.9170738,19.959494],[-98.915987,19.9606361],[-98.9155037,19.9611434],[-98.9152885,19.9613466],[-98.9147455,19.9617144],[-98.9146588,19.9618019],[-98.9144495,19.9620079],[-98.9141284,19.9623479],[-98.9139883,19.9625029],[-98.9122534,19.9612435],[-98.9123901,19.9607531],[-98.9124805,19.9604819],[-98.9125376,19.9602963],[-98.9127613,19.9598347],[-98.9128517,19.9596919],[-98.9130087,19.9595825],[-98.9130278,19.9595396],[-98.9130182,19.959097],[-98.9129944,19.9587544],[-98.9131182,19.9585022],[-98.9132324,19.9583499],[-98.913437,19.9582452],[-98.9135103,19.958132],[-98.9135729,19.9581237],[-98.9136597,19.9581139],[-98.914657,19.9580034],[-98.9153781,19.9579436],[-98.9153123,19.9578046],[-98.9153014,19.9576374],[-98.9153098,19.9572873],[-98.9153438,19.9569349],[-98.9153884,19.9563027],[-98.9154359,19.9560093],[-98.9155522,19.9558604],[-98.915605,19.9557828],[-98.9157797,19.9554386],[-98.917011,19.9554028]]]},"properties":{"locality":"INDEPENDENCIA","official_key":"1307500010006","CVE_ENT":"13","CVE_MUN":"075","CVE_LOC":"0001","CVE_ASEN":"0006","settlement_type":"COLONIA","source":"INEGI DCAH 2025"}},{"type":"Feature","geometry":{"type":"Polygon","coordinates":[[[-98.9280893,19.9642786],[-98.9278128,19.9641872],[-98.9277454,19.9642045],[-98.9274521,19.9640586],[-98.9272036,19.9639038],[-98.9268757,19.9636986],[-98.9263648,19.963346],[-98.9260126,19.9630863],[-98.9258486,19.9629643],[-98.92533,19.9626084],[-98.9253086,19.962596],[-98.925142,19.9625067],[-98.9242304,19.9618377],[-98.9236749,19.9614384],[-98.9234341,19.9612714],[-98.9233306,19.9612127],[-98.9230458,19.9608965],[-98.9224339,19.9602072],[-98.9225336,19.9597486],[-98.9225577,19.9596917],[-98.9226018,19.9594578],[-98.9226891,19.9590705],[-98.9227096,19.9588672],[-98.9227145,19.9587899],[-98.9228113,19.9577961],[-98.9231899,19.9578932],[-98.9233029,19.9579287],[-98.9236364,19.958038],[-98.9239457,19.958131],[-98.924095,19.9581871],[-98.9241414,19.9582041],[-98.9242348,19.958258],[-98.9242627,19.958274],[-98.9243072,19.9583098],[-98.9247122,19.9586364],[-98.925113,19.9589681],[-98.9253596,19.9591966],[-98.9255123,19.9593624],[-98.9255775,19.959443],[-98.9264778,19.9590126],[-98.9269261,19.9592825],[-98.9269619,19.959304],[-98.926929,19.9594446],[-98.9269545,19.9598438],[-98.9270353,19.960128],[-98.9271827,19.9605905],[-98.9272514,19.9608182],[-98.927257,19.9610388],[-98.9273532,19.9612072],[-98.9273411,19.9615722],[-98.9275364,19.9617592],[-98.9278746,19.9620573],[-98.9280132,19.9622033],[-98.9281275,19.9623063],[-98.928287,19.9623792],[-98.9284519,19.9623642],[-98.9287283,19.9624673],[-98.9290177,19.962767],[-98.9292152,19.9630645],[-98.9295273,19.9635029],[-98.9295917,19.9637346],[-98.9295764,19.9639152],[-98.9295508,19.9641519],[-98.9295092,19.964331],[-98.9293178,19.9643602],[-98.9291403,19.9643947],[-98.9289573,19.9644239],[-98.9288039,19.9644039],[-98.9286504,19.9643838],[-98.9283508,19.9643324],[-98.9280893,19.9642786]]]},"properties":{"locality":"SATÉLITE","official_key":"1307500010008","CVE_ENT":"13","CVE_MUN":"075","CVE_LOC":"0001","CVE_ASEN":"0008","settlement_type":"COLONIA","source":"INEGI DCAH 2025"}},{"type":"Feature","geometry":{"type":"Polygon","coordinates":[[[-98.9127677,19.952268],[-98.9131261,19.9519896],[-98.9133062,19.9518494],[-98.9134017,19.951775],[-98.9134164,19.9517635],[-98.9135129,19.9516884],[-98.9137458,19.9514945],[-98.9141037,19.9511914],[-98.9144645,19.9509482],[-98.9146264,19.9508245],[-98.9147953,19.9506954],[-98.9149234,19.9505986],[-98.9150655,19.9502438],[-98.9155138,19.9504477],[-98.916639,19.9509283],[-98.9167421,19.9507212],[-98.9168173,19.9505398],[-98.9168778,19.9503804],[-98.9171969,19.9504895],[-98.9174964,19.9505916],[-98.9179368,19.9498351],[-98.9184836,19.9489747],[-98.9189062,19.9483562],[-98.9190389,19.9481571],[-98.9195041,19.948621],[-98.9200348,19.9491361],[-98.9202058,19.9493823],[-98.9208307,19.9498081],[-98.9212098,19.9498622],[-98.9215837,19.9498818],[-98.9215239,19.9504106],[-98.921551,19.9505408],[-98.9216443,19.9506626],[-98.9215735,19.950899],[-98.9215164,19.9510844],[-98.9214849,19.9511439],[-98.9214516,19.951201],[-98.9212089,19.9517903],[-98.9211587,19.9518861],[-98.921162,19.9519894],[-98.9212116,19.95237],[-98.9211749,19.9525086],[-98.9208936,19.95315],[-98.9207905,19.9533702],[-98.9206976,19.953558],[-98.920602,19.9537739],[-98.9205202,19.9539315],[-98.920455,19.9540826],[-98.9198932,19.9550562],[-98.9196471,19.9555358],[-98.9180364,19.9553742],[-98.917011,19.9554028],[-98.9157797,19.9554386],[-98.9149656,19.9554891],[-98.9150063,19.9551973],[-98.9150839,19.9546218],[-98.9152064,19.9537569],[-98.915214,19.9537032],[-98.915047,19.9536135],[-98.9138564,19.9529138],[-98.9127677,19.952268]]]},"properties":{"locality":"EL TILDIO","official_key":"1307500010009","CVE_ENT":"13","CVE_MUN":"075","CVE_LOC":"0001","CVE_ASEN":"0009","settlement_type":"COLONIA","source":"INEGI DCAH 2025"}},{"type":"Feature","geometry":{"type":"Polygon","coordinates":[[[-98.9211587,19.9518861],[-98.9212089,19.9517903],[-98.9214516,19.951201],[-98.9214849,19.9511439],[-98.9215198,19.9511624],[-98.9215526,19.9511797],[-98.9221733,19.9515074],[-98.9227947,19.9518264],[-98.9231893,19.9516166],[-98.9235075,19.9516164],[-98.9236707,19.9516393],[-98.9240683,19.9516274],[-98.9242641,19.951617],[-98.9245747,19.9516425],[-98.924698,19.9516611],[-98.9248511,19.9514331],[-98.9251485,19.9515183],[-98.9253884,19.9516591],[-98.9255598,19.9517418],[-98.9258112,19.9518533],[-98.9259522,19.9520081],[-98.9260172,19.9523826],[-98.9261317,19.9528471],[-98.926256,19.9533987],[-98.9262547,19.9535115],[-98.9261884,19.9535587],[-98.9258933,19.9537486],[-98.9255019,19.9540073],[-98.9253811,19.954066],[-98.9252915,19.9540786],[-98.9247417,19.9542387],[-98.9246563,19.9542923],[-98.9245977,19.9543327],[-98.9244797,19.9544659],[-98.9243283,19.9546017],[-98.923723,19.9552898],[-98.9234975,19.9554184],[-98.9234332,19.955455],[-98.9233664,19.9554811],[-98.9230071,19.9556213],[-98.9229589,19.9557222],[-98.9229588,19.9558259],[-98.9229,19.9558288],[-98.9224805,19.9558928],[-98.9220849,19.9556735],[-98.9219122,19.9553938],[-98.9213416,19.955092],[-98.9210069,19.9549101],[-98.920946,19.9546442],[-98.920764,19.9543552],[-98.920455,19.9540826],[-98.9205202,19.9539315],[-98.920602,19.9537739],[-98.9206976,19.953558],[-98.9207905,19.9533702],[-98.9208936,19.95315],[-98.9211749,19.9525086],[-98.9212116,19.95237],[-98.921162,19.9519894],[-98.9211587,19.9518861]]]},"properties":{"locality":"2 DE ABRIL","official_key":"1307500010010","CVE_ENT":"13","CVE_MUN":"075","CVE_LOC":"0001","CVE_ASEN":"0010","settlement_type":"COLONIA","source":"INEGI DCAH 2025"}},{"type":"Feature","geometry":{"type":"Polygon","coordinates":[[[-98.9203492,19.9632812],[-98.9203071,19.9631788],[-98.9200262,19.9627253],[-98.9201014,19.962729],[-98.9203396,19.9627408],[-98.9204428,19.9627889],[-98.9206161,19.9628374],[-98.920758,19.9628733],[-98.9210432,19.9628821],[-98.9215194,19.9627898],[-98.9219018,19.9627112],[-98.9220216,19.9628196],[-98.9221356,19.9629287],[-98.922246,19.9630412],[-98.9223684,19.9631117],[-98.9226142,19.9627916],[-98.9232298,19.9619944],[-98.9236008,19.9615119],[-98.9236749,19.9614384],[-98.9242304,19.9618377],[-98.925142,19.9625067],[-98.9253086,19.962596],[-98.92533,19.9626084],[-98.9254754,19.9640522],[-98.9255254,19.9645432],[-98.9255105,19.9645728],[-98.9255943,19.9655199],[-98.9259768,19.9671811],[-98.9253701,19.9673247],[-98.9247335,19.9676461],[-98.9241514,19.9679538],[-98.9229266,19.9685347],[-98.9221682,19.9670878],[-98.921628,19.9660523],[-98.9210244,19.9644783],[-98.9203492,19.9632812]]]},"properties":{"locality":"LA COLMENA","official_key":"1307500010013","CVE_ENT":"13","CVE_MUN":"075","CVE_LOC":"0001","CVE_ASEN":"0013","settlement_type":"COLONIA","source":"INEGI DCAH 2025"}},{"type":"Feature","geometry":{"type":"Polygon","coordinates":[[[-98.9267327,19.9671768],[-98.9264106,19.9671477],[-98.9259768,19.9671811],[-98.9255943,19.9655199],[-98.9255105,19.9645728],[-98.9255254,19.9645432],[-98.9254754,19.9640522],[-98.92533,19.9626084],[-98.9258486,19.9629643],[-98.9260126,19.9630863],[-98.9263648,19.963346],[-98.9268757,19.9636986],[-98.9272036,19.9639038],[-98.9274521,19.9640586],[-98.9277454,19.9642045],[-98.9282477,19.9647894],[-98.928253,19.9647953],[-98.9283198,19.9648701],[-98.9282487,19.9651172],[-98.9282891,19.9651331],[-98.928271,19.9651949],[-98.9282628,19.965223],[-98.9282054,19.9654191],[-98.9281871,19.9654753],[-98.9280936,19.9657614],[-98.9280758,19.9658158],[-98.9280632,19.9658543],[-98.9278789,19.966401],[-98.9277617,19.9667809],[-98.9276047,19.9672558],[-98.9276047,19.9672559],[-98.9267327,19.9671768]]]},"properties":{"locality":"LA PALMA","official_key":"1307500010014","CVE_ENT":"13","CVE_MUN":"075","CVE_LOC":"0001","CVE_ASEN":"0014","settlement_type":"COLONIA","source":"INEGI DCAH 2025"}},{"type":"Feature","geometry":{"type":"Polygon","coordinates":[[[-98.9076019,19.9480448],[-98.9077535,19.9477365],[-98.9079074,19.9473914],[-98.9080568,19.947064],[-98.9082151,19.9467216],[-98.9083649,19.9464024],[-98.9097305,19.9469454],[-98.9101337,19.9471062],[-98.9104932,19.9472514],[-98.9108509,19.9473872],[-98.9111993,19.9475171],[-98.9115469,19.9476479],[-98.9119501,19.9478026],[-98.9124028,19.9479906],[-98.9125742,19.9480772],[-98.9126565,19.9480586],[-98.9132627,19.9466966],[-98.9137458,19.9514945],[-98.9135129,19.9516884],[-98.9134164,19.9517635],[-98.9097701,19.951754],[-98.9098358,19.9517075],[-98.9099982,19.9515927],[-98.9102765,19.9513725],[-98.9108625,19.9500758],[-98.9104619,19.9499075],[-98.9101043,19.9497533],[-98.9097529,19.9496098],[-98.9094003,19.9494617],[-98.9090594,19.9493185],[-98.9086757,19.9491604],[-98.9073459,19.9486019],[-98.907447,19.9483637],[-98.9076019,19.9480448]]]},"properties":{"locality":"LOS AMORES DE DON JUAN","official_key":"1307500010015","CVE_ENT":"13","CVE_MUN":"075","CVE_LOC":"0001","CVE_ASEN":"0015","settlement_type":"FRACCIONAMIENTO","source":"INEGI DCAH 2025"}},{"type":"Feature","geometry":{"type":"Polygon","coordinates":[[[-98.9265757,19.953244],[-98.9267162,19.9531421],[-98.9269233,19.9529904],[-98.9271471,19.9528417],[-98.9273286,19.9527396],[-98.9276338,19.9526991],[-98.9277859,19.9526375],[-98.9281719,19.9524898],[-98.9284871,19.9523663],[-98.9288384,19.9522338],[-98.9289628,19.9521829],[-98.9287616,19.9526346],[-98.9285155,19.9531602],[-98.9281948,19.9538294],[-98.9265757,19.953244]]]},"properties":{"locality":"EL TEJOCOTE","official_key":"1307500010016","CVE_ENT":"13","CVE_MUN":"075","CVE_LOC":"0001","CVE_ASEN":"0016","settlement_type":"COLONIA","source":"INEGI DCAH 2025"}},{"type":"Feature","geometry":{"type":"Polygon","coordinates":[[[-98.9249144,19.8971822],[-98.9249202,19.8971059],[-98.9250391,19.8968064],[-98.9239101,19.8964019],[-98.9230999,19.8961137],[-98.9233445,19.8957962],[-98.9242688,19.8945963],[-98.9244573,19.8942523],[-98.9251815,19.8945103],[-98.9253512,19.8938097],[-98.9255021,19.8931897],[-98.9252041,19.8931451],[-98.9251523,19.8928375],[-98.9251458,19.8927993],[-98.9255694,19.8928202],[-98.9255903,19.8928273],[-98.9259967,19.8929312],[-98.9263997,19.8930405],[-98.9266333,19.8931039],[-98.9268132,19.8931535],[-98.9272945,19.8932862],[-98.9278398,19.8937444],[-98.9278977,19.8937932],[-98.9279816,19.8938623],[-98.9282525,19.8940802],[-98.9284511,19.8942468],[-98.9284761,19.8942681],[-98.9286301,19.8943974],[-98.9288808,19.8946053],[-98.929041,19.8947308],[-98.929131,19.8948111],[-98.9295635,19.8951694],[-98.9305105,19.8959212],[-98.9304414,19.8959982],[-98.9301524,19.8963397],[-98.929799,19.8967098],[-98.9291864,19.897379],[-98.9285355,19.8980845],[-98.9279094,19.8987652],[-98.9278846,19.8987922],[-98.9272715,19.8994377],[-98.9266641,19.9000911],[-98.9264,19.8998717],[-98.9257867,19.899448],[-98.9252484,19.8990503],[-98.9252293,19.8989855],[-98.9254173,19.8981755],[-98.9256084,19.8973517],[-98.9251221,19.8972372],[-98.9249144,19.8971822]]]},"properties":{"locality":"GENERAL FELIPE ÁNGELES","official_key":"1307500020001","CVE_ENT":"13","CVE_MUN":"075","CVE_LOC":"0002","CVE_ASEN":"0001","settlement_type":"COLONIA","source":"INEGI DCAH 2025"}},{"type":"Feature","geometry":{"type":"Polygon","coordinates":[[[-98.9255694,19.8928202],[-98.9256515,19.8922096],[-98.9257053,19.8918494],[-98.9257752,19.8915191],[-98.9258216,19.8911806],[-98.9258742,19.890844],[-98.9259178,19.890534],[-98.9259707,19.8901459],[-98.9254982,19.8900738],[-98.9252129,19.89002],[-98.9250677,19.8900249],[-98.9251405,19.8891005],[-98.9260503,19.8895308],[-98.927191,19.8897355],[-98.9276228,19.8898147],[-98.928301,19.8899035],[-98.9286164,19.8899722],[-98.9290784,19.8900346],[-98.9295827,19.8901206],[-98.9301008,19.8901888],[-98.9301437,19.8901923],[-98.9306282,19.8902689],[-98.9306128,19.8902813],[-98.9305819,19.8903345],[-98.9303667,19.8905872],[-98.9303433,19.8906145],[-98.9300513,19.8909818],[-98.9297048,19.8914116],[-98.9295205,19.8916478],[-98.9296634,19.8917333],[-98.9299608,19.8918533],[-98.9300773,19.8919052],[-98.9304241,19.892075],[-98.930461,19.892076],[-98.9307908,19.8922335],[-98.930872,19.8922589],[-98.9310856,19.892354],[-98.9311077,19.8923639],[-98.9313127,19.8924927],[-98.9313678,19.8925261],[-98.9315214,19.8926451],[-98.9315616,19.8926769],[-98.9319341,19.8929708],[-98.932611,19.8935082],[-98.9316508,19.8945713],[-98.9316035,19.8946838],[-98.9315897,19.8947166],[-98.9309307,19.8954521],[-98.9305105,19.8959212],[-98.9295635,19.8951694],[-98.929131,19.8948111],[-98.929041,19.8947308],[-98.9288808,19.8946053],[-98.9286301,19.8943974],[-98.9284761,19.8942681],[-98.9284511,19.8942468],[-98.9282525,19.8940802],[-98.9279816,19.8938623],[-98.9278977,19.8937932],[-98.9278398,19.8937444],[-98.9272945,19.8932862],[-98.9268132,19.8931535],[-98.9266333,19.8931039],[-98.9263997,19.8930405],[-98.9259967,19.8929312],[-98.9255903,19.8928273],[-98.9255694,19.8928202]]]},"properties":{"locality":"GENERAL FELIPE ÁNGELES","official_key":"1307500020002","CVE_ENT":"13","CVE_MUN":"075","CVE_LOC":"0002","CVE_ASEN":"0002","settlement_type":"AMPLIACIÓN","source":"INEGI DCAH 2025"}},{"type":"Feature","geometry":{"type":"Polygon","coordinates":[[[-98.924473,19.897647],[-98.922456,19.8969814],[-98.9226917,19.8967074],[-98.922737,19.8966948],[-98.9227564,19.8966877],[-98.9229646,19.8963656],[-98.9230218,19.896334],[-98.9230795,19.8961714],[-98.9230999,19.8961137],[-98.9239101,19.8964019],[-98.9250391,19.8968064],[-98.9249202,19.8971059],[-98.9249144,19.8971822],[-98.9248081,19.897453],[-98.9247026,19.8977216],[-98.924473,19.897647]]]},"properties":{"locality":"EL JAGÜEY","official_key":"1307500020003","CVE_ENT":"13","CVE_MUN":"075","CVE_LOC":"0002","CVE_ASEN":"0003","settlement_type":"AMPLIACIÓN","source":"INEGI DCAH 2025"}},{"type":"Feature","geometry":{"type":"Polygon","coordinates":[[[-98.9295205,19.8916478],[-98.9297048,19.8914116],[-98.9300513,19.8909818],[-98.9303433,19.8906145],[-98.9303667,19.8905872],[-98.9305819,19.8903345],[-98.9306128,19.8902813],[-98.9306282,19.8902689],[-98.9306873,19.8902569],[-98.9323469,19.8896786],[-98.9322998,19.8897747],[-98.9324838,19.8897107],[-98.9320921,19.8905509],[-98.9322556,19.8905799],[-98.9321611,19.8907925],[-98.9319965,19.8911625],[-98.9318371,19.89151],[-98.9317621,19.8915068],[-98.9316803,19.8917262],[-98.9317364,19.8920922],[-98.9317432,19.892155],[-98.9315214,19.8926451],[-98.9313678,19.8925261],[-98.9313127,19.8924927],[-98.9311077,19.8923639],[-98.9310856,19.892354],[-98.930872,19.8922589],[-98.9307908,19.8922335],[-98.930461,19.892076],[-98.9304241,19.892075],[-98.9300773,19.8919052],[-98.9299608,19.8918533],[-98.9296634,19.8917333],[-98.9295205,19.8916478]]]},"properties":{"locality":"LOS COYOTES","official_key":"1307500020004","CVE_ENT":"13","CVE_MUN":"075","CVE_LOC":"0002","CVE_ASEN":"0004","settlement_type":"AMPLIACIÓN","source":"INEGI DCAH 2025"}},{"type":"Feature","geometry":{"type":"Polygon","coordinates":[[[-98.9238612,19.8900047],[-98.9238408,19.8899299],[-98.9238429,19.889861],[-98.923847,19.8897988],[-98.923866,19.88973],[-98.923904,19.8896731],[-98.9239961,19.8895895],[-98.9240515,19.8895483],[-98.9240872,19.8895014],[-98.9241157,19.8894377],[-98.9241192,19.8893759],[-98.9240938,19.889308],[-98.9240753,19.8892728],[-98.9240865,19.8892077],[-98.924109,19.8891228],[-98.9241378,19.8890488],[-98.9241794,19.8889663],[-98.9241768,19.8889125],[-98.9241555,19.8888551],[-98.9241074,19.8887809],[-98.9240864,19.8886929],[-98.9240456,19.8885825],[-98.9251405,19.8891005],[-98.9250677,19.8900249],[-98.9252129,19.89002],[-98.9254982,19.8900738],[-98.9259707,19.8901459],[-98.9259178,19.890534],[-98.9258742,19.890844],[-98.9258216,19.8911806],[-98.9257752,19.8915191],[-98.9257053,19.8918494],[-98.9256515,19.8922096],[-98.9255694,19.8928202],[-98.9251458,19.8927993],[-98.9251986,19.8921377],[-98.9246501,19.8920714],[-98.9246433,19.8920087],[-98.9246031,19.8918895],[-98.924595,19.8917653],[-98.9245988,19.8916714],[-98.9244801,19.8914309],[-98.924431,19.8912583],[-98.9243557,19.8911601],[-98.9241578,19.8909647],[-98.9240538,19.8908138],[-98.9239444,19.8906299],[-98.9237368,19.8903166],[-98.9238098,19.8901758],[-98.9238612,19.8900047]]]},"properties":{"locality":"LOMAS DE LOS ÁNGELES","official_key":"1307500020005","CVE_ENT":"13","CVE_MUN":"075","CVE_LOC":"0002","CVE_ASEN":"0005","settlement_type":"COLONIA","source":"INEGI DCAH 2025"}},{"type":"Feature","geometry":{"type":"Polygon","coordinates":[[[-98.8907196,19.8997482],[-98.8898374,19.8997174],[-98.8897472,19.8997707],[-98.8896833,19.8998017],[-98.8896485,19.899826],[-98.8894556,19.8998591],[-98.8892318,19.8998825],[-98.8887658,19.8999311],[-98.8887158,19.8999245],[-98.8886577,19.8999167],[-98.8885708,19.8998865],[-98.8884475,19.899863],[-98.8875992,19.8997598],[-98.887307,19.8997331],[-98.8870643,19.8997102],[-98.8868486,19.8996982],[-98.8867957,19.8997307],[-98.8867294,19.8997436],[-98.886688,19.8997322],[-98.886618,19.8996622],[-98.8865369,19.8996173],[-98.8865298,19.8995606],[-98.8865497,19.8995128],[-98.8865225,19.8994202],[-98.886451,19.8994202],[-98.8863515,19.8994267],[-98.8863545,19.8994226],[-98.8863604,19.8994144],[-98.8863666,19.8994058],[-98.8863735,19.8993963],[-98.8863752,19.899394],[-98.8863792,19.8993884],[-98.8864122,19.8993428],[-98.8864585,19.8992787],[-98.8864973,19.8992252],[-98.8865346,19.8991736],[-98.8865501,19.8991522],[-98.8865611,19.899137],[-98.886587,19.8991012],[-98.8866316,19.8990395],[-98.8866558,19.899006],[-98.8866813,19.8989708],[-98.8866966,19.8989496],[-98.8867204,19.8989168],[-98.8867311,19.8989019],[-98.8868948,19.8987707],[-98.8877185,19.8977978],[-98.888071,19.8973762],[-98.8881458,19.8972828],[-98.8884034,19.8969604],[-98.8885629,19.8968109],[-98.88862,19.8967472],[-98.8888263,19.8965283],[-98.8889166,19.8964538],[-98.8889526,19.8964691],[-98.8889581,19.8964956],[-98.8889691,19.8965235],[-98.8894432,19.8968273],[-98.889809,19.8970728],[-98.8898116,19.8970746],[-98.8898446,19.8970978],[-98.8898446,19.8970978],[-98.8898446,19.8970979],[-98.8900375,19.8972337],[-98.8907945,19.8977877],[-98.8912007,19.8980624],[-98.8914602,19.8982379],[-98.8924689,19.8989701],[-98.8930188,19.8993634],[-98.893149,19.8994684],[-98.8930919,19.8994866],[-98.8930155,19.8995349],[-98.892975,19.8995736],[-98.8929104,19.8995814],[-98.8928459,19.8996647],[-98.8923563,19.9003914],[-98.8923441,19.9004055],[-98.8922558,19.9003743],[-98.8913692,19.9001438],[-98.8913367,19.9001346],[-98.8913085,19.9000923],[-98.8912934,19.9000677],[-98.8912923,19.9000319],[-98.8912999,19.8999634],[-98.8913539,19.8998811],[-98.8913704,19.8997763],[-98.8907196,19.8997482]]]},"properties":{"locality":"LAS PINTAS","official_key":"1307500090001","CVE_ENT":"13","CVE_MUN":"075","CVE_LOC":"0009","CVE_ASEN":"0001","settlement_type":"COLONIA","source":"INEGI DCAH 2025"}},{"type":"Feature","geometry":{"type":"Polygon","coordinates":[[[-98.9089056,19.9000706],[-98.9089488,19.9000488],[-98.9093035,19.9000774],[-98.9094241,19.9000791],[-98.9102685,19.9001284],[-98.9104436,19.9001624],[-98.910568,19.9001926],[-98.9108712,19.9002755],[-98.910973,19.9003203],[-98.9122462,19.9008599],[-98.9122378,19.9008939],[-98.9118494,19.901866],[-98.9117989,19.9019237],[-98.9116119,19.9020316],[-98.911437,19.9024424],[-98.9112417,19.9025161],[-98.9107618,19.9025883],[-98.9105347,19.902669],[-98.9103094,19.9027456],[-98.9101762,19.9027996],[-98.9100652,19.9028736],[-98.9099045,19.9029682],[-98.9098876,19.9030464],[-98.909882,19.9031442],[-98.909889,19.9033091],[-98.909951,19.9041217],[-98.91001,19.9048178],[-98.9099162,19.9048624],[-98.9085914,19.9049894],[-98.9063794,19.9049989],[-98.9089056,19.9000706]]]},"properties":{"locality":"SAN MIGUEL EYACALCO","official_key":"1307500100001","CVE_ENT":"13","CVE_MUN":"075","CVE_LOC":"0010","CVE_ASEN":"0001","settlement_type":"RANCHERÍA","source":"INEGI DCAH 2025"}},{"type":"Feature","geometry":{"type":"Polygon","coordinates":[[[-98.91096,19.9917191],[-98.9104616,19.9915516],[-98.9102629,19.9915371],[-98.9102118,19.9915036],[-98.9100388,19.9914552],[-98.9097784,19.991387],[-98.9094858,19.9912903],[-98.9090953,19.9911404],[-98.9090199,19.9910956],[-98.9088264,19.9909064],[-98.9082407,19.9904493],[-98.908061,19.9903419],[-98.9076257,19.9900216],[-98.907235,19.9897925],[-98.9071925,19.9897676],[-98.9075108,19.9890014],[-98.9076728,19.9885577],[-98.907797,19.9879859],[-98.9078404,19.987898],[-98.9080159,19.9870148],[-98.9080106,19.9869132],[-98.9080914,19.986719],[-98.9080378,19.9861919],[-98.9080218,19.9859911],[-98.9080662,19.9854411],[-98.9080916,19.9852486],[-98.908173,19.9849609],[-98.908173,19.984907],[-98.9082185,19.9847281],[-98.9082827,19.9843382],[-98.9083529,19.983996],[-98.9083845,19.983752],[-98.9082764,19.9833382],[-98.9081943,19.9831478],[-98.9081983,19.9828813],[-98.9082078,19.9827457],[-98.9082356,19.9825976],[-98.9082835,19.9823651],[-98.908306,19.9821952],[-98.9083071,19.9820307],[-98.9082667,19.9817138],[-98.9082461,19.981058],[-98.908572,19.9811318],[-98.9087369,19.9812195],[-98.9089788,19.9813468],[-98.9092714,19.9815496],[-98.9096779,19.9818088],[-98.9101052,19.9820855],[-98.9104885,19.9823431],[-98.9106324,19.9824464],[-98.9108202,19.9819073],[-98.910873,19.9817464],[-98.9107599,19.9806794],[-98.911017,19.9804536],[-98.9106954,19.9802952],[-98.9109395,19.9799616],[-98.911663,19.9800525],[-98.9114406,19.9792875],[-98.911163,19.9788557],[-98.9111967,19.9788301],[-98.9118643,19.9787835],[-98.9119455,19.9788076],[-98.9119861,19.9788268],[-98.9121016,19.9789347],[-98.9121778,19.9790103],[-98.9122734,19.9791131],[-98.9124752,19.9792391],[-98.9126466,19.9793447],[-98.9128958,19.9795025],[-98.9132502,19.979731],[-98.9134512,19.9798648],[-98.9137647,19.9800676],[-98.9140424,19.9802521],[-98.9142075,19.9803594],[-98.9143501,19.9804493],[-98.9145961,19.9806406],[-98.9148129,19.9808053],[-98.9150598,19.9809896],[-98.9151259,19.9810455],[-98.9152831,19.9811273],[-98.9155418,19.9812591],[-98.9158399,19.9814593],[-98.9158936,19.9814939],[-98.9159177,19.9815015],[-98.9159648,19.9815135],[-98.916018,19.9815139],[-98.9160681,19.9815287],[-98.916123,19.9815456],[-98.9162358,19.9816074],[-98.9164674,19.9817289],[-98.9165656,19.9817791],[-98.9166557,19.9818076],[-98.9168395,19.9819071],[-98.9170609,19.9820263],[-98.9174063,19.9821779],[-98.9176591,19.9823112],[-98.917939,19.9824584],[-98.9182129,19.9826027],[-98.9182262,19.9826342],[-98.9176889,19.9847358],[-98.9180667,19.9850007],[-98.918609,19.9853309],[-98.918684,19.9853734],[-98.9188021,19.9854036],[-98.9189577,19.9854709],[-98.9189896,19.9855099],[-98.9190252,19.9855902],[-98.9190319,19.9855893],[-98.9192288,19.985588],[-98.9196923,19.985618],[-98.9205285,19.9857057],[-98.9209197,19.9858139],[-98.9212447,19.9864826],[-98.9214678,19.986948],[-98.921453,19.9870048],[-98.9210533,19.9873341],[-98.920707,19.9876089],[-98.9206717,19.9876335],[-98.9201948,19.9881084],[-98.9198159,19.9884717],[-98.9197624,19.9884862],[-98.9193076,19.9889446],[-98.9189,19.9893599],[-98.9185926,19.9896643],[-98.918206,19.9900438],[-98.9178638,19.9903913],[-98.9175515,19.9907069],[-98.9170602,19.9912197],[-98.9166922,19.9915317],[-98.9160205,19.9915998],[-98.91597,19.9916144],[-98.9159429,19.9916265],[-98.9147,19.9916884],[-98.9146272,19.9916799],[-98.9145476,19.991694],[-98.9141458,19.9917294],[-98.9134087,19.9918058],[-98.9132199,19.9918325],[-98.9130672,19.9918541],[-98.9117054,19.9919001],[-98.9116643,19.9918849],[-98.91096,19.9917191]]]},"properties":{"locality":"SANTIAGO TLAJOMULCO","official_key":"1307500110001","CVE_ENT":"13","CVE_MUN":"075","CVE_LOC":"0011","CVE_ASEN":"0001","settlement_type":"PUEBLO","source":"INEGI DCAH 2025"}},{"type":"Feature","geometry":{"type":"Polygon","coordinates":[[[-98.8999638,19.9442665],[-98.9002068,19.9433551],[-98.9003794,19.9434224],[-98.9003636,19.9442987],[-98.9003018,19.9450764],[-98.9004097,19.945097],[-98.9018974,19.9454784],[-98.9011631,19.9470768],[-98.9011471,19.947086],[-98.9011918,19.947169],[-98.9012037,19.9471949],[-98.9012895,19.9474056],[-98.9013021,19.9474304],[-98.9014719,19.9476977],[-98.9014799,19.9477086],[-98.9015011,19.9477375],[-98.9017809,19.948067],[-98.9017907,19.9480793],[-98.9018131,19.9481075],[-98.9020617,19.9483994],[-98.9020698,19.9484066],[-98.9020978,19.9484313],[-98.9023524,19.948752],[-98.9023647,19.9487858],[-98.9024064,19.9488245],[-98.9023941,19.9489362],[-98.9023936,19.948957],[-98.902396,19.9489793],[-98.9024014,19.9490023],[-98.9025488,19.9491392],[-98.9026659,19.9492709],[-98.9027183,19.9493349],[-98.9029368,19.9496189],[-98.9029831,19.9496862],[-98.9030072,19.9497179],[-98.9030227,19.9497509],[-98.9033458,19.9501042],[-98.9036822,19.9503708],[-98.9037582,19.9504311],[-98.9038079,19.9504873],[-98.9038817,19.950571],[-98.9038878,19.9505778],[-98.9040342,19.9507437],[-98.9040166,19.9508511],[-98.9040125,19.9508574],[-98.9039506,19.9509392],[-98.9038827,19.9510322],[-98.9037482,19.9512189],[-98.903742,19.951233],[-98.9037337,19.951252],[-98.9034851,19.951614],[-98.9034671,19.9516382],[-98.9034475,19.9516644],[-98.9033424,19.9518114],[-98.9032864,19.9518911],[-98.9038822,19.9523175],[-98.9035573,19.9527688],[-98.9029309,19.9524058],[-98.9024942,19.9521657],[-98.9020648,19.9519265],[-98.9016473,19.9517028],[-98.9012197,19.9514491],[-98.900814,19.9512159],[-98.9004242,19.9509739],[-98.9002688,19.95087],[-98.9000616,19.9506884],[-98.899719,19.9503455],[-98.8995733,19.9501855],[-98.8995127,19.9501372],[-98.8993801,19.9500209],[-98.899186,19.9498749],[-98.8989673,19.9497417],[-98.8988196,19.94969],[-98.8986713,19.9496387],[-98.8984553,19.9495572],[-98.898283,19.9494822],[-98.8980998,19.9494343],[-98.8978937,19.9493507],[-98.8978833,19.9493452],[-98.8978901,19.9493084],[-98.8980293,19.9486256],[-98.8981419,19.9480534],[-98.8983288,19.9470234],[-98.8984623,19.9463177],[-98.89853,19.9462001],[-98.8986008,19.9460867],[-98.8987109,19.9460514],[-98.8987985,19.9459677],[-98.8988624,19.9458971],[-98.8989259,19.9454441],[-98.8989722,19.9451333],[-98.8990491,19.9451281],[-98.8990588,19.944997],[-98.8991061,19.9449947],[-98.8991718,19.9443532],[-98.8999366,19.9442884],[-98.899949,19.9442859],[-98.8999591,19.9442769],[-98.8999638,19.9442665]]]},"properties":{"locality":"VICENTE GUERRERO (SAN JAVIER)","official_key":"1307500130001","CVE_ENT":"13","CVE_MUN":"075","CVE_LOC":"0013","CVE_ASEN":"0001","settlement_type":"PUEBLO","source":"INEGI DCAH 2025"}},{"type":"Feature","geometry":{"type":"Polygon","coordinates":[[[-98.9295914,19.9705318],[-98.929516,19.9704999],[-98.9295035,19.9705144],[-98.9292833,19.9706586],[-98.9292575,19.9706732],[-98.9290168,19.9703875],[-98.9287777,19.9701037],[-98.9287401,19.970125],[-98.9279528,19.970627],[-98.9278522,19.9705975],[-98.9278325,19.9705859],[-98.9278092,19.9705619],[-98.9277539,19.9705385],[-98.9274378,19.9704435],[-98.9273908,19.9704138],[-98.9273478,19.970386],[-98.9270561,19.9702929],[-98.9270089,19.9702678],[-98.9269323,19.9702359],[-98.9266226,19.9701527],[-98.9265858,19.9701297],[-98.9265355,19.9701198],[-98.9262404,19.9700006],[-98.9262018,19.9699645],[-98.9277395,19.9688633],[-98.9278214,19.9688164],[-98.9279514,19.9687664],[-98.9281236,19.9687644],[-98.9281731,19.9687851],[-98.9282433,19.9688144],[-98.9286111,19.9688931],[-98.9286367,19.9688781],[-98.9288262,19.9685174],[-98.9288502,19.9684912],[-98.9288955,19.9684415],[-98.9290042,19.9681432],[-98.9290288,19.9680937],[-98.9290329,19.9680582],[-98.9291564,19.967756],[-98.9291818,19.9677226],[-98.9292032,19.9676744],[-98.929327,19.9673794],[-98.9293492,19.9673349],[-98.9293684,19.9672757],[-98.9294354,19.9671217],[-98.9295363,19.9670342],[-98.9295684,19.9670131],[-98.9296034,19.9669854],[-98.9298222,19.966844],[-98.9298557,19.9668186],[-98.9298834,19.96679],[-98.9301211,19.9666133],[-98.93019,19.9666226],[-98.9302463,19.9666078],[-98.9303439,19.966537],[-98.9307092,19.966742],[-98.930778,19.9667315],[-98.9309578,19.9668557],[-98.9310782,19.9669186],[-98.9311872,19.96701],[-98.9312899,19.9670481],[-98.931361,19.9670943],[-98.932036,19.9677958],[-98.9322898,19.9682349],[-98.9322774,19.9682456],[-98.9321819,19.9683285],[-98.9321158,19.9683786],[-98.9322697,19.9685672],[-98.9325341,19.9689612],[-98.9325087,19.9689945],[-98.932436,19.9691152],[-98.9323696,19.9692255],[-98.9323469,19.96925],[-98.932321,19.9693071],[-98.9321871,19.9695602],[-98.9321511,19.9696071],[-98.9321295,19.9696707],[-98.9319772,19.9698822],[-98.9319359,19.9699207],[-98.9319008,19.9699749],[-98.9317152,19.970173],[-98.9316845,19.9702082],[-98.9316575,19.9702509],[-98.9316087,19.9703151],[-98.9316688,19.9704762],[-98.9317136,19.9705963],[-98.9316668,19.9706985],[-98.9316396,19.9707363],[-98.9316169,19.9707826],[-98.9315952,19.970822],[-98.9314802,19.9710309],[-98.9314365,19.9710777],[-98.931409,19.9711168],[-98.9313766,19.9711456],[-98.9312257,19.9713059],[-98.9311958,19.9713403],[-98.9311696,19.9713847],[-98.9309712,19.9715246],[-98.9309343,19.9715701],[-98.9308851,19.9716189],[-98.9308633,19.9716374],[-98.930696,19.9717801],[-98.9306551,19.9718052],[-98.9301598,19.9712122],[-98.9295914,19.9705318]]]},"properties":{"locality":"LOMAS DEL ÁLAMO","official_key":"1307500400001","CVE_ENT":"13","CVE_MUN":"075","CVE_LOC":"0040","CVE_ASEN":"0001","settlement_type":"FRACCIONAMIENTO","source":"INEGI DCAH 2025"}},{"type":"Feature","geometry":{"type":"Polygon","coordinates":[[[-98.93955,19.8941333],[-98.9391048,19.8939366],[-98.9390136,19.8940778],[-98.9382089,19.8936995],[-98.9377905,19.894383],[-98.9368603,19.8939546],[-98.9362673,19.8936631],[-98.9363853,19.8933932],[-98.93605,19.8932539],[-98.9350522,19.8928195],[-98.9345211,19.8925962],[-98.9345842,19.8923819],[-98.934733,19.8919682],[-98.9348108,19.8917664],[-98.936286,19.8923541],[-98.9367849,19.8914638],[-98.9362646,19.8912317],[-98.9363772,19.8909947],[-98.936278,19.8909543],[-98.9368869,19.889808],[-98.9371551,19.8897563],[-98.9387,19.8904246],[-98.9388556,19.8904953],[-98.9390715,19.8900476],[-98.939148,19.8900236],[-98.9392606,19.890016],[-98.9393786,19.8900413],[-98.9397552,19.890166],[-98.9400067,19.8902958],[-98.9407252,19.8900052],[-98.9408162,19.8896126],[-98.9406552,19.8892651],[-98.9409596,19.889047],[-98.9409421,19.88895],[-98.9408826,19.8886863],[-98.9408995,19.8886919],[-98.941111,19.8887679],[-98.9416815,19.8889728],[-98.9416826,19.8889732],[-98.9415788,19.8891799],[-98.9413243,19.8896601],[-98.9416005,19.8902823],[-98.9417944,19.8906309],[-98.941801,19.8906429],[-98.9418498,19.890669],[-98.9429448,19.8912568],[-98.9429591,19.8912645],[-98.9429809,19.8912842],[-98.9429929,19.8912951],[-98.9429932,19.8912953],[-98.942985,19.8913095],[-98.9429712,19.8913334],[-98.9429245,19.8914141],[-98.9427901,19.8916464],[-98.9425198,19.8921139],[-98.942497,19.8921533],[-98.9424552,19.8922255],[-98.9424367,19.8922529],[-98.9424307,19.8922619],[-98.9418776,19.8930832],[-98.9414222,19.8937701],[-98.9412237,19.894093],[-98.941036,19.8944108],[-98.9408643,19.8947185],[-98.940301,19.8957273],[-98.9390458,19.8950817],[-98.93955,19.8941333]]]},"properties":{"locality":"BOSQUES DE IBIZA","official_key":"1307500410001","CVE_ENT":"13","CVE_MUN":"075","CVE_LOC":"0041","CVE_ASEN":"0001","settlement_type":"FRACCIONAMIENTO","source":"INEGI DCAH 2025"}}]}