{"type":"FeatureCollection","name":"inegi-hidalgo-082","metadata":{"state":"Hidalgo","CVE_ENT":"13","CVE_MUN":"082","municipality":"Zapotlán de Juárez","sources":["INEGI Gaia — Servicio vectorial del Marco Geoestadístico","INEGI DCAH 2025"],"source_urls":["https://gaia.inegi.org.mx/wscatgeo/v2/geo/mgem/13","https://gaia.inegi.org.mx/wscatgeo/v2/geo/localidades/pol/13/082","https://www.inegi.org.mx/contenidos/productos/prod_serv/contenidos/espanol/bvinegi/productos/geografia/delimitaciones/794551163078/13_hidalgo.zip"],"geometry_policy":"Solo se publican polígonos de INEGI; no se generan puntos ni geometrías sintéticas.","locality_polygon_count":7,"settlement_polygon_count":28},"municipality":{"type":"Feature","geometry":{"type":"MultiPolygon","crs":{"type":"name","properties":{"name":"EPSG:6365"}},"coordinates":[[[[-98.90381003,20.05034051],[-98.90323672,20.0500094],[-98.902535879,20.04976838],[-98.901850969,20.04943715],[-98.9013572,20.049271461],[-98.90102272,20.049226171],[-98.90067226,20.049150821],[-98.900264849,20.049019721],[-98.89874126,20.048613741],[-98.89851162,20.048568051],[-98.89829286,20.048509691],[-98.89625914,20.04861875],[-98.896314309,20.049222941],[-98.895038719,20.049347231],[-98.89400415,20.048558031],[-98.892526689,20.04693762],[-98.892324539,20.046374951],[-98.892302599,20.046291111],[-98.892031709,20.04609249],[-98.891649579,20.04574638],[-98.891028769,20.04511445],[-98.89056852,20.044828181],[-98.89026612,20.044346801],[-98.889947599,20.04421126],[-98.88964502,20.044150951],[-98.8893104,20.044180781],[-98.88896997,20.04430198],[-98.888729219,20.044148551],[-98.88859049,20.043994521],[-98.887998399,20.044328881],[-98.887898309,20.044749151],[-98.887491249,20.04504335],[-98.887043679,20.04509428],[-98.886555309,20.045285971],[-98.885595279,20.04525972],[-98.88532408,20.045297951],[-98.885188319,20.04538748],[-98.88495772,20.045553751],[-98.884360859,20.045706971],[-98.88396286,20.045722401],[-98.88375609,20.04551225],[-98.88357454,20.04522823],[-98.883344279,20.044951051],[-98.88315017,20.044764481],[-98.882557599,20.044638431],[-98.882329429,20.04461528],[-98.881979149,20.04458412],[-98.88164198,20.044677021],[-98.881181939,20.04487434],[-98.880789149,20.04464492],[-98.880594889,20.044470061],[-98.88034914,20.0446048],[-98.88014726,20.04479871],[-98.87985078,20.04479489],[-98.879461179,20.04476906],[-98.87882898,20.04474257],[-98.87833597,20.04472],[-98.878047709,20.044806481],[-98.876989909,20.04478015],[-98.875789569,20.04486889],[-98.87519278,20.044919691],[-98.87421658,20.04472698],[-98.873701379,20.04449622],[-98.873091599,20.04388129],[-98.87279369,20.04338186],[-98.872495719,20.042818381],[-98.87203726,20.04263822],[-98.871454249,20.042522581],[-98.87081692,20.042394091],[-98.87019318,20.04231685],[-98.869121849,20.042213661],[-98.867982769,20.04221282],[-98.866807459,20.04181489],[-98.866346649,20.041520151],[-98.86603486,20.041327911],[-98.865506119,20.04113545],[-98.86542474,20.04116102],[-98.86505851,20.04125031],[-98.864787149,20.041467751],[-98.86454295,20.04156995],[-98.864230979,20.04160811],[-98.863946259,20.04153109],[-98.86363457,20.04135166],[-98.863104779,20.04125995],[-98.862667259,20.04160389],[-98.862394199,20.04134854],[-98.86204292,20.041625431],[-98.861440969,20.041016911],[-98.86121078,20.040683921],[-98.86062811,20.04020983],[-98.860329829,20.04004317],[-98.859692779,20.03973545],[-98.859464709,20.03935126],[-98.85947837,20.03919766],[-98.859356739,20.038723921],[-98.859227943,20.038576761],[-98.85918194,20.0385242],[-98.859120805,20.038454346],[-98.859075093,20.038402116],[-98.859031599,20.038352421],[-98.85885543,20.03824989],[-98.858611429,20.038134431],[-98.8583674,20.03805743],[-98.858238552,20.038036191],[-98.858238481,20.03803618],[-98.85805551,20.038006021],[-98.858019997,20.038015563],[-98.857865679,20.038057031],[-98.85747166,20.03814914],[-98.8572372,20.038136691],[-98.857120119,20.03796446],[-98.857126893,20.037917961],[-98.857137883,20.037842524],[-98.857153719,20.037733831],[-98.857159219,20.037696048],[-98.85715952,20.03769398],[-98.857277029,20.037386661],[-98.857329319,20.037128451],[-98.857270667,20.03694807],[-98.857193147,20.036709662],[-98.857149149,20.036574351],[-98.85698009,20.03620532],[-98.857010285,20.036070699],[-98.857026879,20.03599671],[-98.857032459,20.035971751],[-98.857122002,20.035840541],[-98.85714986,20.03579972],[-98.85732883,20.035641524],[-98.857328868,20.03564149],[-98.857347949,20.035624623],[-98.857358349,20.03561543],[-98.857371011,20.035570811],[-98.857381357,20.035534352],[-98.857410679,20.03543103],[-98.857280739,20.03509892],[-98.85705952,20.034840511],[-98.856893466,20.034783388],[-98.85677298,20.034741941],[-98.856408509,20.034495711],[-98.85640634,20.034493966],[-98.8561482,20.03428646],[-98.85561305,20.03387812],[-98.855451739,20.033664621],[-98.855443993,20.033553422],[-98.855435448,20.033430752],[-98.85541988,20.03320732],[-98.85536111,20.032700851],[-98.855361209,20.032700782],[-98.856545149,20.03188705],[-98.85655438,20.031830511],[-98.856722979,20.031145911],[-98.856747979,20.031029261],[-98.856933259,20.030858091],[-98.85695606,20.030602251],[-98.857198479,20.03041955],[-98.857253731,20.030321925],[-98.857296141,20.030246989],[-98.857327799,20.030191051],[-98.857327969,20.03000815],[-98.857327296,20.030007673],[-98.8570234,20.029792061],[-98.856954318,20.029641576],[-98.856827459,20.029365231],[-98.856768843,20.02922259],[-98.856701889,20.02905966],[-98.85672026,20.02870335],[-98.856774449,20.02838095],[-98.856701448,20.02822897],[-98.85668475,20.028194231],[-98.856649619,20.027965431],[-98.85663274,20.02785552],[-98.856662989,20.027721088],[-98.85666726,20.027702111],[-98.856685419,20.027464551],[-98.856559819,20.027192921],[-98.85634428,20.02702308],[-98.856326419,20.026836351],[-98.856118369,20.02652066],[-98.85592354,20.026347321],[-98.856013835,20.026177263],[-98.85604168,20.02612482],[-98.856220565,20.025954121],[-98.85625892,20.025917521],[-98.85626529,20.025876421],[-98.856279982,20.025781772],[-98.856297132,20.025671293],[-98.85630065,20.025648631],[-98.856321029,20.02542946],[-98.85630812,20.02533205],[-98.856282719,20.02513731],[-98.856279661,20.025045548],[-98.856273219,20.02485205],[-98.85631158,20.02477182],[-98.85615009,20.02477168],[-98.855988569,20.02469535],[-98.8557666,20.024599831],[-98.855598519,20.02463243],[-98.855378179,20.02467517],[-98.855143257,20.024681309],[-98.855025574,20.024684383],[-98.8549602,20.024686091],[-98.85462606,20.02456186],[-98.85432995,20.024312881],[-98.8543174,20.024289135],[-98.854245316,20.02415274],[-98.854235683,20.024134511],[-98.854174979,20.02401965],[-98.854162505,20.023906789],[-98.85415131,20.023805491],[-98.854156044,20.023633365],[-98.854163709,20.023354651],[-98.85423968,20.023100333],[-98.854271429,20.022994051],[-98.854379065,20.022443721],[-98.85437943,20.02244185],[-98.854464116,20.022357032],[-98.854537997,20.022283035],[-98.854570599,20.022250381],[-98.8545733,20.022247995],[-98.854627554,20.022200074],[-98.85473674,20.02210363],[-98.854814157,20.021884939],[-98.854832479,20.021833181],[-98.854916369,20.021528891],[-98.854937227,20.021511853],[-98.85509552,20.021382551],[-98.85515805,20.021164661],[-98.855203771,20.021062431],[-98.85530083,20.02084546],[-98.855381547,20.020663538],[-98.855437969,20.020536371],[-98.85553906,20.020301801],[-98.855475819,20.020101921],[-98.85549711,20.019902171],[-98.85564543,20.01973252],[-98.85569852,20.01948283],[-98.85563532,20.019243051],[-98.8555402,20.01904315],[-98.85559332,20.01877348],[-98.855477319,20.018443781],[-98.855216845,20.01819697],[-98.855114349,20.018099851],[-98.85504792,20.018036911],[-98.855032481,20.017521998],[-98.855026509,20.017322821],[-98.8550125,20.017264428],[-98.854846597,20.016572923],[-98.85483758,20.01653534],[-98.852412,20.018664951],[-98.85236877,20.01870291],[-98.852334833,20.018737864],[-98.852319089,20.01875408],[-98.852296643,20.0187772],[-98.852121349,20.018957751],[-98.852071216,20.019000531],[-98.851178719,20.01976212],[-98.851264565,20.020043725],[-98.851370102,20.02038992],[-98.851470169,20.020718171],[-98.851630805,20.021239723],[-98.851735,20.02157802],[-98.85190689,20.022127111],[-98.851952627,20.022329661],[-98.852020561,20.022630512],[-98.85203849,20.02270991],[-98.852044106,20.02277974],[-98.852046106,20.02279234],[-98.852045939,20.022802511],[-98.852059223,20.022967585],[-98.85206338,20.02301925],[-98.852063318,20.023147088],[-98.852063315,20.023153233],[-98.852063139,20.023512572],[-98.852045003,20.023721498],[-98.852042199,20.0237538],[-98.851941599,20.02428834],[-98.851864737,20.024660281],[-98.85179645,20.024986151],[-98.851793293,20.025017309],[-98.851752749,20.025417541],[-98.85172,20.025789745],[-98.85170009,20.02601602],[-98.851669262,20.026240018],[-98.851645519,20.026412541],[-98.851605392,20.026896809],[-98.851601,20.026949801],[-98.851561309,20.027400035],[-98.85155965,20.027551801],[-98.85151734,20.02778014],[-98.85141422,20.02857045],[-98.851370294,20.028890631],[-98.85134062,20.02910692],[-98.85125823,20.02963815],[-98.851256713,20.029640824],[-98.851244109,20.02966302],[-98.851242199,20.029677981],[-98.851243939,20.029727491],[-98.851244115,20.029732509],[-98.851244878,20.029754294],[-98.85124643,20.029798571],[-98.851213152,20.030085791],[-98.851131014,20.030794721],[-98.851119099,20.030897556],[-98.851093349,20.0311198],[-98.851075049,20.031297511],[-98.851048919,20.03160728],[-98.851002059,20.032210461],[-98.850925717,20.032911535],[-98.85089006,20.033238981],[-98.850824819,20.033792061],[-98.850805662,20.033813785],[-98.850470629,20.034193742],[-98.850342803,20.03434695],[-98.8500954,20.034643481],[-98.85009188,20.03464771],[-98.849931008,20.034820692],[-98.8495994,20.035177261],[-98.84931728,20.035514341],[-98.84885097,20.036067631],[-98.84845851,20.036471171],[-98.847841277,20.037113752],[-98.847646149,20.037323221],[-98.847288229,20.03770745],[-98.847039939,20.03795855],[-98.846893538,20.03810662],[-98.846686432,20.038321944],[-98.846594599,20.038417432],[-98.846585828,20.038426553],[-98.846483705,20.038516245],[-98.846387309,20.03860091],[-98.846358804,20.038630709],[-98.846334156,20.03865648],[-98.84613698,20.03886262],[-98.845757569,20.039286251],[-98.845692109,20.039357911],[-98.844956999,20.040151451],[-98.844779718,20.04034282],[-98.844221877,20.040944982],[-98.844170629,20.04099126],[-98.84383142,20.04084018],[-98.84330252,20.040571621],[-98.84265589,20.04027465],[-98.84259278,20.04019074],[-98.84230575,20.04046628],[-98.84204171,20.04069471],[-98.841942219,20.040774171],[-98.84173152,20.04099058],[-98.8413506,20.04118898],[-98.841209019,20.04121437],[-98.840933909,20.041285861],[-98.840787487,20.041380856],[-98.840631309,20.04148218],[-98.840276089,20.041683401],[-98.840126719,20.041702511],[-98.83983849,20.04173671],[-98.83888803,20.041837181],[-98.83801834,20.04192245],[-98.83752931,20.04198992],[-98.837185489,20.042019032],[-98.837023607,20.042039651],[-98.83700162,20.04204245],[-98.836912379,20.04161502],[-98.836936229,20.04144032],[-98.83695329,20.041154772],[-98.837004619,20.040296321],[-98.83707302,20.039152311],[-98.837141392,20.03800831],[-98.836963179,20.037920111],[-98.836753339,20.037826521],[-98.836153549,20.037550951],[-98.83577868,20.037384691],[-98.83550192,20.03725658],[-98.83514389,20.037093371],[-98.83503149,20.037021516],[-98.834970539,20.03701851],[-98.834736349,20.036914851],[-98.83392798,20.03654842],[-98.833385346,20.036305151],[-98.832768549,20.036028631],[-98.832757448,20.03602025],[-98.832770848,20.035797826],[-98.832771771,20.035783171],[-98.832772411,20.03577303],[-98.832774365,20.03574208],[-98.832786423,20.035551031],[-98.832788519,20.035370208],[-98.832752338,20.03518934],[-98.832678877,20.034997044],[-98.832668383,20.034974087],[-98.832641219,20.034914665],[-98.832624467,20.034878015],[-98.832619257,20.034866622],[-98.83257918,20.034778952],[-98.832578315,20.034740682],[-98.832576174,20.03464605],[-98.832587459,20.034402308],[-98.83261975,20.034299031],[-98.83274328,20.03376526],[-98.832727229,20.033735742],[-98.832568979,20.033677571],[-98.832565646,20.033643419],[-98.832560817,20.033593959],[-98.832518548,20.033502233],[-98.832467231,20.033390881],[-98.83229758,20.033045631],[-98.832228829,20.032963881],[-98.832140432,20.032798621],[-98.832083029,20.03264802],[-98.83203469,20.032461341],[-98.831990616,20.032380219],[-98.831877318,20.032253599],[-98.8317532,20.0320906],[-98.831562584,20.031797831],[-98.831534356,20.031712846],[-98.831510174,20.031640077],[-98.83149142,20.031520111],[-98.831465959,20.031487635],[-98.831421048,20.031430349],[-98.83131538,20.03128982],[-98.831220829,20.031146651],[-98.831163594,20.03100791],[-98.83108465,20.030816541],[-98.830924372,20.030484584],[-98.83075586,20.030188481],[-98.830632549,20.0299718],[-98.830310294,20.029287979],[-98.830202276,20.028723796],[-98.83018122,20.028386111],[-98.830125429,20.02736369],[-98.83006966,20.026341261],[-98.830063879,20.02611757],[-98.83004412,20.025814231],[-98.830064278,20.025753584],[-98.830141059,20.02572059],[-98.830125879,20.02546298],[-98.830017769,20.025388251],[-98.829913909,20.025339681],[-98.829872539,20.025335302],[-98.829828419,20.025330631],[-98.829761949,20.025295951],[-98.829717875,20.025273485],[-98.829673798,20.02525102],[-98.829622252,20.025221494],[-98.829570709,20.025191971],[-98.82949752,20.025109881],[-98.82942697,20.025099551],[-98.82936389,20.02507968],[-98.82928928,20.025053971],[-98.82923097,20.02500137],[-98.82918623,20.02495774],[-98.829118399,20.02494102],[-98.829007198,20.02486914],[-98.82892051,20.024815951],[-98.82886145,20.02473465],[-98.828799679,20.024674922],[-98.828711,20.024643106],[-98.828701303,20.024639626],[-98.82870038,20.024639295],[-98.828699457,20.024638964],[-98.82862232,20.024611291],[-98.828479103,20.024554049],[-98.82847155,20.02455103],[-98.828425019,20.024504281],[-98.828413299,20.024471627],[-98.828411033,20.024465314],[-98.828406579,20.024452906],[-98.828403147,20.024443345],[-98.828402032,20.02444024],[-98.828400024,20.024434646],[-98.828399634,20.024433559],[-98.828398778,20.024431172],[-98.828394249,20.024418556],[-98.82838861,20.024402848],[-98.828378113,20.024373598],[-98.82834809,20.02428995],[-98.82832058,20.02421897],[-98.82826928,20.0241794],[-98.828198211,20.0241847],[-98.82819794,20.02418472],[-98.82816938,20.02421703],[-98.82815005,20.024243091],[-98.828148225,20.024245551],[-98.82813768,20.02425977],[-98.828097065,20.024278899],[-98.82809169,20.02428143],[-98.828089394,20.024281283],[-98.82800551,20.02427591],[-98.82793658,20.02423786],[-98.82790794,20.02415643],[-98.82794262,20.0239774],[-98.82804326,20.02390152],[-98.82834214,20.02382583],[-98.82835999,20.023820802],[-98.828360691,20.023820604],[-98.828395267,20.023810866],[-98.828395959,20.023810671],[-98.828415625,20.023805131],[-98.828440644,20.023798084],[-98.828709627,20.023722317],[-98.828727327,20.023717331],[-98.828757,20.023708974],[-98.82877213,20.023704711],[-98.828785501,20.023700945],[-98.828785882,20.023700838],[-98.828799303,20.023697057],[-98.828805129,20.023695416],[-98.828806336,20.023695076],[-98.828818644,20.02369161],[-98.828837539,20.023686286],[-98.828861786,20.023679457],[-98.828878138,20.02367485],[-98.828963302,20.023651724],[-98.829570712,20.023486783],[-98.829623968,20.023472323],[-98.829806607,20.023426016],[-98.829958,20.023387632],[-98.829986054,20.023406651],[-98.829994419,20.02341232],[-98.829997447,20.023411046],[-98.830213519,20.023319953],[-98.830291229,20.02327337],[-98.830657817,20.023018783],[-98.83098317,20.02275986],[-98.83092409,20.02253126],[-98.830734229,20.021796571],[-98.830694689,20.021438231],[-98.830235049,20.021127632],[-98.83002032,20.020984989],[-98.829864309,20.020881352],[-98.829543205,20.020695897],[-98.82930658,20.02055923],[-98.828976718,20.020371061],[-98.82805128,20.019897741],[-98.82800609,20.01988111],[-98.827104149,20.019397281],[-98.82639072,20.019197281],[-98.826383742,20.019194967],[-98.82598894,20.01906406],[-98.82444229,20.018627341],[-98.82373191,20.01838389],[-98.82327737,20.01824112],[-98.82267,20.01804909],[-98.82227977,20.01889526],[-98.82146372,20.02061075],[-98.82122997,20.02112834],[-98.82105171,20.02153463],[-98.82035817,20.02302694],[-98.82031172,20.02312275],[-98.8202262,20.02332775],[-98.818766355,20.026369899],[-98.81875955,20.02638408],[-98.818742925,20.026374717],[-98.81773882,20.02580918],[-98.817390638,20.025610099],[-98.817369571,20.025598053],[-98.817201712,20.025502074],[-98.81691731,20.02533946],[-98.816735651,20.025237263],[-98.81664325,20.02518528],[-98.816046287,20.024815294],[-98.81603889,20.02481071],[-98.816031346,20.024806723],[-98.81568091,20.02462155],[-98.81528609,20.02439854],[-98.814483252,20.023945011],[-98.81405637,20.02370386],[-98.813839,20.02358068],[-98.81233708,20.022693717],[-98.812337004,20.022693672],[-98.81221192,20.0226198],[-98.81185012,20.02240615],[-98.81174148,20.02231434],[-98.811504122,20.022218236],[-98.81142685,20.02218695],[-98.811350512,20.022151655],[-98.81122166,20.02209208],[-98.81064622,20.02176051],[-98.809944649,20.020562569],[-98.79139311,19.98887725],[-98.78995945,19.98642795],[-98.79099494,19.98629165],[-98.79113782,19.98627308],[-98.79179326,19.98618943],[-98.791800691,19.986188482],[-98.791804119,19.986188045],[-98.791804148,19.986188041],[-98.79404115,19.98590257],[-98.79663468,19.98567083],[-98.80747272,19.98442062],[-98.80654962,19.98372648],[-98.80538252,19.9828138],[-98.80383172,19.98160489],[-98.80131305,19.97962394],[-98.80002157,19.97863788],[-98.79694731,19.97682028],[-98.79972269,19.97367928],[-98.80061571,19.97269143],[-98.80087497,19.97238691],[-98.80230262,19.97085511],[-98.80232854,19.97083666],[-98.80268645,19.97041886],[-98.80279357,19.97040288],[-98.80320278,19.97003215],[-98.80590886,19.96691483],[-98.80983443,19.96265158],[-98.81362695,19.95832534],[-98.82077238,19.95031098],[-98.82416226,19.94646928],[-98.82892158,19.94128085],[-98.83392434,19.93575154],[-98.83835603,19.93073991],[-98.84298295,19.92572475],[-98.86028483,19.93578578],[-98.860376,19.93563237],[-98.86179535,19.93653342],[-98.86182528,19.93655717],[-98.86151552,19.93701755],[-98.86154017,19.93703358],[-98.863022,19.93789166],[-98.86325785,19.93757962],[-98.86328857,19.93753325],[-98.87125554,19.94226325],[-98.87166262,19.94153329],[-98.87275042,19.93952663],[-98.87372228,19.937956],[-98.87420086,19.93704931],[-98.87585608,19.93340683],[-98.87617475,19.93259626],[-98.87648305,19.9314498],[-98.876872229,19.930465941],[-98.877232709,19.92953211],[-98.877621689,19.928798451],[-98.878099059,19.92791566],[-98.878474459,19.92732511],[-98.87979878,19.924277651],[-98.882875679,19.925930911],[-98.883726649,19.92658771],[-98.884884684,19.927630818],[-98.885772769,19.92843075],[-98.886869969,19.92948991],[-98.88695546,19.93114558],[-98.88843965,19.93265965],[-98.887654649,19.93322418],[-98.887457659,19.933382221],[-98.881863972,19.937752761],[-98.881231133,19.938474126],[-98.880778438,19.938947352],[-98.880335419,19.939484947],[-98.87999463,19.939903078],[-98.879460209,19.940581563],[-98.87935545,19.940714561],[-98.878235747,19.942014853],[-98.877192265,19.943262753],[-98.87685134,19.943646385],[-98.876685965,19.943832476],[-98.876328911,19.944255617],[-98.87597046,19.944684471],[-98.875631662,19.945078115],[-98.875599347,19.945114459],[-98.87559932,19.945114488],[-98.875377677,19.945363767],[-98.874796092,19.94600603],[-98.874381123,19.946500593],[-98.873828791,19.947165821],[-98.873199482,19.947900683],[-98.87248208,19.94871492],[-98.871998266,19.949309166],[-98.871622033,19.949773267],[-98.871195691,19.950268581],[-98.870761939,19.950763741],[-98.870431706,19.951167137],[-98.87006654,19.951579693],[-98.869784934,19.951902952],[-98.869510733,19.952226365],[-98.869160695,19.952625228],[-98.868945496,19.952862352],[-98.868709289,19.953144539],[-98.868368367,19.953555999],[-98.86852122,19.953712746],[-98.868650726,19.953837347],[-98.868816295,19.954034268],[-98.869058679,19.954338474],[-98.869268838,19.954573583],[-98.869397294,19.954713561],[-98.869451404,19.954772524],[-98.869612729,19.954965426],[-98.869761326,19.955132209],[-98.869897183,19.955290954],[-98.870042094,19.95543282],[-98.870209823,19.955589579],[-98.870337386,19.955717948],[-98.870362707,19.955748539],[-98.870458445,19.955864199],[-98.870565786,19.955961064],[-98.870658655,19.956056267],[-98.87074277,19.956121252],[-98.870840396,19.956192482],[-98.871279702,19.955987214],[-98.871319762,19.956007716],[-98.872675258,19.956701428],[-98.874609494,19.957690179],[-98.875616678,19.95819576],[-98.877157256,19.95900021],[-98.878657712,19.959730638],[-98.879629497,19.960218012],[-98.887116592,19.964088394],[-98.892933128,19.979182177],[-98.893058344,19.979507354],[-98.893148031,19.979771606],[-98.893411272,19.980481898],[-98.893799571,19.9814518],[-98.893818015,19.98150108],[-98.894006813,19.981967912],[-98.894207365,19.982446907],[-98.894424431,19.983044696],[-98.894630439,19.983582278],[-98.895850821,19.986763329],[-98.896081225,19.98735282],[-98.895876687,19.988935087],[-98.895813162,19.98935765],[-98.895741858,19.989899784],[-98.895722395,19.989995482],[-98.895448405,19.9917962],[-98.89520677,19.993968449],[-98.895019103,19.995502632],[-98.89481311,19.996987032],[-98.896000166,19.997169745],[-98.896179107,19.997213525],[-98.896908224,19.997275801],[-98.897759771,19.99734396],[-98.898394211,19.997400775],[-98.898853302,19.997441897],[-98.90132682,19.997725705],[-98.901430352,19.997737592],[-98.901862897,19.997785478],[-98.902889325,19.997885567],[-98.903293491,19.99792499],[-98.903806173,19.997986294],[-98.904809158,19.998100164],[-98.90609728,19.998246367],[-98.906291753,19.998268442],[-98.906386259,19.998283623],[-98.907328757,19.99838866],[-98.907586224,19.998409849],[-98.907975785,19.998441914],[-98.908515029,19.998568093],[-98.909899152,19.999609217],[-98.910289719,19.999743683],[-98.910361876,19.999768528],[-98.911495139,20.000282722],[-98.912900123,20.001000627],[-98.911944825,20.005873552],[-98.911908779,20.006057111],[-98.911489643,20.008355336],[-98.905846195,20.00792575],[-98.905746305,20.009031996],[-98.903858829,20.008350281],[-98.90376377,20.009845401],[-98.903647279,20.01046845],[-98.90354118,20.01097586],[-98.903460399,20.01131157],[-98.9034198,20.01153815],[-98.903332769,20.01197557],[-98.90328774,20.015501421],[-98.903262419,20.01572162],[-98.90313428,20.01599731],[-98.90305863,20.016197291],[-98.90312748,20.016294661],[-98.903318109,20.016394521],[-98.90372852,20.016585051],[-98.904991629,20.01772331],[-98.906283089,20.01858451],[-98.906017939,20.01974969],[-98.90620832,20.02077638],[-98.907688599,20.02070337],[-98.907982649,20.021106461],[-98.908143679,20.021353771],[-98.908647089,20.021715371],[-98.90884826,20.022019741],[-98.908888489,20.02226694],[-98.90908955,20.02276152],[-98.909250489,20.023198981],[-98.90959222,20.024473291],[-98.909793249,20.02519602],[-98.91013543,20.02567163],[-98.91055563,20.026091261],[-98.91107931,20.026167581],[-98.91113966,20.02635777],[-98.91107898,20.026738091],[-98.911199629,20.027213551],[-98.91146118,20.027860261],[-98.91164217,20.028392861],[-98.91184302,20.029477941],[-98.91188189,20.029562781],[-98.91210454,20.03001054],[-98.91198332,20.03073314],[-98.912023429,20.0310184],[-98.912426249,20.031227781],[-98.91278863,20.031513201],[-98.913271969,20.031950831],[-98.913594,20.032388371],[-98.91369452,20.032787821],[-98.91359355,20.033206121],[-98.913935779,20.03364369],[-98.914338599,20.033853061],[-98.91477338,20.034287311],[-98.915286259,20.0348718],[-98.915753939,20.03549906],[-98.91614623,20.035841261],[-98.916432689,20.03653969],[-98.91650786,20.03722375],[-98.91676394,20.038208091],[-98.917171339,20.038721341],[-98.9175786,20.03927728],[-98.917955739,20.039818981],[-98.918393219,20.040431951],[-98.918440969,20.04101697],[-98.918440769,20.041430231],[-98.91875771,20.04168686],[-98.919014119,20.04205754],[-98.91913438,20.043141351],[-98.91917894,20.044409881],[-98.918937059,20.04505109],[-98.91843862,20.04559234],[-98.91804597,20.04584871],[-98.917758949,20.04616205],[-98.91700483,20.04627891],[-98.91694452,20.04655114],[-98.91648771,20.04685718],[-98.916163179,20.04697049],[-98.915293919,20.0469572],[-98.915013479,20.04697711],[-98.9136446,20.047074261],[-98.909850029,20.047452941],[-98.908950599,20.04804343],[-98.908766319,20.04824611],[-98.908582049,20.048429511],[-98.90847965,20.04865155],[-98.908346459,20.04892185],[-98.908213319,20.04912455],[-98.907998419,20.049288621],[-98.90771194,20.04933672],[-98.906660619,20.049570341],[-98.90565186,20.049726461],[-98.90494952,20.050087631],[-98.904590679,20.05032591],[-98.904240049,20.05053625],[-98.90381003,20.05034051]]]]},"properties":{"municipality":"Zapotlán de Juárez","official_key":"13082","CVE_ENT":"13","CVE_MUN":"082","geometry_kind":"municipality","source":"INEGI Gaia — Servicio vectorial del Marco Geoestadístico"}},"features":[{"type":"Feature","geometry":{"type":"MultiPolygon","crs":{"type":"name","properties":{"name":"EPSG:6365"}},"coordinates":[[[[-98.87106852,19.982867212],[-98.870688465,19.982792829],[-98.870543523,19.982794568],[-98.870431551,19.982782813],[-98.870001074,19.982709263],[-98.869613337,19.982617512],[-98.869458017,19.982591135],[-98.869383972,19.982596294],[-98.869091335,19.982568093],[-98.868679396,19.982471883],[-98.868488814,19.98242737],[-98.867368834,19.982246141],[-98.867299614,19.982236927],[-98.867144796,19.982199414],[-98.867081842,19.982185276],[-98.86635831,19.982045248],[-98.866159445,19.98202174],[-98.865000013,19.981785538],[-98.864879365,19.981783907],[-98.864367581,19.98166814],[-98.863831371,19.981569633],[-98.863728693,19.981546849],[-98.862853911,19.981386693],[-98.862717723,19.98138223],[-98.862000645,19.981255573],[-98.860934413,19.981069727],[-98.860301232,19.980944189],[-98.860238719,19.980935678],[-98.859946646,19.980839416],[-98.858517585,19.980591155],[-98.856735569,19.980264969],[-98.85627383,19.980175247],[-98.856214368,19.980028308],[-98.856196768,19.979944786],[-98.856192522,19.979756892],[-98.856139953,19.979209847],[-98.856044722,19.978394062],[-98.85583883,19.976672662],[-98.855683107,19.975662554],[-98.855636391,19.975341394],[-98.85522065,19.975454831],[-98.85519014,19.975592679],[-98.855157007,19.975742387],[-98.855151967,19.975765162],[-98.851899764,19.974897931],[-98.852801112,19.973584112],[-98.852695953,19.973563032],[-98.852582461,19.973540185],[-98.853449491,19.971989246],[-98.854247446,19.970448046],[-98.854654692,19.969824215],[-98.855451337,19.968860369],[-98.855452007,19.968860832],[-98.856678557,19.967566307],[-98.857194342,19.967022984],[-98.85752848,19.966669245],[-98.857960234,19.966203291],[-98.858352987,19.965802568],[-98.85883265,19.965318922],[-98.859026927,19.965370999],[-98.85976805,19.965569676],[-98.860348425,19.965721967],[-98.860349353,19.96572221],[-98.860349923,19.965721154],[-98.861244077,19.965969692],[-98.863162477,19.966495646],[-98.865099862,19.967048277],[-98.865177241,19.967065548],[-98.86518423,19.967067109],[-98.866059123,19.967312123],[-98.869339322,19.968227969],[-98.869408805,19.968245244],[-98.869576,19.968286815],[-98.871820677,19.968865985],[-98.874590554,19.969583015],[-98.874668077,19.969627415],[-98.874649908,19.969730785],[-98.873654338,19.972880569],[-98.873031338,19.974849138],[-98.872966708,19.975053508],[-98.874476292,19.976146431],[-98.873751031,19.979053846],[-98.874226726,19.979328925],[-98.875375292,19.979993092],[-98.875997015,19.980354908],[-98.878308923,19.981687708],[-98.877857675,19.984147539],[-98.877463415,19.984092186],[-98.876257735,19.983837169],[-98.875681598,19.9837304],[-98.875084187,19.983621727],[-98.874497597,19.983520768],[-98.87434749,19.983490137],[-98.874138588,19.983451869],[-98.873897692,19.98340774],[-98.873372711,19.983311069],[-98.872826735,19.983210531],[-98.872813915,19.983208169],[-98.872641881,19.983177916],[-98.872480423,19.983149523],[-98.872458377,19.983145646],[-98.871988738,19.983060246],[-98.871503218,19.982954508],[-98.87106852,19.982867212]]]]},"properties":{"locality":"Zapotlán de Juárez","municipality":null,"official_key":"130820001","CVE_ENT":"13","CVE_MUN":"082","CVE_LOC":"0001","ambito":"URBANO","geometry_kind":"locality","source":"INEGI Gaia — Servicio vectorial del Marco Geoestadístico"}},{"type":"Feature","geometry":{"type":"MultiPolygon","crs":{"type":"name","properties":{"name":"EPSG:6365"}},"coordinates":[[[[-98.837004619,20.040296321],[-98.83707302,20.039152311],[-98.837129538,20.038206648],[-98.835123425,20.037323413],[-98.833833513,20.037208717],[-98.833640625,20.037157017],[-98.833426509,20.036978021],[-98.833384516,20.036892173],[-98.833386172,20.036712212],[-98.833439999,20.036329653],[-98.833385346,20.036305151],[-98.833198143,20.036221225],[-98.832768549,20.036028631],[-98.832757448,20.03602025],[-98.832770848,20.035797826],[-98.832771771,20.035783171],[-98.832772411,20.03577303],[-98.832774365,20.03574208],[-98.832786423,20.035551031],[-98.832788519,20.035370208],[-98.832752338,20.03518934],[-98.832678877,20.034997044],[-98.832668383,20.034974087],[-98.832641219,20.034914665],[-98.832624467,20.034878015],[-98.832619257,20.034866622],[-98.83257918,20.034778952],[-98.832578315,20.034740682],[-98.832576174,20.03464605],[-98.832587459,20.034402308],[-98.83261975,20.034299031],[-98.83274328,20.03376526],[-98.832727229,20.033735742],[-98.832568979,20.033677571],[-98.832565646,20.033643419],[-98.832560817,20.033593959],[-98.832518548,20.033502233],[-98.832467231,20.033390881],[-98.83229758,20.033045631],[-98.832228829,20.032963881],[-98.832140432,20.032798621],[-98.832083029,20.03264802],[-98.83203469,20.032461341],[-98.831990616,20.032380219],[-98.831877318,20.032253599],[-98.8317532,20.0320906],[-98.831562583,20.031797832],[-98.831534356,20.031712846],[-98.831510174,20.031640077],[-98.83149142,20.031520111],[-98.831465959,20.031487635],[-98.831441409,20.031456321],[-98.831421048,20.031430349],[-98.83131538,20.03128982],[-98.831220829,20.031146651],[-98.831163594,20.03100791],[-98.83108465,20.030816541],[-98.830924372,20.030484584],[-98.830862224,20.030375381],[-98.83075586,20.030188481],[-98.830632549,20.0299718],[-98.830610381,20.029924761],[-98.8304003,20.029478971],[-98.830339798,20.029350584],[-98.830310294,20.029287979],[-98.830202276,20.028723796],[-98.83018122,20.028386111],[-98.830125429,20.02736369],[-98.83006966,20.026341261],[-98.830063879,20.02611757],[-98.83004412,20.025814231],[-98.830064278,20.025753584],[-98.830141059,20.02572059],[-98.830125879,20.02546298],[-98.830017769,20.025388251],[-98.829913909,20.025339681],[-98.829872539,20.025335302],[-98.829828419,20.025330631],[-98.829761949,20.025295951],[-98.829717874,20.025273485],[-98.829673798,20.02525102],[-98.829622252,20.025221494],[-98.829570709,20.025191971],[-98.82949752,20.025109881],[-98.82942697,20.025099551],[-98.82936389,20.02507968],[-98.82928928,20.025053971],[-98.82923097,20.02500137],[-98.82918623,20.02495774],[-98.829118399,20.02494102],[-98.829007198,20.02486914],[-98.82892051,20.024815951],[-98.82886145,20.02473465],[-98.828799679,20.024674922],[-98.828711,20.024643106],[-98.828701303,20.024639627],[-98.82870038,20.024639296],[-98.828699457,20.024638965],[-98.82862232,20.024611291],[-98.828479103,20.024554048],[-98.82847155,20.02455103],[-98.828425019,20.024504281],[-98.828413299,20.024471627],[-98.828412617,20.024462888],[-98.828411193,20.024444606],[-98.828781549,20.023791603],[-98.828783108,20.023788854],[-98.828783148,20.02378869],[-98.828784804,20.023782005],[-98.828806336,20.023695076],[-98.828818644,20.02369161],[-98.828837539,20.023686286],[-98.828861786,20.023679457],[-98.828878138,20.02367485],[-98.828963302,20.023651724],[-98.829570712,20.023486783],[-98.829623968,20.023472323],[-98.829806607,20.023426016],[-98.829958,20.023387632],[-98.829986054,20.023406651],[-98.829994419,20.02341232],[-98.829997447,20.023411046],[-98.830213519,20.023319953],[-98.830291229,20.02327337],[-98.830574497,20.023076647],[-98.830574529,20.023076625],[-98.830657817,20.023018783],[-98.830780931,20.022920806],[-98.830970456,20.022769978],[-98.830977176,20.02276463],[-98.83098293,20.022760051],[-98.83098317,20.02275986],[-98.830942556,20.022602711],[-98.83092409,20.02253126],[-98.830862761,20.022293942],[-98.830851477,20.022250276],[-98.830734229,20.021796571],[-98.83070451,20.021527247],[-98.830700249,20.021488629],[-98.830695746,20.021447818],[-98.830694689,20.021438231],[-98.830235049,20.021127632],[-98.83002032,20.020984989],[-98.829864309,20.020881352],[-98.829543206,20.020695896],[-98.829402885,20.020614853],[-98.82930658,20.020559231],[-98.828976718,20.020371061],[-98.82805128,20.019897741],[-98.82800609,20.019881111],[-98.828096522,20.019759538],[-98.828184308,20.019664277],[-98.828281262,20.019549646],[-98.828479122,20.019295938],[-98.828670768,20.019041709],[-98.828775245,20.018926554],[-98.828888246,20.018838755],[-98.829014477,20.018758093],[-98.829086615,20.018701739],[-98.829597462,20.018344109],[-98.829817631,20.018274923],[-98.830006554,20.018211247],[-98.830072384,20.018136708],[-98.830242415,20.017897123],[-98.830335384,20.017746001],[-98.830783133,20.017089787],[-98.830849138,20.016913292],[-98.83096239,20.016812649],[-98.83097846,20.016798368],[-98.8311978,20.016696523],[-98.831395908,20.016589939],[-98.831760538,20.016426846],[-98.831630215,20.016143169],[-98.831588646,20.0158874],[-98.831615938,20.015678169],[-98.831677677,20.015485262],[-98.831771445,20.015238908],[-98.831942462,20.014845232],[-98.832425737,20.014090032],[-98.833256984,20.013481738],[-98.834088214,20.012873432],[-98.834847385,20.013336138],[-98.834873753,20.013247046],[-98.834975462,20.013034415],[-98.835015031,20.012902232],[-98.835084323,20.012781078],[-98.835187938,20.012730108],[-98.835362277,20.0127036],[-98.835507476,20.012688016],[-98.835615599,20.012702339],[-98.835843014,20.012636339],[-98.836026507,20.012542108],[-98.836203261,20.012394062],[-98.836294154,20.012267892],[-98.836473276,20.011950909],[-98.836507815,20.011900462],[-98.836599938,20.011789401],[-98.836891969,20.011541708],[-98.837122969,20.011356646],[-98.83737983,20.011244969],[-98.837528046,20.011162663],[-98.837687015,20.011056462],[-98.837912122,20.010856293],[-98.83814983,20.010638292],[-98.838338784,20.010471262],[-98.838447108,20.010373969],[-98.838554076,20.010312446],[-98.838704092,20.010258339],[-98.838670937,20.010334232],[-98.83905,20.010578954],[-98.83936683,20.011655493],[-98.839662877,20.012589109],[-98.839920754,20.013371678],[-98.840039708,20.013695554],[-98.840462785,20.013119954],[-98.840693384,20.012800139],[-98.841043954,20.012332062],[-98.841712477,20.011461849],[-98.842178912,20.011615026],[-98.844630147,20.012513395],[-98.846614999,20.013125911],[-98.846994322,20.012844538],[-98.847343107,20.0126384],[-98.847703691,20.012445063],[-98.848344814,20.012110339],[-98.848984216,20.011840032],[-98.848847151,20.012192419],[-98.848896169,20.012353185],[-98.849057891,20.012876569],[-98.849199507,20.013313738],[-98.8493364,20.013787569],[-98.849401369,20.01401148],[-98.849490291,20.01398077],[-98.849576246,20.013947262],[-98.849671107,20.013908169],[-98.849813369,20.013857923],[-98.84989043,20.01383002],[-98.849940645,20.013989538],[-98.850023337,20.014277815],[-98.850072739,20.01445305],[-98.850256507,20.015104909],[-98.85029406,20.015236371],[-98.850532968,20.016072538],[-98.850551677,20.016360341],[-98.850556159,20.016423908],[-98.850604076,20.017103292],[-98.850665769,20.017518246],[-98.85066386,20.017754753],[-98.850935431,20.017814969],[-98.8511174,20.017847262],[-98.851189246,20.017789586],[-98.851407414,20.017642523],[-98.851570723,20.017548323],[-98.851594985,20.017529431],[-98.851813892,20.0178426],[-98.852031077,20.018168138],[-98.85215932,20.018328583],[-98.852385246,20.01823577],[-98.852595907,20.0181434],[-98.852791921,20.01809937],[-98.85306094,20.01804528],[-98.853031867,20.018071462],[-98.85286929,20.018217889],[-98.852730994,20.018342986],[-98.852661862,20.018405519],[-98.85245922,20.01856254],[-98.852334833,20.018737864],[-98.852319089,20.01875408],[-98.852296643,20.0187772],[-98.852121349,20.018957751],[-98.852071216,20.019000531],[-98.851178719,20.01976212],[-98.851264565,20.020043725],[-98.851370102,20.02038992],[-98.851470169,20.020718171],[-98.851630805,20.021239723],[-98.851735,20.02157802],[-98.85190689,20.022127111],[-98.851952627,20.022329661],[-98.852020561,20.022630512],[-98.85203849,20.02270991],[-98.852044106,20.02277974],[-98.852046106,20.02279234],[-98.852045939,20.022802511],[-98.852059223,20.022967585],[-98.85206338,20.02301925],[-98.852063318,20.023147088],[-98.852063315,20.023153233],[-98.852063139,20.023512572],[-98.852045003,20.023721498],[-98.852042199,20.0237538],[-98.851941599,20.02428834],[-98.851864737,20.024660281],[-98.85179645,20.024986151],[-98.851793293,20.025017309],[-98.851752749,20.025417541],[-98.85172,20.025789745],[-98.85170009,20.02601602],[-98.851669262,20.026240018],[-98.851645519,20.026412541],[-98.851605392,20.026896809],[-98.851601,20.026949801],[-98.851561309,20.027400035],[-98.85155965,20.027551801],[-98.85151734,20.02778014],[-98.85141422,20.02857045],[-98.851370294,20.028890631],[-98.85134062,20.02910692],[-98.85125823,20.02963815],[-98.851256713,20.029640824],[-98.851244109,20.02966302],[-98.851242199,20.029677981],[-98.851243939,20.029727491],[-98.851244115,20.029732509],[-98.851244878,20.029754294],[-98.85124643,20.029798571],[-98.851213152,20.030085791],[-98.851131014,20.030794721],[-98.851119099,20.030897556],[-98.851093349,20.0311198],[-98.851075049,20.031297511],[-98.851048919,20.03160728],[-98.851002059,20.032210461],[-98.850925717,20.032911535],[-98.85089006,20.033238981],[-98.850824819,20.033792061],[-98.850805662,20.033813785],[-98.850470629,20.034193742],[-98.850342803,20.03434695],[-98.8500954,20.034643481],[-98.85009188,20.03464771],[-98.849931008,20.034820692],[-98.8495994,20.035177261],[-98.849566293,20.035216818],[-98.84931728,20.035514341],[-98.84885097,20.036067631],[-98.848458511,20.036471171],[-98.848102847,20.036841441],[-98.847841277,20.037113752],[-98.847646149,20.037323221],[-98.847288229,20.03770745],[-98.847039939,20.03795855],[-98.846893538,20.03810662],[-98.846686432,20.038321944],[-98.846594599,20.038417432],[-98.846585828,20.038426553],[-98.846483705,20.038516245],[-98.84638731,20.03860091],[-98.846358804,20.038630709],[-98.846334156,20.03865648],[-98.84613698,20.03886262],[-98.845757569,20.039286251],[-98.845692109,20.039357911],[-98.844956999,20.040151451],[-98.844779718,20.04034282],[-98.844221877,20.040944982],[-98.844170629,20.040991261],[-98.84383142,20.04084018],[-98.84330252,20.040571621],[-98.84265589,20.04027465],[-98.84259278,20.04019074],[-98.84230575,20.04046628],[-98.84204171,20.04069471],[-98.841942219,20.040774171],[-98.84173152,20.04099058],[-98.8413506,20.04118898],[-98.841209019,20.04121437],[-98.840933909,20.041285862],[-98.840787487,20.041380856],[-98.840631309,20.04148218],[-98.840276089,20.041683401],[-98.840126719,20.041702511],[-98.83983849,20.04173671],[-98.83888803,20.041837181],[-98.83801834,20.04192245],[-98.83752931,20.04198992],[-98.837185489,20.042019033],[-98.837023607,20.042039651],[-98.83700162,20.04204245],[-98.836912379,20.04161502],[-98.836936229,20.04144032],[-98.83695329,20.041154771],[-98.837004619,20.040296321]]]]},"properties":{"locality":"Acayuca","municipality":null,"official_key":"130820002","CVE_ENT":"13","CVE_MUN":"082","CVE_LOC":"0002","ambito":"URBANO","geometry_kind":"locality","source":"INEGI Gaia — Servicio vectorial del Marco Geoestadístico"}},{"type":"Feature","geometry":{"type":"MultiPolygon","crs":{"type":"name","properties":{"name":"EPSG:6365"}},"coordinates":[[[[-98.858161185,19.993128908],[-98.857817738,19.992458846],[-98.857655246,19.992125046],[-98.85760629,19.992020333],[-98.857579306,19.991962686],[-98.857530585,19.991900877],[-98.856952908,19.990841138],[-98.85678,19.990494385],[-98.856807535,19.990435559],[-98.857029348,19.989961667],[-98.857084323,19.989844215],[-98.857096574,19.989822443],[-98.857232262,19.989581308],[-98.857236219,19.989573077],[-98.857716031,19.988574969],[-98.857959211,19.988071452],[-98.8581268,19.987714969],[-98.858335015,19.987268262],[-98.858582092,19.986743662],[-98.858825754,19.986211015],[-98.859037862,19.985761769],[-98.859201646,19.985408615],[-98.859353185,19.985097108],[-98.859516,19.984803138],[-98.859667492,19.984536554],[-98.859718031,19.984422292],[-98.859777092,19.984223323],[-98.859827292,19.983967308],[-98.859867754,19.983650862],[-98.859941615,19.983144123],[-98.860067369,19.982243062],[-98.860238719,19.980935678],[-98.860301232,19.980944189],[-98.860934413,19.981069727],[-98.862000645,19.981255573],[-98.862717723,19.98138223],[-98.862853911,19.981386693],[-98.863728693,19.981546849],[-98.863831371,19.981569633],[-98.864367581,19.98166814],[-98.864879365,19.981783907],[-98.865000013,19.981785538],[-98.866159445,19.98202174],[-98.86635831,19.982045248],[-98.867081842,19.982185276],[-98.867144796,19.982199414],[-98.867299614,19.982236927],[-98.867368834,19.982246141],[-98.868488814,19.98242737],[-98.868679396,19.982471883],[-98.869091335,19.982568093],[-98.869383972,19.982596294],[-98.869458017,19.982591135],[-98.869613337,19.982617512],[-98.870001074,19.982709263],[-98.870431551,19.982782813],[-98.870543523,19.982794568],[-98.870688465,19.982792829],[-98.87106852,19.982867212],[-98.871503218,19.982954508],[-98.871988738,19.983060246],[-98.872458377,19.983145646],[-98.872480423,19.983149523],[-98.872641881,19.983177916],[-98.872813915,19.983208169],[-98.872826735,19.983210531],[-98.873372711,19.983311069],[-98.873897692,19.98340774],[-98.874138588,19.983451869],[-98.87434749,19.983490137],[-98.874497597,19.983520768],[-98.875084187,19.983621727],[-98.875681598,19.9837304],[-98.876257735,19.983837169],[-98.877463415,19.984092186],[-98.877857675,19.984147539],[-98.878177108,19.984200477],[-98.879171815,19.985942031],[-98.879749338,19.9871256],[-98.879849809,19.987256205],[-98.879866031,19.987277292],[-98.880081138,19.987675447],[-98.880248814,19.987876062],[-98.880256661,19.988230538],[-98.879882077,19.988666616],[-98.879730553,19.989026785],[-98.879639784,19.989391523],[-98.879379985,19.989744338],[-98.879395368,19.990167923],[-98.87926643,19.990334324],[-98.879305062,19.990633062],[-98.8793708,19.990918323],[-98.879020015,19.991504446],[-98.879175938,19.991673754],[-98.879247245,19.991810001],[-98.879260307,19.991951585],[-98.879225368,19.9922728],[-98.879203323,19.992383663],[-98.879842024,19.992681091],[-98.879912995,19.992714141],[-98.88010097,19.992754313],[-98.880237615,19.992783514],[-98.879171008,19.99448815],[-98.878745226,19.995168616],[-98.878431415,19.995042277],[-98.878221091,19.994937],[-98.878012968,19.994866863],[-98.877816291,19.994797063],[-98.877515631,19.994692078],[-98.877357569,19.994635123],[-98.877266062,19.994602185],[-98.877141907,19.994566123],[-98.877014185,19.994675724],[-98.876073337,19.995340724],[-98.875156353,19.994216847],[-98.874755153,19.993653985],[-98.874553461,19.993369815],[-98.874030769,19.993706],[-98.873419462,19.994157615],[-98.872775508,19.994626108],[-98.872413385,19.994890985],[-98.871779708,19.9953644],[-98.871494492,19.995570769],[-98.871325262,19.9956896],[-98.870857677,19.996009662],[-98.870017538,19.996604385],[-98.869373985,19.997061046],[-98.868629,19.997580708],[-98.868425,19.997738538],[-98.867499631,19.998428092],[-98.866926662,19.998862769],[-98.866721062,19.999022415],[-98.8663054,19.999322662],[-98.865979862,19.999555292],[-98.865748831,19.999706646],[-98.865596123,19.999795369],[-98.865457754,19.999896185],[-98.865397985,19.999967369],[-98.865366477,20.000068262],[-98.865366354,20.000201831],[-98.865356831,20.000323508],[-98.865328477,20.000397692],[-98.865262431,20.000459969],[-98.865177523,20.000522231],[-98.864832369,20.000553754],[-98.864286585,20.000699985],[-98.8638268,20.000902062],[-98.863493831,20.0010636],[-98.863235569,20.001169292],[-98.863104631,20.001243],[-98.862809877,20.001370523],[-98.862603508,20.001394431],[-98.862473354,20.0013944],[-98.862380385,20.001379892],[-98.862284662,20.001290692],[-98.862253908,20.001136354],[-98.862231046,20.000877108],[-98.862199338,20.000599877],[-98.862168754,20.000461046],[-98.862065769,20.000251585],[-98.861999554,20.000227462],[-98.861925677,20.000222585],[-98.861868877,20.000208062],[-98.861674015,19.999828662],[-98.861291092,19.999076908],[-98.860846077,19.998201446],[-98.860574708,19.997683277],[-98.859751754,19.996101492],[-98.859420169,19.995463646],[-98.859035462,19.994751015],[-98.858878462,19.994453923],[-98.858766607,19.99426743],[-98.858493338,19.993811815],[-98.858378908,19.9935598],[-98.858344191,19.993498952],[-98.858330976,19.99347214],[-98.858296662,19.993402523],[-98.858161185,19.993128908]]]]},"properties":{"locality":"San Pedro Huaquilpan","municipality":null,"official_key":"130820003","CVE_ENT":"13","CVE_MUN":"082","CVE_LOC":"0003","ambito":"URBANO","geometry_kind":"locality","source":"INEGI Gaia — Servicio vectorial del Marco Geoestadístico"}},{"type":"Feature","geometry":{"type":"MultiPolygon","crs":{"type":"name","properties":{"name":"EPSG:6365"}},"coordinates":[[[[-98.817879903,20.025854714],[-98.817320662,20.025534669],[-98.816868709,20.025286445],[-98.816180723,20.024858036],[-98.815676468,20.024572009],[-98.815844105,20.024161239],[-98.816320869,20.023022165],[-98.816561598,20.023012086],[-98.816970634,20.023012086],[-98.816996115,20.023030987],[-98.817376988,20.023048627],[-98.817279088,20.023298116],[-98.817319992,20.023320165],[-98.817794073,20.023528703],[-98.818296986,20.023764329],[-98.81853168,20.023347256],[-98.818837452,20.023480821],[-98.817921477,20.025297785],[-98.818197745,20.02554475],[-98.817879903,20.025854714]]]]},"properties":{"locality":"San Isidro","municipality":null,"official_key":"130820025","CVE_ENT":"13","CVE_MUN":"082","CVE_LOC":"0025","ambito":"RURAL","geometry_kind":"locality","source":"INEGI Gaia — Servicio vectorial del Marco Geoestadístico"}},{"type":"Feature","geometry":{"type":"MultiPolygon","crs":{"type":"name","properties":{"name":"EPSG:6365"}},"coordinates":[[[[-98.837431566,20.010907339],[-98.836047548,20.012124629],[-98.835765915,20.011933088],[-98.835398452,20.011696184],[-98.834553556,20.011335786],[-98.834306793,20.011237496],[-98.834950524,20.009959713],[-98.835240202,20.010075646],[-98.834980029,20.010539378],[-98.835242885,20.010670434],[-98.83518924,20.010753603],[-98.835385041,20.010826691],[-98.835594254,20.01046125],[-98.835704224,20.010254587],[-98.83656253,20.010632629],[-98.836436466,20.010753603],[-98.836739556,20.011058555],[-98.837187486,20.010657832],[-98.837431566,20.010907339]]]]},"properties":{"locality":"Plan de Guadalupe","municipality":null,"official_key":"130820028","CVE_ENT":"13","CVE_MUN":"082","CVE_LOC":"0028","ambito":"RURAL","geometry_kind":"locality","source":"INEGI Gaia — Servicio vectorial del Marco Geoestadístico"}},{"type":"Feature","geometry":{"type":"MultiPolygon","crs":{"type":"name","properties":{"name":"EPSG:6365"}},"coordinates":[[[[-98.855995323,19.995883908],[-98.8561202,19.995778492],[-98.856133,19.995788769],[-98.856300569,19.995923277],[-98.856501492,19.996198262],[-98.856760554,19.996882492],[-98.856829677,19.997111523],[-98.856902938,19.997180815],[-98.856883246,19.997246954],[-98.8558096,19.998294154],[-98.855731354,19.998366615],[-98.855717123,19.998111369],[-98.855710738,19.998069492],[-98.855701831,19.998029892],[-98.855487892,19.996597369],[-98.855494908,19.996551815],[-98.8556426,19.996434215],[-98.855657554,19.996409308],[-98.855794877,19.996184415],[-98.855803938,19.996170831],[-98.855995323,19.995883908]]]]},"properties":{"locality":"La Fortaleza","municipality":null,"official_key":"130820036","CVE_ENT":"13","CVE_MUN":"082","CVE_LOC":"0036","ambito":"RURAL","geometry_kind":"locality","source":"INEGI Gaia — Servicio vectorial del Marco Geoestadístico"}},{"type":"Feature","geometry":{"type":"MultiPolygon","crs":{"type":"name","properties":{"name":"EPSG:6365"}},"coordinates":[[[[-98.83385437,20.002745445],[-98.833468348,20.002858251],[-98.833390349,20.003037813],[-98.833758787,20.00314191],[-98.833958307,20.003216761],[-98.833171412,20.004987333],[-98.832872682,20.00559348],[-98.832630614,20.005534252],[-98.832270527,20.005434699],[-98.831931898,20.005350265],[-98.831537277,20.005257642],[-98.831174844,20.00517006],[-98.83081677,20.005089408],[-98.83044193,20.004993634],[-98.830042617,20.00489786],[-98.829439456,20.004756719],[-98.82994371,20.00365279],[-98.831064873,20.002737884],[-98.830421143,20.002004444],[-98.830710822,20.001765004],[-98.830753472,20.00179777],[-98.831770067,20.002107167],[-98.832148485,20.002216789],[-98.833811456,20.002698818],[-98.83385437,20.002745445]]]]},"properties":{"locality":"Real Bilbao [Fraccionamiento]","municipality":null,"official_key":"130820042","CVE_ENT":"13","CVE_MUN":"082","CVE_LOC":"0042","ambito":"RURAL","geometry_kind":"locality","source":"INEGI Gaia — Servicio vectorial del Marco Geoestadístico"}},{"type":"Feature","geometry":{"type":"Polygon","coordinates":[[[-98.8633819,19.9798964],[-98.862824,19.9796217],[-98.8625345,19.9796531],[-98.8621567,19.9796871],[-98.8604541,19.9798403],[-98.8574381,19.9801039],[-98.8568621,19.9801625],[-98.8567356,19.980265],[-98.8562738,19.9801753],[-98.8562144,19.9800283],[-98.8561968,19.9799448],[-98.8561925,19.9797569],[-98.85614,19.9792098],[-98.8560447,19.9783941],[-98.8558388,19.9766727],[-98.8563967,19.9763903],[-98.8571452,19.9760092],[-98.8573702,19.975889],[-98.8571867,19.9739935],[-98.8564732,19.9741572],[-98.8560156,19.9742166],[-98.8554766,19.9741346],[-98.8553945,19.9732861],[-98.8553111,19.972212],[-98.8552934,19.9718324],[-98.8552897,19.971616],[-98.8552937,19.9714557],[-98.8554041,19.9712017],[-98.8553208,19.9711353],[-98.8557959,19.9704346],[-98.8564143,19.9695256],[-98.8564666,19.969484],[-98.8578938,19.9684014],[-98.8583619,19.9680639],[-98.8587829,19.9677427],[-98.8588608,19.9676832],[-98.8590002,19.9677219],[-98.8591065,19.9677827],[-98.859193,19.9678482],[-98.8592613,19.9679114],[-98.8593398,19.9680414],[-98.8594204,19.968258],[-98.8594908,19.9685483],[-98.8598303,19.9684839],[-98.8601609,19.9684223],[-98.8602414,19.9684223],[-98.8604438,19.9684759],[-98.8606362,19.9685444],[-98.8612798,19.968741],[-98.8614757,19.968788],[-98.8615833,19.9687955],[-98.8616983,19.9687997],[-98.8622611,19.9689773],[-98.8631793,19.9692993],[-98.8639019,19.9695791],[-98.8638931,19.9696418],[-98.8637488,19.9698483],[-98.8636347,19.9700094],[-98.8635298,19.9701439],[-98.8634887,19.9701966],[-98.8633661,19.9703838],[-98.8631808,19.9707539],[-98.8630339,19.971186],[-98.8629987,19.9713037],[-98.8629269,19.9717078],[-98.8649194,19.9724561],[-98.8664849,19.9730526],[-98.8671252,19.9733057],[-98.8672861,19.9733693],[-98.8674415,19.9734595],[-98.8676521,19.9735402],[-98.8679545,19.9735483],[-98.868641,19.9735537],[-98.8688336,19.9735552],[-98.8690405,19.973026],[-98.8695087,19.9731864],[-98.8697622,19.9732518],[-98.8698656,19.97331],[-98.8702119,19.9734248],[-98.8709971,19.9737292],[-98.8707636,19.9739837],[-98.8706678,19.9740814],[-98.8705538,19.9741952],[-98.8704448,19.9743164],[-98.870125,19.9747141],[-98.8695691,19.975378],[-98.8692573,19.9757301],[-98.869065,19.9759577],[-98.8688912,19.9761679],[-98.8687164,19.9763719],[-98.8685855,19.9765261],[-98.8685047,19.9766525],[-98.8684888,19.9766975],[-98.8681128,19.9775243],[-98.8679454,19.9778913],[-98.8678301,19.9781492],[-98.867728,19.9781989],[-98.8675,19.9786794],[-98.8672356,19.9792144],[-98.8670807,19.9795275],[-98.8669067,19.9799728],[-98.8668322,19.9801824],[-98.866597,19.980902],[-98.8664709,19.9813076],[-98.8658063,19.9810021],[-98.8648726,19.9805727],[-98.8643068,19.9803198],[-98.8636668,19.9800268],[-98.8633819,19.9798964]]]},"properties":{"locality":"CENTRO ZAPOTLÁN","official_key":"1308200010003","CVE_ENT":"13","CVE_MUN":"082","CVE_LOC":"0001","CVE_ASEN":"0003","settlement_type":"COLONIA","source":"INEGI DCAH 2025"}},{"type":"Feature","geometry":{"type":"Polygon","coordinates":[[[-98.8554513,19.9688604],[-98.8566786,19.9675651],[-98.8571944,19.9670218],[-98.8575285,19.966668],[-98.8579603,19.9662021],[-98.858353,19.9658014],[-98.8588327,19.9653177],[-98.859027,19.9653698],[-98.8597681,19.9655685],[-98.8603499,19.9657212],[-98.8612441,19.9659697],[-98.8631625,19.9664956],[-98.8650999,19.9670483],[-98.8651772,19.9670655],[-98.8651842,19.9670671],[-98.8639323,19.9695214],[-98.8639019,19.9695791],[-98.8631793,19.9692993],[-98.8622611,19.9689773],[-98.8616983,19.9687997],[-98.8615833,19.9687955],[-98.8614757,19.968788],[-98.8612798,19.968741],[-98.8606362,19.9685444],[-98.8604438,19.9684759],[-98.8602414,19.9684223],[-98.8601609,19.9684223],[-98.8598303,19.9684839],[-98.8594908,19.9685483],[-98.8594204,19.968258],[-98.8593398,19.9680414],[-98.8592613,19.9679114],[-98.859193,19.9678482],[-98.8591065,19.9677827],[-98.8590002,19.9677219],[-98.8588608,19.9676832],[-98.8587829,19.9677427],[-98.8583619,19.9680639],[-98.8578938,19.9684014],[-98.8564666,19.969484],[-98.8564143,19.9695256],[-98.8557959,19.9704346],[-98.8553208,19.9711353],[-98.8554041,19.9712017],[-98.8552937,19.9714557],[-98.8552897,19.971616],[-98.8552934,19.9718324],[-98.8553111,19.972212],[-98.8553945,19.9732861],[-98.8554766,19.9741346],[-98.8551457,19.9740679],[-98.8538933,19.9738039],[-98.8528011,19.9735841],[-98.852696,19.973563],[-98.8525825,19.9735402],[-98.8534495,19.9719892],[-98.8542474,19.970448],[-98.8546547,19.9698242],[-98.8554513,19.9688604]]]},"properties":{"locality":"EMILIANO ZAPATA","official_key":"1308200010005","CVE_ENT":"13","CVE_MUN":"082","CVE_LOC":"0001","CVE_ASEN":"0005","settlement_type":"COLONIA","source":"INEGI DCAH 2025"}},{"type":"Feature","geometry":{"type":"Polygon","coordinates":[[[-98.8603012,19.9809442],[-98.8602387,19.9809357],[-98.8599466,19.9808394],[-98.8585176,19.9805912],[-98.8567356,19.980265],[-98.8568621,19.9801625],[-98.8574381,19.9801039],[-98.8604541,19.9798403],[-98.8621567,19.9796871],[-98.8625345,19.9796531],[-98.862824,19.9796217],[-98.8633819,19.9798964],[-98.8636668,19.9800268],[-98.8643068,19.9803198],[-98.8648726,19.9805727],[-98.8658063,19.9810021],[-98.8664709,19.9813076],[-98.8667471,19.9814404],[-98.8675866,19.9818382],[-98.8682551,19.9821496],[-98.8685736,19.9822986],[-98.8690913,19.9825681],[-98.8684888,19.9824274],[-98.8673688,19.9822461],[-98.8672996,19.9822369],[-98.8671448,19.9821994],[-98.8670818,19.9821853],[-98.8663583,19.9820452],[-98.8661594,19.9820217],[-98.865,19.9817855],[-98.8648794,19.9817839],[-98.8643676,19.9816681],[-98.8638314,19.9815696],[-98.8637287,19.9815468],[-98.8628539,19.9813867],[-98.8627177,19.9813822],[-98.8620006,19.9812556],[-98.8609344,19.9810697],[-98.8603012,19.9809442]]]},"properties":{"locality":"JUÁREZ","official_key":"1308200010006","CVE_ENT":"13","CVE_MUN":"082","CVE_LOC":"0001","CVE_ASEN":"0006","settlement_type":"COLONIA","source":"INEGI DCAH 2025"}},{"type":"Feature","geometry":{"type":"Polygon","coordinates":[[[-98.8710685,19.9828672],[-98.8706885,19.9827928],[-98.8705435,19.9827946],[-98.8704316,19.9827828],[-98.8700011,19.9827093],[-98.8696133,19.9826175],[-98.869458,19.9825911],[-98.869384,19.9825963],[-98.8690913,19.9825681],[-98.8690896,19.9824973],[-98.8694454,19.9818138],[-98.8700709,19.9806509],[-98.8701609,19.9804926],[-98.8701579,19.9804364],[-98.870148,19.9803949],[-98.8701175,19.9803174],[-98.8705351,19.9795408],[-98.874595,19.9806561],[-98.8741386,19.9834519],[-98.8738977,19.9834077],[-98.8728139,19.9832082],[-98.8724584,19.9831456],[-98.8719887,19.9830602],[-98.8715032,19.9829545],[-98.8710685,19.9828672]]]},"properties":{"locality":"LA PALMA","official_key":"1308200010007","CVE_ENT":"13","CVE_MUN":"082","CVE_LOC":"0001","CVE_ASEN":"0007","settlement_type":"FRACCIONAMIENTO","source":"INEGI DCAH 2025"}},{"type":"Feature","geometry":{"type":"Polygon","coordinates":[[[-98.874595,19.9806561],[-98.8705351,19.9795408],[-98.8701175,19.9803174],[-98.870148,19.9803949],[-98.8701579,19.9804364],[-98.8701609,19.9804926],[-98.8700709,19.9806509],[-98.8694454,19.9818138],[-98.8690896,19.9824973],[-98.8690913,19.9825681],[-98.8685736,19.9822986],[-98.8682551,19.9821496],[-98.8675866,19.9818382],[-98.8667471,19.9814404],[-98.8664709,19.9813076],[-98.866597,19.980902],[-98.8668322,19.9801824],[-98.8669067,19.9799728],[-98.8670807,19.9795275],[-98.8672356,19.9792144],[-98.8675,19.9786794],[-98.867728,19.9781989],[-98.8678301,19.9781492],[-98.8679454,19.9778913],[-98.8681128,19.9775243],[-98.8684888,19.9766975],[-98.8685047,19.9766525],[-98.8685855,19.9765261],[-98.8687164,19.9763719],[-98.8688912,19.9761679],[-98.869065,19.9759577],[-98.8692573,19.9757301],[-98.8695691,19.975378],[-98.870125,19.9747141],[-98.8704448,19.9743164],[-98.8705538,19.9741952],[-98.8706678,19.9740814],[-98.8707636,19.9739837],[-98.8709971,19.9737292],[-98.8702119,19.9734248],[-98.8698656,19.97331],[-98.8697622,19.9732518],[-98.8695087,19.9731864],[-98.8690405,19.973026],[-98.8688336,19.9735552],[-98.868641,19.9735537],[-98.8679545,19.9735483],[-98.8676521,19.9735402],[-98.8674415,19.9734595],[-98.8672861,19.9733693],[-98.8671252,19.9733057],[-98.8671341,19.9732692],[-98.8673472,19.9727556],[-98.8675114,19.9723599],[-98.8676763,19.9719628],[-98.8678225,19.9716103],[-98.8678596,19.9707901],[-98.8680313,19.9696115],[-98.8669765,19.9696137],[-98.8660677,19.9696179],[-98.8655663,19.9708311],[-98.8649194,19.9724561],[-98.8629269,19.9717078],[-98.8629987,19.9713037],[-98.8630339,19.971186],[-98.8631808,19.9707539],[-98.8633661,19.9703838],[-98.8634887,19.9701966],[-98.8635298,19.9701439],[-98.8636347,19.9700094],[-98.8637488,19.9698483],[-98.8638931,19.9696418],[-98.8639019,19.9695791],[-98.8639323,19.9695214],[-98.8651842,19.9670671],[-98.8660591,19.9673121],[-98.8693393,19.968228],[-98.869576,19.9682868],[-98.8718207,19.968866],[-98.8745906,19.969583],[-98.8746681,19.9696274],[-98.8746499,19.9697308],[-98.8736543,19.9728806],[-98.8730313,19.9748491],[-98.8729667,19.9750535],[-98.8744763,19.9761464],[-98.873751,19.9790538],[-98.8742267,19.9793289],[-98.8753753,19.9799931],[-98.875997,19.9803549],[-98.8783089,19.9816877],[-98.8778577,19.9841475],[-98.8774634,19.9840922],[-98.8762577,19.9838372],[-98.8756816,19.9837304],[-98.8750842,19.9836217],[-98.8744976,19.9835208],[-98.8743475,19.9834901],[-98.8741386,19.9834519],[-98.874595,19.9806561]]]},"properties":{"locality":"PUEBLO NUEVO","official_key":"1308200010009","CVE_ENT":"13","CVE_MUN":"082","CVE_LOC":"0001","CVE_ASEN":"0009","settlement_type":"COLONIA","source":"INEGI DCAH 2025"}},{"type":"Feature","geometry":{"type":"Polygon","coordinates":[[[-98.8554766,19.9741346],[-98.8560156,19.9742166],[-98.8564732,19.9741572],[-98.8571867,19.9739935],[-98.8573702,19.975889],[-98.8571452,19.9760092],[-98.8563967,19.9763903],[-98.8558388,19.9766727],[-98.8556831,19.9756626],[-98.8556277,19.9752873],[-98.8556272,19.9752844],[-98.8552319,19.975314],[-98.8551893,19.9753072],[-98.8552534,19.9750417],[-98.8554766,19.9741346]]]},"properties":{"locality":"SANTA MARÍA","official_key":"1308200010011","CVE_ENT":"13","CVE_MUN":"082","CVE_LOC":"0001","CVE_ASEN":"0011","settlement_type":"COLONIA","source":"INEGI DCAH 2025"}},{"type":"Feature","geometry":{"type":"Polygon","coordinates":[[[-98.8669765,19.9696137],[-98.8680313,19.9696115],[-98.8678596,19.9707901],[-98.8655663,19.9708311],[-98.8660677,19.9696179],[-98.8669765,19.9696137]]]},"properties":{"locality":"LA PRESA","official_key":"1308200010016","CVE_ENT":"13","CVE_MUN":"082","CVE_LOC":"0001","CVE_ASEN":"0016","settlement_type":"NINGUNO","source":"INEGI DCAH 2025"}},{"type":"Feature","geometry":{"type":"Polygon","coordinates":[[[-98.8678596,19.9707901],[-98.8678225,19.9716103],[-98.8676763,19.9719628],[-98.8675114,19.9723599],[-98.8673472,19.9727556],[-98.8671341,19.9732692],[-98.8671252,19.9733057],[-98.8664849,19.9730526],[-98.8649194,19.9724561],[-98.8655663,19.9708311],[-98.8678596,19.9707901]]]},"properties":{"locality":"RESIDENCIAL ARBOLADA","official_key":"1308200010018","CVE_ENT":"13","CVE_MUN":"082","CVE_LOC":"0001","CVE_ASEN":"0018","settlement_type":"FRACCIONAMIENTO","source":"INEGI DCAH 2025"}},{"type":"Feature","geometry":{"type":"Polygon","coordinates":[[[-98.8539123,19.9754217],[-98.8524496,19.9750315],[-98.8528011,19.9735841],[-98.8538933,19.9738039],[-98.8551457,19.9740679],[-98.8554766,19.9741346],[-98.8552534,19.9750417],[-98.8551893,19.9753072],[-98.8552319,19.975314],[-98.8550849,19.97574],[-98.8539123,19.9754217]]]},"properties":{"locality":"SANTUARIO","official_key":"1308200010019","CVE_ENT":"13","CVE_MUN":"082","CVE_LOC":"0001","CVE_ASEN":"0019","settlement_type":"FRACCIONAMIENTO","source":"INEGI DCAH 2025"}},{"type":"Feature","geometry":{"type":"Polygon","coordinates":[[[-98.8369533,20.0411548],[-98.8370717,20.0410557],[-98.8373109,20.0407532],[-98.8376355,20.0404395],[-98.8376554,20.0404175],[-98.8379779,20.0400614],[-98.8381963,20.0398606],[-98.8383571,20.0397286],[-98.8385927,20.0395306],[-98.8387428,20.0393185],[-98.8387687,20.0392819],[-98.8387767,20.0392706],[-98.8389487,20.0390726],[-98.8390306,20.0389961],[-98.8390661,20.038963],[-98.8392214,20.0388069],[-98.8394867,20.0385239],[-98.8396977,20.0382618],[-98.8398288,20.0381198],[-98.8399917,20.0380024],[-98.8401419,20.0378622],[-98.840487,20.0376304],[-98.8407597,20.0374066],[-98.8408033,20.0373709],[-98.8409234,20.0372501],[-98.8411165,20.037056],[-98.8413147,20.0368398],[-98.841516,20.0366315],[-98.841655,20.0364873],[-98.8416792,20.0364424],[-98.8418035,20.0361874],[-98.8421897,20.0354565],[-98.8426004,20.0346092],[-98.8427683,20.0342586],[-98.8429779,20.0337772],[-98.8433105,20.0329602],[-98.8437265,20.0320408],[-98.8437679,20.0319884],[-98.8438191,20.0317947],[-98.8441877,20.0308083],[-98.844745,20.0293355],[-98.8448729,20.0290633],[-98.8450106,20.0287168],[-98.8451098,20.0284511],[-98.8452664,20.0280606],[-98.84542,20.027664],[-98.8455448,20.0273566],[-98.8456584,20.0270399],[-98.8458073,20.0266852],[-98.8459545,20.0262864],[-98.8460858,20.025893],[-98.8462362,20.0255206],[-98.8463402,20.0252644],[-98.846378,20.0252979],[-98.8483507,20.0261037],[-98.8484112,20.0261378],[-98.8500882,20.0268927],[-98.8515137,20.0275284],[-98.8515596,20.0275518],[-98.8515173,20.0277801],[-98.8514142,20.0285705],[-98.8513703,20.0288906],[-98.8513406,20.0291069],[-98.8512582,20.0296382],[-98.8512567,20.0296408],[-98.8512441,20.029663],[-98.8512422,20.029678],[-98.8512439,20.0297275],[-98.8512441,20.0297325],[-98.8512449,20.0297543],[-98.8512464,20.0297986],[-98.8512132,20.0300858],[-98.851131,20.0307947],[-98.8511191,20.0308976],[-98.8510934,20.0311198],[-98.8510751,20.0312975],[-98.8510489,20.0316073],[-98.8510021,20.0322105],[-98.8509257,20.0329115],[-98.8508901,20.033239],[-98.8508248,20.0337921],[-98.8508057,20.0338138],[-98.8504706,20.0341937],[-98.8503428,20.034347],[-98.8500954,20.0346435],[-98.8500919,20.0346477],[-98.849931,20.0348207],[-98.8495994,20.0351773],[-98.8493173,20.0355143],[-98.848851,20.0360676],[-98.8484585,20.0364712],[-98.8478413,20.0371138],[-98.8476462,20.0373232],[-98.8472882,20.0377074],[-98.8470399,20.0379586],[-98.8468935,20.0381066],[-98.8466864,20.0383219],[-98.8465946,20.0384174],[-98.8465858,20.0384266],[-98.8464837,20.0385162],[-98.8463873,20.0386009],[-98.8463588,20.0386307],[-98.8463342,20.0386565],[-98.846137,20.0388626],[-98.8457576,20.0392863],[-98.8456921,20.0393579],[-98.844957,20.0401515],[-98.8447797,20.0403428],[-98.8442219,20.040945],[-98.8441706,20.0409913],[-98.8438314,20.0408402],[-98.8433025,20.0405716],[-98.8426559,20.0402746],[-98.8425928,20.0401907],[-98.8423057,20.0404663],[-98.8420417,20.0406947],[-98.8419422,20.0407742],[-98.8417315,20.0409906],[-98.8413506,20.041189],[-98.841209,20.0412144],[-98.8409339,20.0412859],[-98.8407875,20.0413809],[-98.8406313,20.0414822],[-98.8402761,20.0416834],[-98.8401267,20.0417025],[-98.8398385,20.0417367],[-98.838888,20.0418372],[-98.8380183,20.0419224],[-98.8375293,20.0419899],[-98.8371855,20.042019],[-98.8370236,20.0420397],[-98.8370016,20.0420424],[-98.8369124,20.041615],[-98.8369362,20.0414403],[-98.8369533,20.0411548]]]},"properties":{"locality":"LA CAÑADA","official_key":"1308200020001","CVE_ENT":"13","CVE_MUN":"082","CVE_LOC":"0002","CVE_ASEN":"0001","settlement_type":"COLONIA","source":"INEGI DCAH 2025"}},{"type":"Feature","geometry":{"type":"Polygon","coordinates":[[[-98.8416403,20.031833],[-98.8408873,20.0314466],[-98.8402496,20.0311196],[-98.8401904,20.0310786],[-98.8397986,20.0308875],[-98.8391774,20.0306165],[-98.8391629,20.0306102],[-98.838599,20.0303968],[-98.8380949,20.0302313],[-98.8384683,20.0292148],[-98.8386365,20.0287703],[-98.8390477,20.0276392],[-98.8392561,20.0270852],[-98.8400328,20.0249799],[-98.8404775,20.0237739],[-98.8407844,20.0229129],[-98.8408339,20.022944],[-98.8410278,20.0230297],[-98.8420859,20.0234887],[-98.8426679,20.0237622],[-98.8424343,20.0244364],[-98.8421799,20.0251704],[-98.843538,20.0257288],[-98.8440622,20.0243149],[-98.8443524,20.0244352],[-98.8444129,20.0244529],[-98.8448386,20.0246277],[-98.8462937,20.0252306],[-98.8463402,20.0252644],[-98.8462362,20.0255206],[-98.8460858,20.025893],[-98.8459545,20.0262864],[-98.8458073,20.0266852],[-98.8456584,20.0270399],[-98.8455448,20.0273566],[-98.84542,20.027664],[-98.8452664,20.0280606],[-98.8451098,20.0284511],[-98.8450106,20.0287168],[-98.8448729,20.0290633],[-98.844745,20.0293355],[-98.8441877,20.0308083],[-98.8438191,20.0317947],[-98.8437679,20.0319884],[-98.8437265,20.0320408],[-98.8433105,20.0329602],[-98.8431703,20.0327673],[-98.8430447,20.0325441],[-98.8426961,20.0323741],[-98.8422348,20.0321275],[-98.8420517,20.0320309],[-98.8416403,20.031833]]]},"properties":{"locality":"CENTRO","official_key":"1308200020002","CVE_ENT":"13","CVE_MUN":"082","CVE_LOC":"0002","CVE_ASEN":"0002","settlement_type":"COLONIA","source":"INEGI DCAH 2025"}},{"type":"Feature","geometry":{"type":"Polygon","coordinates":[[[-98.8371414,20.0380083],[-98.8371562,20.0379465],[-98.8371682,20.0377943],[-98.8371376,20.0376341],[-98.8371122,20.0375319],[-98.8371025,20.0374113],[-98.8371057,20.0372882],[-98.8371225,20.0371685],[-98.8371256,20.0369712],[-98.8371004,20.036772],[-98.8371723,20.0366301],[-98.8372593,20.0365045],[-98.8373753,20.0364397],[-98.8374618,20.0364295],[-98.8375026,20.0364373],[-98.8375932,20.0365902],[-98.8376159,20.0366285],[-98.8377831,20.0368384],[-98.8379318,20.0370011],[-98.8379716,20.0370326],[-98.8382127,20.0366929],[-98.8383238,20.036532],[-98.8383503,20.0364804],[-98.8383554,20.036407],[-98.838424,20.0360681],[-98.8384732,20.0358809],[-98.8385692,20.0355483],[-98.8386479,20.0353119],[-98.8386845,20.0351952],[-98.8387921,20.0348995],[-98.8389333,20.0345242],[-98.8391215,20.0340104],[-98.8392627,20.0336519],[-98.8393102,20.0335124],[-98.8395032,20.0329589],[-98.8395276,20.0328888],[-98.8395962,20.0327268],[-98.839758,20.0322406],[-98.8398492,20.0319954],[-98.8399169,20.0318238],[-98.840061,20.0314069],[-98.8401904,20.0310786],[-98.8402496,20.0311196],[-98.8408873,20.0314466],[-98.8416403,20.031833],[-98.841197,20.0324369],[-98.8406925,20.0331271],[-98.8411009,20.0333235],[-98.8411941,20.0334202],[-98.8413286,20.0336236],[-98.8413575,20.0337661],[-98.8413831,20.0338669],[-98.8414427,20.0341265],[-98.8414943,20.0342611],[-98.8415537,20.0344031],[-98.8415773,20.0344697],[-98.8415954,20.0346214],[-98.8415822,20.0347488],[-98.8415385,20.0351662],[-98.8414853,20.035531],[-98.8413751,20.0357622],[-98.8411578,20.0361574],[-98.841655,20.0364873],[-98.841516,20.0366315],[-98.8413147,20.0368398],[-98.8411165,20.037056],[-98.8409234,20.0372501],[-98.8408033,20.0373709],[-98.8407597,20.0374066],[-98.840487,20.0376304],[-98.8401419,20.0378622],[-98.8399917,20.0380024],[-98.8398288,20.0381198],[-98.8396977,20.0382618],[-98.8394867,20.0385239],[-98.8392214,20.0388069],[-98.8390661,20.038963],[-98.8390306,20.0389961],[-98.8389487,20.0390726],[-98.8387767,20.0392706],[-98.8387687,20.0392819],[-98.8387428,20.0393185],[-98.8385927,20.0395306],[-98.8383571,20.0397286],[-98.8381963,20.0398606],[-98.8379779,20.0400614],[-98.8376554,20.0404175],[-98.8376355,20.0404395],[-98.8373109,20.0407532],[-98.8370717,20.0410557],[-98.8369533,20.0411548],[-98.8370046,20.0402963],[-98.837073,20.0391523],[-98.8371414,20.0380083]]]},"properties":{"locality":"EL CERRITO","official_key":"1308200020003","CVE_ENT":"13","CVE_MUN":"082","CVE_LOC":"0002","CVE_ASEN":"0003","settlement_type":"COLONIA","source":"INEGI DCAH 2025"}},{"type":"Feature","geometry":{"type":"Polygon","coordinates":[[[-98.8407844,20.0229129],[-98.8404592,20.0227759],[-98.8396771,20.022467],[-98.8389156,20.0221617],[-98.8382764,20.0218919],[-98.8381719,20.0218404],[-98.8379377,20.0217389],[-98.8379727,20.0216773],[-98.8388331,20.0205546],[-98.839425,20.0197644],[-98.8394591,20.019741],[-98.8398403,20.019272],[-98.8403795,20.0185864],[-98.8408771,20.0179963],[-98.8413226,20.0175914],[-98.841151,20.0174077],[-98.8407717,20.0171112],[-98.8407177,20.0170912],[-98.8393326,20.0161609],[-98.8388546,20.015841],[-98.8382816,20.0154828],[-98.8367203,20.0145144],[-98.8366449,20.0145205],[-98.8359475,20.0139772],[-98.8354905,20.0136678],[-98.8350955,20.0134505],[-98.834978,20.0133764],[-98.8348474,20.0133361],[-98.8348738,20.013247],[-98.8349755,20.0130344],[-98.835015,20.0129022],[-98.8350843,20.0127811],[-98.8351879,20.0127301],[-98.8353623,20.0127036],[-98.8355075,20.012688],[-98.8356156,20.0127023],[-98.835843,20.0126363],[-98.8360265,20.0125421],[-98.8362033,20.0123941],[-98.8362942,20.0122679],[-98.8364733,20.0119509],[-98.8365078,20.0119005],[-98.8365999,20.0117894],[-98.836892,20.0115417],[-98.837123,20.0113567],[-98.8373798,20.011245],[-98.837528,20.0111627],[-98.837687,20.0110565],[-98.8379121,20.0108563],[-98.8381498,20.0106383],[-98.8383388,20.0104713],[-98.8384471,20.010374],[-98.8385541,20.0103124],[-98.8387041,20.0102583],[-98.8386709,20.0103342],[-98.83905,20.010579],[-98.8393668,20.0116555],[-98.8396629,20.0125891],[-98.8399208,20.0133717],[-98.8400397,20.0136956],[-98.8404628,20.01312],[-98.8406934,20.0128001],[-98.841044,20.0123321],[-98.8417125,20.0114619],[-98.8421329,20.011626],[-98.8423548,20.0117279],[-98.8429952,20.0123817],[-98.8435116,20.0129297],[-98.8438984,20.0133524],[-98.8441951,20.0136464],[-98.8446301,20.0125134],[-98.846615,20.0131259],[-98.8463199,20.0133955],[-98.846245,20.0136202],[-98.8459234,20.0145231],[-98.8455085,20.0157452],[-98.8446999,20.0179943],[-98.8441531,20.0194816],[-98.8441352,20.0195539],[-98.8434176,20.0216136],[-98.8426679,20.0237622],[-98.8420859,20.0234887],[-98.8410278,20.0230297],[-98.8408339,20.022944],[-98.8407844,20.0229129]]]},"properties":{"locality":"EL HERRADERO","official_key":"1308200020004","CVE_ENT":"13","CVE_MUN":"082","CVE_LOC":"0002","CVE_ASEN":"0004","settlement_type":"COLONIA","source":"INEGI DCAH 2025"}},{"type":"Feature","geometry":{"type":"Polygon","coordinates":[[[-98.8494014,20.0140115],[-98.8494903,20.0139808],[-98.8495762,20.0139473],[-98.8496711,20.0139082],[-98.8498134,20.0138579],[-98.8498904,20.01383],[-98.8499406,20.0139895],[-98.8500233,20.0142778],[-98.8500727,20.014453],[-98.8502565,20.0151049],[-98.8502941,20.0152364],[-98.850533,20.0160725],[-98.8505517,20.0163603],[-98.8504545,20.0164322],[-98.8503309,20.0165982],[-98.850242,20.0167264],[-98.8501198,20.0163375],[-98.8499826,20.0159195],[-98.8499697,20.01588],[-98.8498152,20.0153796],[-98.8498148,20.0153783],[-98.8495902,20.0145964],[-98.8494014,20.0140115]]]},"properties":{"locality":"HUATONGO","official_key":"1308200020005","CVE_ENT":"13","CVE_MUN":"082","CVE_LOC":"0002","CVE_ASEN":"0005","settlement_type":"COLONIA","source":"INEGI DCAH 2025"}},{"type":"Feature","geometry":{"type":"Polygon","coordinates":[[[-98.841197,20.0324369],[-98.8416403,20.031833],[-98.8420517,20.0320309],[-98.8422348,20.0321275],[-98.8426961,20.0323741],[-98.8430447,20.0325441],[-98.8431703,20.0327673],[-98.8433105,20.0329602],[-98.8429779,20.0337772],[-98.8427683,20.0342586],[-98.8426004,20.0346092],[-98.8421897,20.0354565],[-98.8418035,20.0361874],[-98.8416792,20.0364424],[-98.841655,20.0364873],[-98.8411578,20.0361574],[-98.8413751,20.0357622],[-98.8414853,20.035531],[-98.8415385,20.0351662],[-98.8415822,20.0347488],[-98.8415954,20.0346214],[-98.8415773,20.0344697],[-98.8415537,20.0344031],[-98.8414943,20.0342611],[-98.8414427,20.0341265],[-98.8413831,20.0338669],[-98.8413575,20.0337661],[-98.8413286,20.0336236],[-98.8411941,20.0334202],[-98.8411009,20.0333235],[-98.8406925,20.0331271],[-98.841197,20.0324369]]]},"properties":{"locality":"LOS JORGES","official_key":"1308200020006","CVE_ENT":"13","CVE_MUN":"082","CVE_LOC":"0002","CVE_ASEN":"0006","settlement_type":"COLONIA","source":"INEGI DCAH 2025"}},{"type":"Feature","geometry":{"type":"Polygon","coordinates":[[[-98.8366399,20.0285163],[-98.8368813,20.0279273],[-98.8370569,20.0273767],[-98.8373159,20.0266717],[-98.8374309,20.02633],[-98.8365451,20.0259451],[-98.836545,20.0259451],[-98.834884,20.0253315],[-98.8345406,20.0252027],[-98.8331541,20.0241903],[-98.8328701,20.0239737],[-98.8324536,20.0236814],[-98.8316679,20.0230681],[-98.8312188,20.0227265],[-98.8309241,20.0225313],[-98.8308628,20.0222939],[-98.8308515,20.0222503],[-98.8307342,20.0217966],[-98.8307045,20.0215272],[-98.8307003,20.0214886],[-98.8306947,20.0214382],[-98.830235,20.0211276],[-98.8298643,20.0208814],[-98.8293066,20.0205592],[-98.8297473,20.0205542],[-98.8305509,20.0205298],[-98.8307762,20.0204926],[-98.8309616,20.0204571],[-98.8313696,20.020379],[-98.8318747,20.0202794],[-98.8321624,20.0202226],[-98.8322522,20.0202298],[-98.8322072,20.0202637],[-98.8330747,20.0212529],[-98.8334591,20.0205065],[-98.8337248,20.0199853],[-98.8337303,20.0200066],[-98.8341194,20.0202216],[-98.8344966,20.0204438],[-98.8345305,20.0204592],[-98.8350317,20.0207871],[-98.8353972,20.0210011],[-98.8364227,20.0216065],[-98.8364529,20.0216612],[-98.8367616,20.021665],[-98.8369382,20.0216725],[-98.8375808,20.0217219],[-98.8379377,20.0217389],[-98.8381719,20.0218404],[-98.8382764,20.0218919],[-98.8389156,20.0221617],[-98.8396771,20.022467],[-98.8404592,20.0227759],[-98.8407844,20.0229129],[-98.8404775,20.0237739],[-98.8400328,20.0249799],[-98.8392561,20.0270852],[-98.8390477,20.0276392],[-98.8386365,20.0287703],[-98.8384683,20.0292148],[-98.8371399,20.028692],[-98.8366972,20.0285395],[-98.8366399,20.0285163]]]},"properties":{"locality":"LÁZARO CÁRDENAS","official_key":"1308200020007","CVE_ENT":"13","CVE_MUN":"082","CVE_LOC":"0002","CVE_ASEN":"0007","settlement_type":"COLONIA","source":"INEGI DCAH 2025"}},{"type":"Feature","geometry":{"type":"Polygon","coordinates":[[[-98.8369382,20.0216725],[-98.8367616,20.021665],[-98.8364529,20.0216612],[-98.8364227,20.0216065],[-98.8353972,20.0210011],[-98.8350317,20.0207871],[-98.8345305,20.0204592],[-98.8344966,20.0204438],[-98.8341194,20.0202216],[-98.8337303,20.0200066],[-98.8337248,20.0199853],[-98.8334591,20.0205065],[-98.8330747,20.0212529],[-98.8322072,20.0202637],[-98.8322522,20.0202298],[-98.8321624,20.0202226],[-98.8318747,20.0202794],[-98.8313696,20.020379],[-98.8309616,20.0204571],[-98.8307762,20.0204926],[-98.8305509,20.0205298],[-98.8297473,20.0205542],[-98.8293066,20.0205592],[-98.8289767,20.0203711],[-98.8280513,20.0198977],[-98.8280061,20.0198811],[-98.8280965,20.0197595],[-98.8281843,20.0196643],[-98.8282813,20.0195497],[-98.8284791,20.0192959],[-98.8286708,20.0190417],[-98.8287752,20.0189266],[-98.8288882,20.0188387],[-98.8290145,20.0187581],[-98.8290866,20.0187017],[-98.8295975,20.0183441],[-98.8298176,20.0182749],[-98.8300066,20.0182112],[-98.8300724,20.0181367],[-98.8302424,20.0178971],[-98.8303354,20.017746],[-98.8307617,20.0170369],[-98.8308491,20.0169133],[-98.8309329,20.0168236],[-98.8310329,20.0167866],[-98.8311978,20.0166965],[-98.8313959,20.0165899],[-98.8315876,20.0164984],[-98.8317605,20.0164268],[-98.8316302,20.0161432],[-98.8315886,20.0158874],[-98.8316159,20.0156782],[-98.8316777,20.0154853],[-98.8317714,20.0152389],[-98.8319425,20.0148452],[-98.8324257,20.01409],[-98.833257,20.0134817],[-98.8340882,20.0128734],[-98.8348474,20.0133361],[-98.834978,20.0133764],[-98.8350955,20.0134505],[-98.8354905,20.0136678],[-98.8359475,20.0139772],[-98.8366449,20.0145205],[-98.8367203,20.0145144],[-98.8382816,20.0154828],[-98.8388546,20.015841],[-98.8393326,20.0161609],[-98.8407177,20.0170912],[-98.8407717,20.0171112],[-98.841151,20.0174077],[-98.8413226,20.0175914],[-98.8408771,20.0179963],[-98.8403795,20.0185864],[-98.8398403,20.019272],[-98.8394591,20.019741],[-98.839425,20.0197644],[-98.8388331,20.0205546],[-98.8379727,20.0216773],[-98.8379377,20.0217389],[-98.8375808,20.0217219],[-98.8369382,20.0216725]]]},"properties":{"locality":"LOMAS DEL PEDREGAL","official_key":"1308200020008","CVE_ENT":"13","CVE_MUN":"082","CVE_LOC":"0002","CVE_ASEN":"0008","settlement_type":"COLONIA","source":"INEGI DCAH 2025"}},{"type":"Feature","geometry":{"type":"Polygon","coordinates":[[[-98.8298066,20.023426],[-98.829958,20.0233876],[-98.8299861,20.0234067],[-98.8299944,20.0234123],[-98.8299974,20.023411],[-98.8302135,20.02332],[-98.8302912,20.0232734],[-98.8305745,20.0230766],[-98.8305745,20.0230766],[-98.8306578,20.0230188],[-98.8307809,20.0229208],[-98.8309705,20.02277],[-98.8309772,20.0227646],[-98.8309829,20.0227601],[-98.8309832,20.0227599],[-98.8309426,20.0226027],[-98.8309241,20.0225313],[-98.8312188,20.0227265],[-98.8316679,20.0230681],[-98.8324536,20.0236814],[-98.8328701,20.0239737],[-98.8331541,20.0241903],[-98.8345406,20.0252027],[-98.834884,20.0253315],[-98.836545,20.0259451],[-98.8365451,20.0259451],[-98.8374309,20.02633],[-98.8373159,20.0266717],[-98.8370569,20.0273767],[-98.8368813,20.0279273],[-98.8366399,20.0285163],[-98.8365799,20.0285105],[-98.835162,20.0280969],[-98.8351219,20.0280619],[-98.8346556,20.0278901],[-98.8342762,20.0277625],[-98.833507,20.0275086],[-98.8330698,20.0273437],[-98.8318209,20.0269378],[-98.8308773,20.0266036],[-98.8301231,20.0263528],[-98.8300697,20.0263413],[-98.8300639,20.0261176],[-98.8300441,20.0258142],[-98.8300643,20.0257536],[-98.8301411,20.0257206],[-98.8301259,20.025463],[-98.8300178,20.0253883],[-98.8299139,20.0253397],[-98.8298725,20.0253353],[-98.8298284,20.0253306],[-98.829762,20.0252959],[-98.8297179,20.0252735],[-98.8296738,20.025251],[-98.8296223,20.0252215],[-98.8295707,20.025192],[-98.8294975,20.0251099],[-98.829427,20.0250995],[-98.8293639,20.0250797],[-98.8292893,20.025054],[-98.829231,20.0250014],[-98.8291862,20.0249577],[-98.8291184,20.024941],[-98.8290072,20.0248691],[-98.8289205,20.024816],[-98.8288615,20.0247346],[-98.8287997,20.0246749],[-98.828711,20.0246431],[-98.8287013,20.0246396],[-98.8287004,20.0246393],[-98.8286995,20.024639],[-98.8286223,20.0246113],[-98.8284791,20.024554],[-98.8284716,20.024551],[-98.828425,20.0245043],[-98.8284133,20.0244716],[-98.828411,20.0244653],[-98.8284126,20.0244629],[-98.8284112,20.0244446],[-98.8287815,20.0237916],[-98.8287831,20.0237889],[-98.8287831,20.0237887],[-98.8287848,20.023782],[-98.8288063,20.0236951],[-98.8288186,20.0236916],[-98.8288375,20.0236863],[-98.8288618,20.0236795],[-98.8288781,20.0236748],[-98.8289633,20.0236517],[-98.8295707,20.0234868],[-98.829624,20.0234723],[-98.8298066,20.023426]]]},"properties":{"locality":"NUEVA SANTA MARÍA","official_key":"1308200020009","CVE_ENT":"13","CVE_MUN":"082","CVE_LOC":"0002","CVE_ASEN":"0009","settlement_type":"COLONIA","source":"INEGI DCAH 2025"}},{"type":"Feature","geometry":{"type":"Polygon","coordinates":[[[-98.833928,20.0365484],[-98.8333853,20.0363052],[-98.8327685,20.0360286],[-98.8327574,20.0360202],[-98.8327708,20.0357978],[-98.8327718,20.0357832],[-98.8327724,20.035773],[-98.8327744,20.0357421],[-98.8327864,20.035551],[-98.8327885,20.0353702],[-98.8327523,20.0351893],[-98.8326789,20.034997],[-98.8326684,20.0349741],[-98.8326412,20.0349147],[-98.8326245,20.034878],[-98.8326193,20.0348666],[-98.8325792,20.034779],[-98.8325783,20.0347407],[-98.8325762,20.0346461],[-98.8325875,20.0344023],[-98.8326197,20.034299],[-98.8327433,20.0337653],[-98.8327272,20.0337357],[-98.832569,20.0336776],[-98.8325656,20.0336434],[-98.8325608,20.033594],[-98.8325185,20.0335022],[-98.8324672,20.0333909],[-98.8322976,20.0330456],[-98.8322288,20.0329639],[-98.8321404,20.0327986],[-98.832083,20.032648],[-98.8320347,20.0324613],[-98.8319906,20.0323802],[-98.8318773,20.0322536],[-98.8317532,20.0320906],[-98.8315626,20.0317978],[-98.8315344,20.0317128],[-98.8315102,20.0316401],[-98.8314914,20.0315201],[-98.831466,20.0314876],[-98.8314414,20.0314563],[-98.831421,20.0314303],[-98.8313154,20.0312898],[-98.8312208,20.0311467],[-98.8311636,20.0310079],[-98.8310847,20.0308165],[-98.8309244,20.0304846],[-98.8308622,20.0303754],[-98.8307559,20.0301885],[-98.8306325,20.0299718],[-98.8304001,20.029592],[-98.8302829,20.0294005],[-98.8302565,20.0293521],[-98.8302411,20.029324],[-98.8302395,20.0293211],[-98.8302338,20.029229],[-98.8302023,20.0287238],[-98.8301812,20.0283861],[-98.8301254,20.0273637],[-98.8300697,20.0263413],[-98.8301231,20.0263528],[-98.8308773,20.0266036],[-98.8318209,20.0269378],[-98.8330698,20.0273437],[-98.833507,20.0275086],[-98.8342762,20.0277625],[-98.8346556,20.0278901],[-98.8351219,20.0280619],[-98.835162,20.0280969],[-98.8365799,20.0285105],[-98.8366399,20.0285163],[-98.8366972,20.0285395],[-98.8371399,20.028692],[-98.8384683,20.0292148],[-98.8380949,20.0302313],[-98.838599,20.0303968],[-98.8391629,20.0306102],[-98.8391774,20.0306165],[-98.8397986,20.0308875],[-98.8401904,20.0310786],[-98.840061,20.0314069],[-98.8399169,20.0318238],[-98.8398492,20.0319954],[-98.839758,20.0322406],[-98.8395962,20.0327268],[-98.8395276,20.0328888],[-98.8395032,20.0329589],[-98.8393102,20.0335124],[-98.8392627,20.0336519],[-98.8391215,20.0340104],[-98.8389333,20.0345242],[-98.8387921,20.0348995],[-98.8386845,20.0351952],[-98.8386479,20.0353119],[-98.8385692,20.0355483],[-98.8384732,20.0358809],[-98.838424,20.0360681],[-98.8383554,20.036407],[-98.8383503,20.0364804],[-98.8383238,20.036532],[-98.8382127,20.0366929],[-98.8379716,20.0370326],[-98.8379318,20.0370011],[-98.8377831,20.0368384],[-98.8376159,20.0366285],[-98.8375932,20.0365902],[-98.8375026,20.0364373],[-98.8374618,20.0364295],[-98.8373753,20.0364397],[-98.8372593,20.0365045],[-98.8371723,20.0366301],[-98.8371004,20.036772],[-98.8371256,20.0369712],[-98.8371225,20.0371685],[-98.8371057,20.0372882],[-98.8371025,20.0374113],[-98.8371122,20.0375319],[-98.8371376,20.0376341],[-98.8371682,20.0377943],[-98.8371562,20.0379465],[-98.8371414,20.0380083],[-98.8369632,20.0379201],[-98.8367533,20.0378265],[-98.8361535,20.037551],[-98.8357787,20.0373847],[-98.8355019,20.0372566],[-98.8351439,20.0370934],[-98.8350315,20.0370215],[-98.8349705,20.0370185],[-98.8347363,20.0369149],[-98.833928,20.0365484]]]},"properties":{"locality":"OBRERA","official_key":"1308200020010","CVE_ENT":"13","CVE_MUN":"082","CVE_LOC":"0002","CVE_ASEN":"0010","settlement_type":"COLONIA","source":"INEGI DCAH 2025"}},{"type":"Feature","geometry":{"type":"Polygon","coordinates":[[[-98.8463402,20.0252644],[-98.8462937,20.0252306],[-98.8448386,20.0246277],[-98.8444129,20.0244529],[-98.8443524,20.0244352],[-98.8440622,20.0243149],[-98.8427438,20.0237685],[-98.8426679,20.0237622],[-98.8434176,20.0216136],[-98.8441352,20.0195539],[-98.8441531,20.0194816],[-98.8446999,20.0179943],[-98.8455085,20.0157452],[-98.8459234,20.0145231],[-98.846245,20.0136202],[-98.8463199,20.0133955],[-98.846615,20.0131259],[-98.8469943,20.0128445],[-98.8473431,20.0126384],[-98.8477037,20.0124451],[-98.8483448,20.0121103],[-98.8489842,20.01184],[-98.8488472,20.0121924],[-98.8488962,20.0123532],[-98.8490579,20.0128766],[-98.8491995,20.0133137],[-98.8493364,20.0137876],[-98.8494014,20.0140115],[-98.8495902,20.0145964],[-98.8498148,20.0153783],[-98.8498152,20.0153796],[-98.8499697,20.01588],[-98.8499826,20.0159195],[-98.8501198,20.0163375],[-98.850242,20.0167264],[-98.8503309,20.0165982],[-98.8504545,20.0164322],[-98.8505517,20.0163603],[-98.8505562,20.0164239],[-98.8506041,20.0171033],[-98.8506658,20.0175182],[-98.8506639,20.0177548],[-98.8509354,20.017815],[-98.8511174,20.0178473],[-98.8511892,20.0177896],[-98.8514074,20.0176425],[-98.8515707,20.0175483],[-98.851595,20.0175294],[-98.8518139,20.0178426],[-98.8520311,20.0181681],[-98.8521593,20.0183286],[-98.8523852,20.0182358],[-98.8525959,20.0181434],[-98.8527919,20.0180994],[-98.8530609,20.0180453],[-98.8530319,20.0180715],[-98.8528693,20.0182179],[-98.852731,20.018343],[-98.8526619,20.0184055],[-98.8524592,20.0185625],[-98.8523348,20.0187379],[-98.8523191,20.0187541],[-98.8522966,20.0187772],[-98.8521213,20.0189578],[-98.8520712,20.0190005],[-98.8511787,20.0197621],[-98.8512646,20.0200437],[-98.8513701,20.0203899],[-98.8514702,20.0207182],[-98.8516308,20.0212397],[-98.851735,20.021578],[-98.8519069,20.0221271],[-98.8519526,20.0223297],[-98.8520206,20.0226305],[-98.8520385,20.0227099],[-98.8520441,20.0227797],[-98.8520461,20.0227923],[-98.8520459,20.0228025],[-98.8520592,20.0229676],[-98.8520634,20.0230193],[-98.8520633,20.0231471],[-98.8520633,20.0231532],[-98.8520631,20.0235126],[-98.852045,20.0237215],[-98.8520422,20.0237538],[-98.8519416,20.0242883],[-98.8518647,20.0246603],[-98.8517964,20.0249862],[-98.8517933,20.0250173],[-98.8517527,20.0254175],[-98.85172,20.0257897],[-98.8517001,20.026016],[-98.8516693,20.02624],[-98.8516455,20.0264125],[-98.8516054,20.0268968],[-98.851601,20.0269498],[-98.8515613,20.0274],[-98.8515596,20.0275518],[-98.8515137,20.0275284],[-98.8500882,20.0268927],[-98.8484112,20.0261378],[-98.8483507,20.0261037],[-98.846378,20.0252979],[-98.8463402,20.0252644]]]},"properties":{"locality":"PUEBLO NUEVO","official_key":"1308200020011","CVE_ENT":"13","CVE_MUN":"082","CVE_LOC":"0002","CVE_ASEN":"0011","settlement_type":"COLONIA","source":"INEGI DCAH 2025"}},{"type":"Feature","geometry":{"type":"Polygon","coordinates":[[[-98.8440622,20.0243149],[-98.843538,20.0257288],[-98.8421799,20.0251704],[-98.8424343,20.0244364],[-98.8426679,20.0237622],[-98.8427438,20.0237685],[-98.8440622,20.0243149]]]},"properties":{"locality":"RESIDENCIAL ACAYUCA","official_key":"1308200020012","CVE_ENT":"13","CVE_MUN":"082","CVE_LOC":"0002","CVE_ASEN":"0012","settlement_type":"FRACCIONAMIENTO","source":"INEGI DCAH 2025"}},{"type":"Feature","geometry":{"type":"Polygon","coordinates":[[[-98.8705435,19.9827946],[-98.8706885,19.9827928],[-98.8710685,19.9828672],[-98.8715032,19.9829545],[-98.8719887,19.9830602],[-98.8724584,19.9831456],[-98.8728139,19.9832082],[-98.8738977,19.9834077],[-98.8741386,19.9834519],[-98.8743475,19.9834901],[-98.8744976,19.9835208],[-98.8750842,19.9836217],[-98.8756816,19.9837304],[-98.8762577,19.9838372],[-98.8774634,19.9840922],[-98.8778577,19.9841475],[-98.8781771,19.9842005],[-98.8788502,19.985379],[-98.8775319,19.9860368],[-98.8764603,19.9865478],[-98.8759516,19.9867729],[-98.8754069,19.9870489],[-98.8749255,19.9872691],[-98.8744903,19.9874897],[-98.8744427,19.9875164],[-98.8735796,19.9879792],[-98.8733565,19.9875963],[-98.8727112,19.9864415],[-98.8725398,19.9861344],[-98.8722748,19.985672],[-98.8720989,19.9853788],[-98.8720647,19.9852883],[-98.8718688,19.9849587],[-98.8718353,19.9849078],[-98.8705435,19.9827946]]]},"properties":{"locality":"BUENOS AIRES","official_key":"1308200030001","CVE_ENT":"13","CVE_MUN":"082","CVE_LOC":"0003","CVE_ASEN":"0001","settlement_type":"COLONIA","source":"INEGI DCAH 2025"}},{"type":"Feature","geometry":{"type":"Polygon","coordinates":[[[-98.862559,19.9941875],[-98.8623857,19.9939136],[-98.8622114,19.993766],[-98.8619484,19.9936166],[-98.861531,19.99356],[-98.8612348,19.9937458],[-98.8609706,19.9925528],[-98.8607448,19.9924402],[-98.8590915,19.9942413],[-98.8590055,19.9941195],[-98.8587666,19.9942674],[-98.8584933,19.9938118],[-98.8583789,19.9935598],[-98.8583442,19.993499],[-98.858331,19.9934721],[-98.8582967,19.9934025],[-98.8581612,19.9931289],[-98.8578177,19.9924588],[-98.8576552,19.992125],[-98.8576063,19.9920203],[-98.8575794,19.9919628],[-98.8575306,19.9919009],[-98.8569529,19.9908411],[-98.85678,19.9904944],[-98.8568075,19.9904356],[-98.8570293,19.9899617],[-98.8570843,19.9898442],[-98.8570966,19.9898224],[-98.8572323,19.9895813],[-98.8572362,19.9895731],[-98.8581701,19.9898519],[-98.8583,19.9897756],[-98.8589602,19.9893663],[-98.860164,19.9886591],[-98.8601962,19.9886392],[-98.8602391,19.9885881],[-98.8613741,19.9878899],[-98.8614829,19.9878296],[-98.8621041,19.9874585],[-98.8631632,19.9868469],[-98.8639698,19.9863326],[-98.8640085,19.9863091],[-98.8640422,19.986334],[-98.8643349,19.9861622],[-98.8651204,19.9856663],[-98.8660456,19.985097],[-98.8662046,19.985001],[-98.8669858,19.9845319],[-98.8674097,19.9856883],[-98.8674347,19.9857397],[-98.8676824,19.9863612],[-98.8678539,19.9867021],[-98.8680114,19.9869463],[-98.8680301,19.9869747],[-98.8681131,19.9871002],[-98.868247,19.9873147],[-98.8685098,19.987701],[-98.8684838,19.9883437],[-98.8686544,19.9883877],[-98.8689839,19.9884331],[-98.8691256,19.9884489],[-98.8693685,19.9884804],[-98.8699708,19.9885499],[-98.8699829,19.989224],[-98.870015,19.989476],[-98.8701359,19.9898187],[-98.8701815,19.9899139],[-98.8701901,19.9901095],[-98.8702015,19.99034],[-98.8702072,19.9907139],[-98.870213,19.9907701],[-98.870207,19.9908155],[-98.8701545,19.9911615],[-98.8699883,19.9919722],[-98.869974,19.9920352],[-98.8699367,19.9920654],[-98.8697527,19.992612],[-98.8696908,19.9927767],[-98.8696223,19.9930005],[-98.8692976,19.9929282],[-98.8689604,19.9928143],[-98.8683463,19.992653],[-98.8676469,19.9925015],[-98.8673459,19.9924325],[-98.8673579,19.9924703],[-98.8673093,19.9927875],[-98.8672545,19.9931198],[-98.8662066,19.9928873],[-98.8659714,19.9928204],[-98.8650041,19.9925788],[-98.8647046,19.9931344],[-98.8646684,19.9932045],[-98.8642463,19.9940228],[-98.8632877,19.9942066],[-98.8632806,19.9941884],[-98.8626793,19.9943875],[-98.862559,19.9941875]]]},"properties":{"locality":"CENTRO","official_key":"1308200030002","CVE_ENT":"13","CVE_MUN":"082","CVE_LOC":"0003","CVE_ASEN":"0002","settlement_type":"COLONIA","source":"INEGI DCAH 2025"}},{"type":"Feature","geometry":{"type":"Polygon","coordinates":[[[-98.8632877,19.9942066],[-98.8642463,19.9940228],[-98.8646684,19.9932045],[-98.8647046,19.9931344],[-98.8650041,19.9925788],[-98.8659714,19.9928204],[-98.8662066,19.9928873],[-98.8672545,19.9931198],[-98.8673093,19.9927875],[-98.8673579,19.9924703],[-98.8673459,19.9924325],[-98.8676469,19.9925015],[-98.8683463,19.992653],[-98.8689604,19.9928143],[-98.8692976,19.9929282],[-98.8692696,19.9929684],[-98.8689073,19.993483],[-98.8685192,19.9940514],[-98.8683579,19.994319],[-98.8681979,19.9945843],[-98.8680489,19.9948098],[-98.8680043,19.9949337],[-98.8679633,19.9950627],[-98.8678103,19.9956236],[-98.8676024,19.9964143],[-98.8673439,19.9972874],[-98.8674996,19.9984281],[-98.8669267,19.9988628],[-98.8667211,19.9990224],[-98.8663054,19.9993227],[-98.8659799,19.9995553],[-98.8657488,19.9997067],[-98.8656706,19.9995512],[-98.8648059,19.9975999],[-98.8638032,19.9953469],[-98.8637625,19.9952765],[-98.8636078,19.994924],[-98.8632877,19.9942066]]]},"properties":{"locality":"EL CERRITO","official_key":"1308200030003","CVE_ENT":"13","CVE_MUN":"082","CVE_LOC":"0003","CVE_ASEN":"0003","settlement_type":"COLONIA","source":"INEGI DCAH 2025"}},{"type":"Feature","geometry":{"type":"Polygon","coordinates":[[[-98.8572362,19.9895731],[-98.857716,19.988575],[-98.8579592,19.9880715],[-98.8581268,19.987715],[-98.858335,19.9872683],[-98.8585821,19.9867437],[-98.8588258,19.986211],[-98.8590379,19.9857618],[-98.8592016,19.9854086],[-98.8593532,19.9850971],[-98.859516,19.9848031],[-98.8596675,19.9845366],[-98.859718,19.9844223],[-98.8597771,19.9842233],[-98.8598273,19.9839673],[-98.8598678,19.9836509],[-98.8599416,19.9831441],[-98.8600674,19.9822431],[-98.8602387,19.9809357],[-98.8603012,19.9809442],[-98.8609344,19.9810697],[-98.8620006,19.9812556],[-98.8627177,19.9813822],[-98.8628539,19.9813867],[-98.8637287,19.9815468],[-98.8638314,19.9815696],[-98.8643676,19.9816681],[-98.8648794,19.9817839],[-98.865,19.9817855],[-98.8661594,19.9820217],[-98.8663583,19.9820452],[-98.8670818,19.9821853],[-98.8671448,19.9821994],[-98.8672996,19.9822369],[-98.8673688,19.9822461],[-98.8684888,19.9824274],[-98.8690913,19.9825681],[-98.869384,19.9825963],[-98.869458,19.9825911],[-98.8696133,19.9826175],[-98.8700011,19.9827093],[-98.8699684,19.9827333],[-98.8695368,19.9830064],[-98.8690353,19.9833079],[-98.8688038,19.9834471],[-98.8680268,19.9839308],[-98.8678875,19.9840114],[-98.8677208,19.9840784],[-98.8675708,19.9841641],[-98.8673928,19.9842752],[-98.8670225,19.9845217],[-98.8669858,19.9845319],[-98.8662046,19.985001],[-98.8660456,19.985097],[-98.8651204,19.9856663],[-98.8643349,19.9861622],[-98.8640422,19.986334],[-98.8640085,19.9863091],[-98.8639698,19.9863326],[-98.8631632,19.9868469],[-98.8621041,19.9874585],[-98.8614829,19.9878296],[-98.8613741,19.9878899],[-98.8602391,19.9885881],[-98.8601962,19.9886392],[-98.860164,19.9886591],[-98.8589602,19.9893663],[-98.8583,19.9897756],[-98.8581701,19.9898519],[-98.8572362,19.9895731]]]},"properties":{"locality":"NIÑOS HÉROES","official_key":"1308200030004","CVE_ENT":"13","CVE_MUN":"082","CVE_LOC":"0003","CVE_ASEN":"0004","settlement_type":"COLONIA","source":"INEGI DCAH 2025"}},{"type":"Feature","geometry":{"type":"Polygon","coordinates":[[[-98.8679633,19.9950627],[-98.8680043,19.9949337],[-98.8680489,19.9948098],[-98.8681979,19.9945843],[-98.8683579,19.994319],[-98.8685192,19.9940514],[-98.8689073,19.993483],[-98.8692696,19.9929684],[-98.8692976,19.9929282],[-98.8696223,19.9930005],[-98.8696908,19.9927767],[-98.8697527,19.992612],[-98.8699367,19.9920654],[-98.869974,19.9920352],[-98.8699883,19.9919722],[-98.8701545,19.9911615],[-98.870207,19.9908155],[-98.870213,19.9907701],[-98.8702072,19.9907139],[-98.8702015,19.99034],[-98.8701901,19.9901095],[-98.8701815,19.9899139],[-98.8701359,19.9898187],[-98.870015,19.989476],[-98.8699829,19.989224],[-98.8699708,19.9885499],[-98.8693685,19.9884804],[-98.8691256,19.9884489],[-98.8689839,19.9884331],[-98.8686544,19.9883877],[-98.8684838,19.9883437],[-98.8685098,19.987701],[-98.868247,19.9873147],[-98.8681131,19.9871002],[-98.8680301,19.9869747],[-98.8680114,19.9869463],[-98.8678539,19.9867021],[-98.8676824,19.9863612],[-98.8674347,19.9857397],[-98.8674097,19.9856883],[-98.8669858,19.9845319],[-98.8670225,19.9845217],[-98.8673928,19.9842752],[-98.8675708,19.9841641],[-98.8677208,19.9840784],[-98.8678875,19.9840114],[-98.8680268,19.9839308],[-98.8688038,19.9834471],[-98.8690353,19.9833079],[-98.8695368,19.9830064],[-98.8699684,19.9827333],[-98.8700011,19.9827093],[-98.8704316,19.9827828],[-98.8705435,19.9827946],[-98.8718353,19.9849078],[-98.8718688,19.9849587],[-98.8720647,19.9852883],[-98.8720989,19.9853788],[-98.8722748,19.985672],[-98.8725398,19.9861344],[-98.8727112,19.9864415],[-98.8733565,19.9875963],[-98.8735796,19.9879792],[-98.8744427,19.9875164],[-98.8744903,19.9874897],[-98.8749255,19.9872691],[-98.8754069,19.9870489],[-98.8759516,19.9867729],[-98.8764603,19.9865478],[-98.8775319,19.9860368],[-98.8788502,19.985379],[-98.8791718,19.985942],[-98.8797493,19.9871256],[-98.8798498,19.9872562],[-98.879866,19.9872773],[-98.8800811,19.9876754],[-98.8802488,19.9878761],[-98.8802567,19.9882305],[-98.8798821,19.9886666],[-98.8797306,19.9890268],[-98.8796398,19.9893915],[-98.87938,19.9897443],[-98.8793954,19.9901679],[-98.8792664,19.9903343],[-98.8793051,19.9906331],[-98.8793708,19.9909183],[-98.87902,19.9915044],[-98.8791759,19.9916738],[-98.8792472,19.99181],[-98.8792603,19.9919516],[-98.8792254,19.9922728],[-98.8792033,19.9923837],[-98.8797922,19.99267],[-98.8801089,19.9927407],[-98.8791875,19.9943325],[-98.878853,19.9941498],[-98.8789808,19.9938619],[-98.8785297,19.9935818],[-98.8782082,19.9933896],[-98.877873,19.9939614],[-98.8788713,19.9943746],[-98.8784314,19.9950423],[-98.8782211,19.994937],[-98.878013,19.9948669],[-98.8778163,19.9947971],[-98.8775156,19.9946921],[-98.8773576,19.9946351],[-98.8772661,19.9946022],[-98.8771419,19.9945661],[-98.8770142,19.9946757],[-98.8760733,19.9953407],[-98.8751564,19.9942168],[-98.8747552,19.993654],[-98.8745535,19.9933698],[-98.8740308,19.993706],[-98.8734195,19.9941576],[-98.8727755,19.9946261],[-98.8724134,19.994891],[-98.8717797,19.9953644],[-98.8714945,19.9955708],[-98.8713253,19.9956896],[-98.8708577,19.9960097],[-98.8700175,19.9966044],[-98.869374,19.997061],[-98.868629,19.9975807],[-98.868425,19.9977385],[-98.8674996,19.9984281],[-98.8673439,19.9972874],[-98.8676024,19.9964143],[-98.8678103,19.9956236],[-98.8679633,19.9950627]]]},"properties":{"locality":"REVOLUCIÓN MEXICANA","official_key":"1308200030005","CVE_ENT":"13","CVE_MUN":"082","CVE_LOC":"0003","CVE_ASEN":"0005","settlement_type":"COLONIA","source":"INEGI DCAH 2025"}},{"type":"Feature","geometry":{"type":"Polygon","coordinates":[[[-98.8178799,20.0258547],[-98.8173207,20.0255347],[-98.8168687,20.0252864],[-98.8161807,20.024858],[-98.8157006,20.0245821],[-98.8159112,20.0241537],[-98.8160828,20.0242167],[-98.8165321,20.0230423],[-98.8169706,20.0230121],[-98.8169961,20.023031],[-98.817377,20.0230486],[-98.8172791,20.0232981],[-98.81732,20.0233202],[-98.8177941,20.0235287],[-98.818297,20.0237643],[-98.8185317,20.0233473],[-98.8188375,20.0234808],[-98.8179215,20.0252978],[-98.8181977,20.0255447],[-98.8178799,20.0258547]]]},"properties":{"locality":"SAN ISIDRO","official_key":"1308200250001","CVE_ENT":"13","CVE_MUN":"082","CVE_LOC":"0025","CVE_ASEN":"0001","settlement_type":"COLONIA","source":"INEGI DCAH 2025"}},{"type":"Feature","geometry":{"type":"Polygon","coordinates":[[[-98.8559953,19.9958839],[-98.8561202,19.9957785],[-98.856133,19.9957888],[-98.8563006,19.9959233],[-98.8565015,19.9961983],[-98.8567606,19.9968825],[-98.8568297,19.9971115],[-98.8569029,19.9971808],[-98.8568832,19.997247],[-98.8558096,19.9982942],[-98.8557314,19.9983666],[-98.8557171,19.9981114],[-98.8557107,19.9980695],[-98.8557018,19.9980299],[-98.8554879,19.9965974],[-98.8554949,19.9965518],[-98.8556426,19.9964342],[-98.8556576,19.9964093],[-98.8557949,19.9961844],[-98.8558039,19.9961708],[-98.8559953,19.9958839]]]},"properties":{"locality":"LA FORTALEZA","official_key":"1308200360001","CVE_ENT":"13","CVE_MUN":"082","CVE_LOC":"0036","CVE_ASEN":"0001","settlement_type":"FRACCIONAMIENTO","source":"INEGI DCAH 2025"}}]}